name,id,rank,continent_id,continent_name,region_id,region_name,country_id,country_name,lid,F,k,lon,lat
Addis Ababa,1,229,1,Africa,1,Eastern Africa,65,Ethiopia,ADD,4156448.5,64,38.799444,8.977778
Nampula,2,1469,1,Africa,1,Eastern Africa,148,Mozambique,APL,140726,6,39.281667,-15.105556
Asmara,3,1079,1,Africa,1,Eastern Africa,63,Eritrea,ASM,307820.5,11,38.910556,15.291944
Berbera,4,1550,1,Africa,1,Eastern Africa,192,Somalia,BBO,122521.5,9,44.941111,10.389167
Beira,5,1485,1,Africa,1,Eastern Africa,148,Mozambique,BEW,138602,5,34.9075,-19.796389
Bujumbura,6,1175,1,Africa,1,Eastern Africa,24,Burundi,BJM,252165,7,29.318611,-3.323889
Bulawayo,7,1316,1,Africa,1,Eastern Africa,230,Zimbabwe,BUQ,191314,3,28.617778,-20.0175
Dar es Salaam,8,395,1,Africa,1,Eastern Africa,211,TanzaniaUnitedRepublicof,DAR,1848753,22,39.2025,-6.878056
Dzaoudzi,9,1388,1,Africa,1,Eastern Africa,227,Mayotte,DZA,165545,7,45.280556,-12.806667
Entebbe,10,535,1,Africa,1,Eastern Africa,213,Uganda,EBB,1083883,20,32.443611,0.0425
Harare,11,574,1,Africa,1,Eastern Africa,230,Zimbabwe,HRE,981347.5,16,31.092778,-17.931944
Djibouti,12,1153,1,Africa,1,Eastern Africa,55,Djibouti,JIB,267303,12,43.159444,11.547222
Kilimanjaro,13,669,1,Africa,1,Eastern Africa,211,TanzaniaUnitedRepublicof,JRO,759808.5,12,37.074444,-3.429444
Kigali,14,624,1,Africa,1,Eastern Africa,179,Rwanda,KGL,841975.5,16,30.139444,-1.968611
Kisumu,15,1284,1,Africa,1,Eastern Africa,105,Kenya,KIS,201312.5,1,34.729722,-0.085556
Lilongwe,16,1339,1,Africa,1,Eastern Africa,145,Malawi,LLW,183194.5,7,33.781111,-13.789444
Lusaka,17,611,1,Africa,1,Eastern Africa,229,Zambia,LUN,882473.5,16,28.4525,-15.330833
Livingstone,18,1478,1,Africa,1,Eastern Africa,229,Zambia,LVI,139994,6,25.822778,-17.821667
Mombasa,19,599,1,Africa,1,Eastern Africa,105,Kenya,MBA,922966.5,18,39.599722,-4.028056
Mogadishu,20,1544,1,Africa,1,Eastern Africa,192,Somalia,MGQ,123803,7,45.305,2.014722
Maputo,21,723,1,Africa,1,Eastern Africa,148,Mozambique,MPM,684239,10,32.5725,-25.920833
Mekele,22,1513,1,Africa,1,Eastern Africa,65,Ethiopia,MQX,131520.5,1,39.533333,13.4675
Mauritius,23,413,1,Africa,1,Eastern Africa,143,Mauritius,MRU,1732169,30,57.683611,-20.430278
Mwanza,24,1083,1,Africa,1,Eastern Africa,211,TanzaniaUnitedRepublicof,MWZ,305097,6,32.932778,-2.444444
Nairobi Jomo Kenyatta International Apt,25,212,1,Africa,1,Eastern Africa,105,Kenya,NBO,4635632,64,36.927778,-1.319167
Ndola,26,1344,1,Africa,1,Eastern Africa,229,Zambia,NLA,181259,5,28.666111,-12.997778
St-Denis,27,485,1,Africa,1,Eastern Africa,175,Reunion,RUN,1268991,11,55.510278,-20.887222
Mahe Island,28,933,1,Africa,1,Eastern Africa,182,Seychelles,SEZ,420727.5,11,55.521944,-4.674444
Tete,29,1551,1,Africa,1,Eastern Africa,148,Mozambique,TET,122261,5,33.640278,-16.104722
Antananarivo,30,958,1,Africa,1,Eastern Africa,131,Madagascar,TNR,397275.5,9,47.478889,-18.796944
Victoria Falls,31,1228,1,Africa,1,Eastern Africa,230,Zimbabwe,VFA,227600.5,5,25.838889,-18.095833
Zanzibar,32,865,1,Africa,1,Eastern Africa,211,TanzaniaUnitedRepublicof,ZNZ,486845,15,39.225,-6.221944
Bata,33,1456,1,Africa,2,Middle Africa,83,EquatorialGuinea,BSG,143627.5,3,9.805556,1.905556
Brazzaville,34,639,1,Africa,2,Middle Africa,39,Congo,BZV,821979.5,15,15.253056,-4.251667
Cabinda,35,1222,1,Africa,2,Middle Africa,9,Angola,CAB,229429.5,1,12.188056,-5.597222
Douala,36,573,1,Africa,2,Middle Africa,44,Cameroon,DLA,982340,19,9.719444,4.006111
Lubumbashi,37,1318,1,Africa,2,Middle Africa,37,CongoDemocraticRepublicof,FBM,190491.5,8,27.530833,-11.591389
Kinshasa N'Djili Intl Apt,38,845,1,Africa,2,Middle Africa,37,CongoDemocraticRepublicof,FIH,507546,17,15.444444,-4.385833
Luanda,39,484,1,Africa,2,Middle Africa,9,Angola,LAD,1270592,31,13.231111,-8.858333
Libreville,40,755,1,Africa,2,Middle Africa,72,Gabon,LBV,634483.5,18,9.412222,0.458611
N'Djamena,41,1281,1,Africa,2,Middle Africa,199,Chad,NDJ,202388,14,15.033889,12.133611
Yaounde Nsimalen Intl Apt,42,924,1,Africa,2,Middle Africa,44,Cameroon,NSI,427132.5,13,11.553333,3.7225
Pointe-Noire,43,728,1,Africa,2,Middle Africa,39,Congo,PNR,673853,11,11.886667,-4.816111
Malabo,44,817,1,Africa,2,Middle Africa,83,EquatorialGuinea,SSG,528424.5,15,8.708611,3.755278
Annaba,45,1132,1,Africa,3,Northern Africa,59,Algeria,AAE,277897,9,7.809167,36.822222
Agadir,46,631,1,Africa,3,Northern Africa,127,Morocco,AGA,828231,42,-9.413056,30.325
Algiers,47,248,1,Africa,3,Northern Africa,59,Algeria,ALG,3712469.5,52,3.214722,36.694167
Aswan,48,1408,1,Africa,3,Northern Africa,62,Egypt,ASW,158183,3,32.82,23.964444
Asyut,49,1380,1,Africa,3,Northern Africa,62,Egypt,ATZ,168986.5,5,31.011944,27.046389
Benghazi,50,547,1,Africa,3,Northern Africa,126,LibyanArabJamahiriya,BEN,1064429,17,20.269444,32.096667
Bejaia,51,1274,1,Africa,3,Northern Africa,59,Algeria,BJA,205269.5,6,5.07,36.711944
Cairo,52,102,1,Africa,3,Northern Africa,62,Egypt,CAI,10520092,96,31.405556,30.121944
Casablanca Mohammed V Apt,53,186,1,Africa,3,Northern Africa,127,Morocco,CMN,5522698.5,91,-7.59,33.3675
Constantine,54,917,1,Africa,3,Northern Africa,59,Algeria,CZL,433537.5,11,6.620278,36.276111
Djerba,55,709,1,Africa,3,Northern Africa,205,Tunisia,DJE,703349.5,45,10.775556,33.875
Fes,56,855,1,Africa,3,Northern Africa,127,Morocco,FEZ,494781.5,28,-4.978056,33.927222
Alexandria Borg el Arab,57,429,1,Africa,3,Northern Africa,62,Egypt,HBE,1606093.5,24,29.696389,30.917778
Sohag,58,1345,1,Africa,3,Northern Africa,62,Egypt,HMB,180633,6,31.742778,26.342778
Hurghada,59,494,1,Africa,3,Northern Africa,62,Egypt,HRG,1244662,65,33.801389,27.178611
Juba,60,821,1,Africa,3,Northern Africa,231,SouthSudan,JUB,527330.5,9,31.601111,4.871944
Khartoum,61,393,1,Africa,3,Northern Africa,183,Sudan,KRT,1869140.5,27,32.553056,15.589444
Luxor,62,822,1,Africa,3,Northern Africa,62,Egypt,LXR,526212.5,27,32.706667,25.671111
Monastir,63,1046,1,Africa,3,Northern Africa,205,Tunisia,MIR,330075,35,10.754722,35.758056
Misurata,64,1159,1,Africa,3,Northern Africa,126,LibyanArabJamahiriya,MRA,263760,9,15.061389,32.321944
Enfidha,65,698,1,Africa,3,Northern Africa,205,Tunisia,NBE,710585.5,64,10.438333,36.075556
Nador,66,912,1,Africa,3,Northern Africa,127,Morocco,NDR,439471,20,-3.028333,34.988889
Oran Es Senia Apt,67,625,1,Africa,3,Northern Africa,59,Algeria,ORN,838382.5,24,-0.621111,35.623889
Oujda,68,1028,1,Africa,3,Northern Africa,127,Morocco,OUD,345069.5,22,-1.923889,34.787222
Setif,69,1296,1,Africa,3,Northern Africa,59,Algeria,QSF,197390,5,5.324444,36.178056
Marrakech,70,330,1,Africa,3,Northern Africa,127,Morocco,RAK,2361201,70,-8.036389,31.606944
Rabat,71,1089,1,Africa,3,Northern Africa,127,Morocco,RBA,300710.5,15,-6.751389,34.051389
Marsa Alam,72,1405,1,Africa,3,Northern Africa,62,Egypt,RMF,159374.5,27,34.583611,25.557222
Sebha,73,1250,1,Africa,3,Northern Africa,126,LibyanArabJamahiriya,SEB,212281,9,14.4725,26.986944
Sfax,74,1192,1,Africa,3,Northern Africa,205,Tunisia,SFA,242933,13,10.691111,34.718056
Sharm el-Sheikh,75,419,1,Africa,3,Northern Africa,62,Egypt,SSH,1659954.5,64,34.395,27.977222
Tripoli,76,383,1,Africa,3,Northern Africa,126,LibyanArabJamahiriya,TIP,1955122,29,13.158889,32.663611
Tlemcen,77,1438,1,Africa,3,Northern Africa,59,Algeria,TLM,149174,5,-1.457778,35.013333
Tangier,78,759,1,Africa,3,Northern Africa,127,Morocco,TNG,625549,24,-5.916944,35.726944
Tunis,79,242,1,Africa,3,Northern Africa,205,Tunisia,TUN,3807880,68,10.227222,36.851111
Bloemfontein,80,1105,1,Africa,4,Southern Africa,228,SouthAfrica,BFN,292680,4,26.3025,-29.092778
Cape Town,81,200,1,Africa,4,Southern Africa,228,SouthAfrica,CPT,5121595,20,18.601667,-33.964722
Durban King Shaka International Apt,82,287,1,Africa,4,Southern Africa,228,SouthAfrica,DUR,2855216.5,13,31.116389,-29.614444
East London,83,938,1,Africa,4,Southern Africa,228,SouthAfrica,ELS,417547.5,4,27.825833,-33.035556
Gaborone,84,1131,1,Africa,4,Southern Africa,32,Botswana,GBE,277976,7,25.918333,-24.555278
George,85,1043,1,Africa,4,Southern Africa,228,SouthAfrica,GRJ,333984.5,3,22.378889,-34.005556
Johannesburg Lanseria International Apt,86,585,1,Africa,4,Southern Africa,228,SouthAfrica,HLA,951359.5,3,27.926111,-25.938611
Johannesburg O.R. Tambo International,87,87,1,Africa,4,Southern Africa,228,SouthAfrica,JNB,12128677.5,65,28.246111,-26.139167
Nelspruit,88,1351,1,Africa,4,Southern Africa,228,SouthAfrica,MQP,179544.5,4,31.105556,-25.383056
Port Elizabeth,89,623,1,Africa,4,Southern Africa,228,SouthAfrica,PLZ,846078.5,5,25.617222,-33.985
Windhoek Hosea Kutako International,90,793,1,Africa,4,Southern Africa,149,Namibia,WDH,574001.5,10,17.470833,-22.48
Abidjan,91,505,1,Africa,5,Western Africa,41,Coted'Ivoire,ABJ,1197818,27,-3.926389,5.261389
Abuja,92,308,1,Africa,5,Western Africa,153,Nigeria,ABV,2598067,24,7.263056,9.006667
Accra,93,381,1,Africa,5,Western Africa,77,Ghana,ACC,1973869,31,-0.166667,5.605278
Banjul,94,1007,1,Africa,5,Western Africa,80,Gambia,BJL,360111,21,-16.652222,13.338056
Bamako,95,776,1,Africa,5,Western Africa,134,Mali,BKO,594651.5,26,-7.95,12.533611
Benin City,96,1420,1,Africa,5,Western Africa,153,Nigeria,BNI,154477.5,2,5.599444,6.316944
Boa Vista Island,97,1236,1,Africa,5,Western Africa,50,CapeVerde,BVC,221421,23,-22.888889,16.136667
Calabar,98,1473,1,Africa,5,Western Africa,153,Nigeria,CBQ,140462,2,8.347222,4.976111
Conakry,99,1049,1,Africa,5,Western Africa,81,Guinea,CKY,327397,13,-13.611944,9.576944
Cotonou,100,732,1,Africa,5,Western Africa,25,Benin,COO,669877.5,21,2.384444,6.357222
Dakar,101,426,1,Africa,5,Western Africa,191,Senegal,DKR,1613689,35,-17.493333,14.7425
Enugu,102,1231,1,Africa,5,Western Africa,153,Nigeria,ENU,226223,3,7.561944,6.474167
Freetown Lungi International Apt,103,1026,1,Africa,5,Western Africa,189,SierraLeone,FNA,345868.5,13,-13.195556,8.616389
Kano,104,984,1,Africa,5,Western Africa,153,Nigeria,KAN,373961,11,8.524722,12.0475
Kumasi,105,1088,1,Africa,5,Western Africa,77,Ghana,KMS,300831,1,-1.590833,6.714444
Lome,106,880,1,Africa,5,Western Africa,200,Togo,LFW,468992.5,19,1.254444,6.165556
Lagos,107,207,1,Africa,5,Western Africa,153,Nigeria,LOS,4843536.5,45,3.321111,6.5775
Niamey,108,1008,1,Africa,5,Western Africa,151,Niger,NIM,360061,15,2.176667,13.481111
Nouakchott,109,1136,1,Africa,5,Western Africa,140,Mauritania,NKC,275973,11,-15.948056,18.097778
Ouagadougou,110,796,1,Africa,5,Western Africa,21,BurkinaFaso,OUA,569583,19,-1.5125,12.353333
Port Harcourt,111,572,1,Africa,5,Western Africa,153,Nigeria,PHC,984267.5,3,6.949722,5.015556
Owerri,112,1051,1,Africa,5,Western Africa,153,Nigeria,QOW,326277.5,2,7.206111,5.426944
Uyo,113,1529,1,Africa,5,Western Africa,153,Nigeria,QUO,126980,2,8.091389,4.873889
Praia,114,1095,1,Africa,5,Western Africa,50,CapeVerde,RAI,299004.5,12,-23.484722,14.941389
Monrovia Roberts International Apt,115,1162,1,Africa,5,Western Africa,121,Liberia,ROB,261239,10,-10.362222,6.233889
Sal Island,116,1025,1,Africa,5,Western Africa,50,CapeVerde,SID,346162,35,-22.949444,16.741389
Sao Vicente Island,117,1479,1,Africa,5,Western Africa,50,CapeVerde,VXE,139742.5,14,-25.054722,16.833611
Antigua,118,697,2,Americas,6,Caribbean,4,"AntiguaandBarbuda,LeewardIslands",ANU,711355,30,-61.792778,17.136667
Aruba,119,433,2,Americas,6,Caribbean,15,Aruba,AUA,1567675.5,33,-70.015278,12.501389
Barbados,120,530,2,Americas,6,Caribbean,18,Barbados,BGI,1105703,33,-59.4925,13.074722
Bonaire,121,1031,2,Americas,6,Caribbean,232,Bonaire,BON,343530.5,7,-68.268611,12.131111
Aguadilla,122,1226,2,Americas,6,Caribbean,170,PuertoRico,BQN,228430,4,-67.129444,18.495
Cayo Coco,123,1267,2,Americas,6,Caribbean,49,Cuba,CCC,206378.5,16,-78.328333,22.461111
Curacao,124,440,2,Americas,6,Caribbean,234,Curacao,CUR,1513639,27,-68.959722,12.188889
Dominica Melville Hall Apt,125,1298,2,Americas,6,Caribbean,57,Dominica,DOM,196327,9,-61.3,15.546944
Tortola,126,1343,2,Americas,6,Caribbean,220,"VirginIslands,British",EIS,181364,8,-64.543056,18.444722
Fort de France,127,537,2,Americas,6,Caribbean,139,Martinique,FDF,1080489.5,11,-61.003056,14.591111
Freeport,128,1122,2,Americas,6,Caribbean,30,Bahamas,FPO,287433,11,-78.695556,26.558611
Grand Cayman,129,712,2,Americas,6,Caribbean,114,CaymanIslands,GCM,697596,21,-81.357778,19.292778
Grenada,130,1128,2,Americas,6,Caribbean,74,"Grenada,WindwardIslands",GND,279219,12,-61.786111,12.004167
Havana,131,406,2,Americas,6,Caribbean,49,Cuba,HAV,1763041.5,47,-82.407778,22.990278
Holguin,132,1029,2,Americas,6,Caribbean,49,Cuba,HOG,344833,21,-76.315,20.785556
Norman Manley Intl,133,620,2,Americas,6,Caribbean,102,Jamaica,KIN,854846.5,19,-76.7875,17.935556
Montego Bay,134,373,2,Americas,6,Caribbean,102,Jamaica,MBJ,2045628,55,-77.913333,18.503611
Marsh Harbour,135,1423,2,Americas,6,Caribbean,30,Bahamas,MHH,153709,6,-77.083611,26.511389
Nassau,136,399,2,Americas,6,Caribbean,30,Bahamas,NAS,1821511.5,35,-77.466111,25.038889
Port au Prince,137,658,2,Americas,6,Caribbean,92,Haiti,PAP,796665,16,-72.2925,18.58
Providenciales,138,935,2,Americas,6,Caribbean,198,TurksandCaicosIslands,PLS,419531.5,19,-72.265833,21.773611
Puerto Plata,139,991,2,Americas,6,Caribbean,58,DominicanRepublic,POP,370437,22,-70.57,19.757778
Port of Spain,140,377,2,Americas,6,Caribbean,208,TrinidadandTobago,POS,2019571.5,25,-61.337222,10.595278
Pointe-a-Pitre,141,486,2,Americas,6,Caribbean,82,Guadeloupe,PTP,1267014,18,-61.531944,16.265278
Punta Cana,142,297,2,Americas,6,Caribbean,58,DominicanRepublic,PUJ,2721017.5,75,-68.363333,18.5675
St Barthelemy,143,1126,2,Americas,6,Caribbean,235,SaintBarthelemy,SBH,280193.5,8,-62.843611,17.904444
Santiago de Cuba,144,1381,2,Americas,6,Caribbean,49,Cuba,SCU,168320,13,-75.835278,19.969722
Santo Domingo Las Americas Intl,145,349,2,Americas,6,Caribbean,58,DominicanRepublic,SDQ,2216458,32,-69.668889,18.429722
St Martin,146,1511,2,Americas,6,Caribbean,233,SaintMartin,SFG,131817,2,-63.049167,18.100833
San Juan Luis Munoz Marin Intl Apt,147,203,2,Americas,6,Caribbean,170,PuertoRico,SJU,4990533,44,-66.001944,18.439444
St Kitts,148,1182,2,Americas,6,Caribbean,110,"SaintKittsandNevis,LeewardIslands",SKB,248661,10,-62.718611,17.311111
St Lucia George F.L. Charles Apt,149,1237,2,Americas,6,Caribbean,118,SaintLucia,SLU,221314,8,-60.993056,14.020278
Santa Clara,150,1169,2,Americas,6,Caribbean,49,Cuba,SNU,255554.5,24,-79.943611,22.492222
Santiago,151,708,2,Americas,6,Caribbean,58,DominicanRepublic,STI,703528,9,-70.604722,19.406111
St Thomas Cyril E King Apt,152,643,2,Americas,6,Caribbean,221,"VirginIslands,US",STT,819513.5,18,-64.973333,18.337222
St Croix Henry E. Rohlsen Apt,153,1179,2,Americas,6,Caribbean,221,"VirginIslands,US",STX,250387.5,11,-64.798611,17.701944
St Vincent,154,1359,2,Americas,6,Caribbean,218,StVincentandtheGrenadines,SVD,175886,7,-61.210833,13.144444
St Maarten,155,491,2,Americas,6,Caribbean,236,StMaarten(DutchPart),SXM,1246548.5,35,-63.108889,18.040833
Tobago,156,781,2,Americas,6,Caribbean,208,TrinidadandTobago,TAB,583890,9,-60.832222,11.149722
Hewanorra Intl,157,908,2,Americas,6,Caribbean,118,SaintLucia,UVF,442924,15,-60.9525,13.733333
Juan G Gomez Intl,158,726,2,Americas,6,Caribbean,49,Cuba,VRA,677191,39,-81.435278,23.034444
Acapulco,159,939,2,Americas,7,Central America,146,Mexico,ACA,417544,8,-99.753889,16.756944
Aguascalientes,160,1005,2,Americas,7,Central America,146,Mexico,AGU,360540,6,-102.317778,21.705556
Leon/Guanajuato,161,761,2,Americas,7,Central America,146,Mexico,BJX,625108,11,-101.480833,20.993333
Belize City Goldson Intl Apt,162,1010,2,Americas,7,Central America,34,Belize,BZE,359050,12,-88.308333,17.539167
Ciudad Obregon,163,1554,2,Americas,7,Central America,146,Mexico,CEN,121109,4,-109.833056,27.392778
Ciudad Juarez,164,871,2,Americas,7,Central America,146,Mexico,CJS,475980.5,7,-106.428611,31.636111
Ciudad Del Carmen,165,1190,2,Americas,7,Central America,146,Mexico,CME,243655,2,-91.801111,18.653333
Culiacan,166,608,2,Americas,7,Central America,146,Mexico,CUL,896808.5,8,-107.474722,24.764444
Cancun,167,128,2,Americas,7,Central America,146,Mexico,CUN,8523543.5,125,-86.877222,21.036667
Chihuahua,168,790,2,Americas,7,Central America,146,Mexico,CUU,575377,10,-105.964444,28.702778
Cozumel,169,1135,2,Americas,7,Central America,146,Mexico,CZM,276253.5,14,-86.936944,20.521667
Durango,170,1432,2,Americas,7,Central America,146,Mexico,DGO,151704,5,-104.528056,24.124167
Guadalajara,171,190,2,Americas,7,Central America,146,Mexico,GDL,5334099,42,-103.311111,20.521667
Guatemala City,172,459,2,Americas,7,Central America,85,Guatemala,GUA,1407593.5,20,-90.527222,14.584444
Hermosillo,173,596,2,Americas,7,Central America,146,Mexico,HMO,928212,14,-111.047778,29.095833
Huatulco,174,1205,2,Americas,7,Central America,146,Mexico,HUX,237793.5,13,-96.2625,15.775278
La Paz,175,989,2,Americas,7,Central America,146,Mexico,LAP,371118.5,7,-110.3625,24.072778
La Ceiba,176,1424,2,Americas,7,Central America,90,Honduras,LCE,153397,4,-86.853056,15.7425
Liberia,177,972,2,Americas,7,Central America,47,CostaRica,LIR,383786.5,17,-85.544444,10.593333
Los Mochis,178,1516,2,Americas,7,Central America,146,Mexico,LMM,131484,5,-109.080833,25.685278
Mexico City Juarez Intl,179,47,2,Americas,7,Central America,146,Mexico,MEX,20038615,84,-99.072222,19.436389
Managua,180,699,2,Americas,7,Central America,154,Nicaragua,MGA,710472,11,-86.168056,12.141389
Merida,181,656,2,Americas,7,Central America,146,Mexico,MID,800745,8,-89.657778,20.936944
Morelia,182,1097,2,Americas,7,Central America,146,Mexico,MLM,298321,10,-101.025556,19.85
Minatitlan,183,1471,2,Americas,7,Central America,146,Mexico,MTT,140585,2,-94.580556,18.103333
Monterrey Mariano Escobedo Intl,184,226,2,Americas,7,Central America,146,Mexico,MTY,4163871.5,35,-100.106944,25.778611
Mexicali,185,1062,2,Americas,7,Central America,146,Mexico,MXL,315112,4,-115.241667,32.630556
Mazatlan,186,918,2,Americas,7,Central America,146,Mexico,MZT,433474,18,-106.266111,23.161389
Oaxaca,187,1057,2,Americas,7,Central America,146,Mexico,OAX,319735,5,-96.725,17.002778
Poza Rica,188,1449,2,Americas,7,Central America,146,Mexico,PAZ,145828,3,-97.463056,20.601944
Puebla,189,1360,2,Americas,7,Central America,146,Mexico,PBC,175320.5,6,-98.371389,19.158056
Panama City Tocumen International,190,135,2,Americas,7,Central America,162,Panama,PTY,7518209.5,82,-79.383333,9.071389
Puerto Vallarta,191,448,2,Americas,7,Central America,146,Mexico,PVR,1469582,37,-105.254167,20.68
Queretaro,192,1322,2,Americas,7,Central America,146,Mexico,QRO,189133,7,-100.185556,20.617222
Reynosa,193,1124,2,Americas,7,Central America,146,Mexico,REX,283010,6,-98.228611,26.008889
Roatan,194,1220,2,Americas,7,Central America,90,Honduras,RTB,230757,12,-86.523056,16.316944
San Salvador,195,327,2,Americas,7,Central America,195,ElSalvador,SAL,2381348,34,-89.055833,13.440833
San Pedro Sula,196,756,2,Americas,7,Central America,90,Honduras,SAP,634068,17,-87.923611,15.452778
San Jose Cabo,197,380,2,Americas,7,Central America,146,Mexico,SJD,2001532.5,35,-109.721111,23.151944
San Jose Juan Santamaria Apt,198,310,2,Americas,7,Central America,47,CostaRica,SJO,2558325,38,-84.208889,9.993889
San Luis Potosi,199,1263,2,Americas,7,Central America,146,Mexico,SLP,206969,6,-100.930833,22.254167
Tampico,200,941,2,Americas,7,Central America,146,Mexico,TAM,411918,7,-97.865833,22.296389
Tegucigalpa,201,840,2,Americas,7,Central America,90,Honduras,TGU,509816,10,-87.217222,14.060833
Tuxtla Gutierrez,202,810,2,Americas,7,Central America,146,Mexico,TGZ,538768,6,-93.026111,16.561944
Tijuana,203,294,2,Americas,7,Central America,146,Mexico,TIJ,2768629.5,30,-116.970278,32.541111
Mexico City Toluca-A.Lopez Mateos,204,635,2,Americas,7,Central America,146,Mexico,TLC,825378.5,17,-99.566111,19.336944
Torreon,205,1050,2,Americas,7,Central America,146,Mexico,TRC,326947.5,6,-103.410556,25.568333
Veracruz,206,682,2,Americas,7,Central America,146,Mexico,VER,736277.5,11,-96.187222,19.145833
Villahermosa,207,705,2,Americas,7,Central America,146,Mexico,VSA,704282.5,9,-92.8175,17.996944
Zacatecas,208,1336,2,Americas,7,Central America,146,Mexico,ZCL,183995.5,5,-102.686944,22.897222
Ixtapa/Zihuatanejo,209,1155,2,Americas,7,Central America,146,Mexico,ZIH,265272,14,-101.460556,17.601667
Manzanillo,210,1459,2,Americas,7,Central America,146,Mexico,ZLO,143248,10,-104.558611,19.144722
San Andres Island,211,738,2,Americas,8,South America,46,Colombia,ADZ,660696,8,-81.711111,12.583611
Buenos Aires Aeroparque J. Newbery,212,175,2,Americas,8,South America,11,Argentina,AEP,5761020,25,-58.416389,-34.558889
Ciudad del Este,213,1559,2,Americas,8,South America,173,Paraguay,AGT,120280,2,-54.843611,-25.455556
Aracaju,214,571,2,Americas,8,South America,29,Brazil,AJU,987896,9,-37.070278,-10.983889
Antofagasta,215,446,2,Americas,8,South America,43,Chile,ANF,1470074,7,-70.445,-23.444444
Arequipa,216,604,2,Americas,8,South America,163,Peru,AQP,903313,6,-71.5725,-16.340833
Arica,217,927,2,Americas,8,South America,43,Chile,ARI,423456.5,6,-70.338611,-18.348611
Asuncion,218,744,2,Americas,8,South America,173,Paraguay,ASU,649367,11,-57.519167,-25.239722
Altamira,219,1413,2,Americas,8,South America,29,Brazil,ATM,156382,3,-52.253889,-3.253889
Armenia,220,1307,2,Americas,8,South America,46,Colombia,AXM,193983,4,-75.766389,4.452778
Barranquilla,221,509,2,Americas,8,South America,46,Colombia,BAQ,1181178,7,-74.780833,10.889722
Balmaceda,222,1198,2,Americas,8,South America,43,Chile,BBA,241503,3,-71.689444,-45.916111
Belem,223,290,2,Americas,8,South America,29,Brazil,BEL,2813650.5,15,-48.476389,-1.379167
Bucaramanga,224,670,2,Americas,8,South America,46,Colombia,BGA,756732,6,-73.184722,7.126389
Bahia Blanca,225,1253,2,Americas,8,South America,11,Argentina,BHI,209270,3,-62.153333,-38.727222
Barcelona,226,718,2,Americas,8,South America,219,Venezuela,BLA,688149.5,7,-64.689167,10.107222
Bogota,227,70,2,Americas,8,South America,46,Colombia,BOG,14024980.5,55,-74.146944,4.701667
Porto Seguro,228,734,2,Americas,8,South America,29,Brazil,BPS,666213,12,-39.080833,-16.438611
San Carlos Bariloche,229,802,2,Americas,8,South America,11,Argentina,BRC,559930.5,9,-71.157778,-41.151111
Barquisimeto,230,1125,2,Americas,8,South America,219,Venezuela,BRM,281052,4,-69.358611,10.042778
Brasilia,231,93,2,Americas,8,South America,29,Brazil,BSB,11397300,44,-47.918611,-15.871111
Boa Vista,232,1242,2,Americas,8,South America,29,Brazil,BVB,216579,1,-60.69,2.846389
Cayenne,233,1139,2,Americas,8,South America,76,FrenchGuiana,CAY,274385.5,5,-52.360556,4.819722
Cochabamba,234,706,2,Americas,8,South America,28,Bolivia,CBB,704066,6,-66.177222,-17.421111
Concepcion,235,701,2,Americas,8,South America,43,Chile,CCP,708803.5,3,-73.063056,-36.772778
Caracas,236,199,2,Americas,8,South America,219,Venezuela,CCS,5125886.5,44,-66.990556,10.603056
Cuiaba,237,407,2,Americas,8,South America,29,Brazil,CGB,1759444,13,-56.116667,-15.653056
Sao Paulo Congonhas Apt,238,78,2,Americas,8,South America,29,Brazil,CGH,13167554,27,-46.658056,-23.626667
Campo Grande,239,526,2,Americas,8,South America,29,Brazil,CGR,1110418.5,12,-54.6725,-20.468611
Chiclayo,240,1176,2,Americas,8,South America,163,Peru,CIX,251797,1,-79.828056,-6.7875
Cajamarca,241,1364,2,Americas,8,South America,163,Peru,CJA,174246,1,-78.489444,-7.139167
Calama,242,592,2,Americas,8,South America,43,Chile,CJC,934386,6,-68.908056,-22.498056
Cali,243,326,2,Americas,8,South America,46,Colombia,CLO,2418041,16,-76.381667,3.543333
Belo Horizonte Tancredo Neves Int Apt,244,139,2,Americas,8,South America,29,Brazil,CNF,7342194,38,-43.968889,-19.633889
Cordoba,245,544,2,Americas,8,South America,11,Argentina,COR,1069477,14,-64.208333,-31.31
Copiapo,246,841,2,Americas,8,South America,43,Chile,CPO,509766.5,4,-70.779167,-27.261667
Campinas,247,1133,2,Americas,8,South America,29,Brazil,CPQ,277856,4,-47.269444,-22.756111
Campina Grande,248,1486,2,Americas,8,South America,29,Brazil,CPV,138423.5,2,-35.896389,-7.27
Comodoro Rivadavia,249,1102,2,Americas,8,South America,11,Argentina,CRD,296005,7,-67.465556,-45.785278
Cartagena,250,409,2,Americas,8,South America,46,Colombia,CTG,1753375,10,-75.513056,10.4425
Cucuta,251,885,2,Americas,8,South America,46,Colombia,CUC,461284,4,-72.511667,7.9275
Cuenca,252,925,2,Americas,8,South America,60,Ecuador,CUE,425030,2,-78.984444,-2.889444
Cuzco,253,412,2,Americas,8,South America,163,Peru,CUZ,1735616,5,-71.938889,-13.535833
Curitiba Afonso Pena,254,189,2,Americas,8,South America,29,Brazil,CWB,5409274.5,20,-49.175833,-25.528611
Caxias Do Sul,255,1365,2,Americas,8,South America,29,Brazil,CXJ,174159,3,-51.1875,-29.196944
Medellin Enrique Olaya Herrerra Apt,256,1230,2,Americas,8,South America,46,Colombia,EOH,226711.5,6,-75.590556,6.22
Yopal,257,1418,2,Americas,8,South America,46,Colombia,EYP,155167,1,-72.383889,5.319167
Buenos Aires Ministro Pistarini,258,172,2,Americas,8,South America,11,Argentina,EZE,5814414.5,55,-58.535833,-34.822222
Fernando De Noronha,259,1523,2,Americas,8,South America,29,Brazil,FEN,128546,2,-32.423333,-3.855
Florianopolis,260,288,2,Americas,8,South America,29,Brazil,FLN,2845599,14,-48.547222,-27.670556
Fortaleza,261,224,2,Americas,8,South America,29,Brazil,FOR,4267683.5,21,-38.5325,-3.776389
El Calafate,262,1041,2,Americas,8,South America,11,Argentina,FTE,336377.5,8,-72.053333,-50.28
Georgetown,263,963,2,Americas,8,South America,88,Guyana,GEO,392461.5,9,-58.254167,6.498611
Rio de Janeiro International Apt,264,94,2,Americas,8,South America,29,Brazil,GIG,11347128,56,-43.248333,-22.8125
Baltra Island,265,1166,2,Americas,8,South America,60,Ecuador,GPS,258072,2,-90.265833,-0.453889
Sao Paulo Guarulhos Intl Apt,266,34,2,Americas,8,South America,29,Brazil,GRU,23023286.5,93,-46.469444,-23.431944
Guayaquil,267,274,2,Americas,8,South America,60,Ecuador,GYE,3240899.5,19,-79.883611,-2.1575
Goiania,268,370,2,Americas,8,South America,29,Brazil,GYN,2073477,17,-49.220556,-16.631944
Iguazu,269,856,2,Americas,8,South America,11,Argentina,IGR,493393,6,-54.473333,-25.737222
Foz do Iguacu,270,516,2,Americas,8,South America,29,Brazil,IGU,1146733,9,-54.487222,-25.596111
Imperatriz,271,1042,2,Americas,8,South America,29,Brazil,IMP,335832,2,-47.46,-5.531389
Ilheus,272,936,2,Americas,8,South America,29,Brazil,IOS,417594,9,-39.033333,-14.815833
Ipatinga,273,1464,2,Americas,8,South America,29,Brazil,IPN,141610.5,4,-42.4875,-19.470833
Iquique,274,517,2,Americas,8,South America,43,Chile,IQQ,1140816.5,7,-70.181389,-20.535278
Iquitos,275,859,2,Americas,8,South America,163,Peru,IQT,491579,4,-73.308889,-3.784722
Madurai,276,923,3,Asia,12,Southern Asia,97,India,IXM,428029.5,5,78.95,9.5
Juazeiro do Norte,277,1081,2,Americas,8,South America,29,Brazil,JDO,305571.5,7,-39.271389,-7.218611
Joinville,278,1055,2,Americas,8,South America,29,Brazil,JOI,321790,4,-48.7975,-26.224444
Joao Pessoa,279,687,2,Americas,8,South America,29,Brazil,JPA,731631,9,-34.950556,-7.148333
Bauru,280,1475,2,Americas,8,South America,29,Brazil,JTC,140431,2,-49.069167,-22.163611
Juliaca,281,1183,2,Americas,8,South America,163,Peru,JUL,248144,3,-70.158056,-15.467222
Londrina,282,628,2,Americas,8,South America,29,Brazil,LDB,832563,8,-51.13,-23.333611
Lima,283,111,2,Americas,8,South America,163,Peru,LIM,9757695,52,-77.114444,-12.021944
Loja,284,1453,2,Americas,8,South America,60,Ecuador,LOH,145501,2,-79.371667,-3.995833
La Paz,285,529,2,Americas,8,South America,28,Bolivia,LPB,1106144.5,12,-68.192222,-16.513333
La Serena,286,828,2,Americas,8,South America,43,Chile,LSC,522198.5,4,-71.199444,-29.916389
Las Piedras,287,1503,2,Americas,8,South America,219,Venezuela,LSP,134915.5,3,-70.151389,11.780833
Maraba,288,934,2,Americas,8,South America,29,Brazil,MAB,419861.5,3,-49.138056,-5.368611
Manaus Eduardo Gomes International,289,372,2,Americas,8,South America,29,Brazil,MAO,2046090.5,15,-60.049722,-3.038611
Maracaibo,290,679,2,Americas,8,South America,219,Venezuela,MAR,742648,10,-71.727778,10.558333
Macapa,291,875,2,Americas,8,South America,29,Brazil,MCP,473962,1,-51.072222,0.050556
Maceio,292,479,2,Americas,8,South America,29,Brazil,MCZ,1316976,14,-35.791667,-9.510833
Medellin Jose Maria Cordova Intl,293,267,2,Americas,8,South America,46,Colombia,MDE,3332345,23,-75.423056,6.164444
Mendoza,294,593,2,Americas,8,South America,11,Argentina,MDZ,933864,9,-68.792778,-32.831667
Manta,295,1147,2,Americas,8,South America,60,Ecuador,MEC,270712,1,-80.678889,-0.946111
Maringa,296,737,2,Americas,8,South America,29,Brazil,MGF,663662,8,-52.015833,-23.476111
Montes Claros,297,1191,2,Americas,8,South America,29,Brazil,MOC,243628,3,-43.818889,-16.706944
Monteria,298,1091,2,Americas,8,South America,46,Colombia,MTR,300392,2,-75.825833,8.823611
Maturin,299,1239,2,Americas,8,South America,219,Venezuela,MUN,218396,3,-63.153333,9.749167
Montevideo,300,539,2,Americas,8,South America,216,Uruguay,MVD,1071611.5,16,-56.030833,-34.838333
Manizales,301,1500,2,Americas,8,South America,46,Colombia,MZL,135220,1,-75.464722,5.029722
Natal,302,432,2,Americas,8,South America,29,Brazil,NAT,1568673,14,-35.376111,-5.768056
Neuquen,303,942,2,Americas,8,South America,11,Argentina,NQN,411668,4,-68.155833,-38.948889
Neiva,304,1370,2,Americas,8,South America,46,Colombia,NVA,171782,1,-75.293889,2.950278
Navegantes,305,600,2,Americas,8,South America,29,Brazil,NVT,920211,6,-48.651389,-26.88
Coca,306,1326,2,Americas,8,South America,60,Ecuador,OCC,186853.5,1,-76.986944,-0.462778
Paramaribo Johan A Pengel Intl Apt,307,1075,2,Americas,8,South America,193,Suriname,PBM,309415,8,-55.187778,5.452778
Pucallpa,308,1064,2,Americas,8,South America,163,Peru,PCL,313828,3,-74.574167,-8.378056
Punta Del Este,309,1412,2,Americas,8,South America,216,Uruguay,PDP,157184,5,-55.100833,-34.856944
Pereira,310,757,2,Americas,8,South America,46,Colombia,PEI,629601,4,-75.739444,4.812778
Puerto Maldonado,311,1303,2,Americas,8,South America,163,Peru,PEM,195185,2,-69.229167,-12.616389
Piura,312,928,2,Americas,8,South America,163,Peru,PIU,423324,1,-80.616389,-5.205833
Belo Horizonte Pampulha Apt,313,997,2,Americas,8,South America,29,Brazil,PLU,368808.5,7,-43.950556,-19.851111
Puerto Montt,314,538,2,Americas,8,South America,43,Chile,PMC,1079916,5,-73.093889,-41.438889
Porlamar,315,644,2,Americas,8,South America,219,Venezuela,PMV,815844,11,-63.9675,10.913056
Palmas,316,955,2,Americas,8,South America,29,Brazil,PMW,400508.5,2,-48.356944,-10.291389
Petrolina,317,981,2,Americas,8,South America,29,Brazil,PNZ,376718.5,6,-40.569167,-9.3625
Porto Alegre,318,197,2,Americas,8,South America,29,Brazil,POA,5222199.5,27,-51.171389,-29.994444
President Prudente,319,1255,2,Americas,8,South America,29,Brazil,PPB,208010,2,-51.424722,-22.175
Pasto,320,1462,2,Americas,8,South America,46,Colombia,PSO,141988,2,-77.291111,1.396111
Punta Arenas,321,946,2,Americas,8,South America,43,Chile,PUQ,406748.5,5,-70.854722,-53.002778
Porto Velho,322,716,2,Americas,8,South America,29,Brazil,PVH,690980,5,-63.902222,-8.709167
Puerto Ordaz,323,792,2,Americas,8,South America,219,Venezuela,PZO,574130,5,-62.760278,8.288611
Ribeirao Preto,324,657,2,Americas,8,South America,29,Brazil,RAO,798534,12,-47.774167,-21.134167
Rio Branco,325,1224,2,Americas,8,South America,29,Brazil,RBR,229250,2,-67.894167,-9.869167
Recife,326,206,2,Americas,8,South America,29,Brazil,REC,4862601.5,24,-34.923056,-8.126667
Trelew,327,1342,2,Americas,8,South America,11,Argentina,REL,181859,6,-65.270278,-43.210556
Rio Gallegos,328,1457,2,Americas,8,South America,11,Argentina,RGL,143579,5,-69.312778,-51.608889
Rosario,329,1446,2,Americas,8,South America,11,Argentina,ROS,147211.5,7,-60.784444,-32.903611
Santiago,330,114,2,Americas,8,South America,43,Chile,SCL,9454233.5,42,-70.785833,-33.393056
Rio de Janeiro Santos Dumont Apt,331,131,2,Americas,8,South America,29,Brazil,SDU,7794417.5,17,-43.163056,-22.910556
Sao Jose Do Rio Preto,332,848,2,Americas,8,South America,29,Brazil,SJP,504484,6,-49.406389,-20.816667
Salta,333,829,2,Americas,8,South America,11,Argentina,SLA,521478,7,-65.486944,-24.859722
Sao Luiz,334,460,2,Americas,8,South America,29,Brazil,SLZ,1406934.5,9,-44.234167,-2.585278
Santa Marta,335,789,2,Americas,8,South America,46,Colombia,SMR,575488,2,-74.230556,11.119722
Sucre,336,1422,2,Americas,8,South America,28,Bolivia,SRE,153803.5,4,-65.292778,-19.010833
Salvador,337,158,2,Americas,8,South America,29,Brazil,SSA,6227982.5,31,-38.331111,-12.911111
Santo Domingo,338,1510,2,Americas,8,South America,219,Venezuela,STD,131898,2,-72.035,7.565
Santarem,339,858,2,Americas,8,South America,29,Brazil,STM,491914,3,-54.792778,-2.4225
Tacna,340,1292,2,Americas,8,South America,163,Peru,TCQ,199797,2,-70.275833,-18.053333
Teresina,341,673,2,Americas,8,South America,29,Brazil,THE,751954.5,6,-42.823611,-5.06
Tarija,342,1369,2,Americas,8,South America,28,Bolivia,TJA,171787,4,-64.708333,-21.551111
Tarapoto,343,993,2,Americas,8,South America,163,Peru,TPP,370082,3,-76.373333,-6.508611
Trujillo,344,1154,2,Americas,8,South America,163,Peru,TRU,265334,1,-79.109444,-8.084722
Tucuman,345,1030,2,Americas,8,South America,11,Argentina,TUC,344785,4,-65.104722,-26.840833
San Juan,346,1491,2,Americas,8,South America,11,Argentina,UAQ,136904,2,-68.418333,-31.571389
Uberlandia,347,633,2,Americas,8,South America,29,Brazil,UDI,826580,8,-48.225556,-18.882778
Quibdo,348,1528,2,Americas,8,South America,46,Colombia,UIB,127005.5,3,-76.641111,5.690833
Quito,349,233,2,Americas,8,South America,60,Ecuador,UIO,3971478,28,-78.488333,-0.141111
Ushuaia,350,977,2,Americas,8,South America,11,Argentina,USH,378654.5,7,-68.295556,-54.843333
Sao Paulo Viracopos Apt,351,188,2,Americas,8,South America,29,Brazil,VCP,5416668.5,40,-47.134722,-23.008056
Vitoria da Conquista,352,1276,2,Americas,8,South America,29,Brazil,VDC,203330,5,-40.863056,-14.862778
Vitoria,353,335,2,Americas,8,South America,29,Brazil,VIX,2349268.5,12,-40.286389,-20.258056
Valencia,354,891,2,Americas,8,South America,219,Venezuela,VLN,458128,8,-67.928333,10.149722
Valledupar,355,1363,2,Americas,8,South America,46,Colombia,VUP,174690,1,-73.249444,10.435
Santa Cruz Viru Viru International Apt,356,456,2,Americas,8,South America,28,Bolivia,VVI,1432440,13,-63.135278,-17.644722
Chapeco,357,1068,2,Americas,8,South America,29,Brazil,XAP,312206.5,4,-52.656667,-27.134167
Temuco,358,1073,2,Americas,8,South America,43,Chile,ZCO,309663.5,3,-72.646944,-38.926944
Allentown/Bethlehem/Easton,359,960,2,Americas,9,Northern America,215,USA,ABE,395406,11,-75.440833,40.652222
Abilene Regional Apt,360,1533,2,Americas,9,Northern America,215,USA,ABI,126519.5,2,-99.681944,32.411389
Albuquerque,361,255,2,Americas,9,Northern America,215,USA,ABQ,3522318.5,27,-106.609444,35.040556
Atlantic City International,362,799,2,Americas,9,Northern America,215,USA,ACY,568361.5,10,-74.577222,39.4575
Kodiak Apt,363,1537,2,Americas,9,Northern America,215,USA,ADQ,125243.5,1,-152.493889,57.75
Alexandria International Apt,364,1319,2,Americas,9,Northern America,215,USA,AEX,189775,6,-92.549722,31.3275
Augusta Bush Field,365,1038,2,Americas,9,Northern America,215,USA,AGS,337709,8,-81.964444,33.37
Albany International Airport,366,437,2,Americas,9,Northern America,215,USA,ALB,1542798.5,18,-73.801667,42.748333
Amarillo International Apt,367,764,2,Americas,9,Northern America,215,USA,AMA,620832,6,-101.705833,35.219444
Anchorage International Apt,368,307,2,Americas,9,Northern America,215,USA,ANC,2604324,29,-149.996389,61.174444
Aspen,369,1080,2,Americas,9,Northern America,215,USA,ASE,307480,8,-106.867222,39.219167
Atlanta Hartsfield-Jackson Intl Apt,370,1,2,Americas,9,Northern America,215,USA,ATL,55527430.5,223,-84.428056,33.636667
Appleton,371,1060,2,Americas,9,Northern America,215,USA,ATW,316195,10,-88.516667,44.266667
Austin-Bergstrom International Apt,372,161,2,Americas,9,Northern America,215,USA,AUS,6174353.5,50,-97.67,30.194444
Asheville,373,883,2,Americas,9,Northern America,215,USA,AVL,461937.5,10,-82.541944,35.436111
Wilkes-Barre Scranton International Apt,374,1111,2,Americas,9,Northern America,215,USA,AVP,291577,8,-75.723333,41.338611
Phoenix Williams Gateway Airport,375,731,2,Americas,9,Northern America,215,USA,AZA,671255,34,-111.656944,33.31
Kalamazoo,376,1310,2,Americas,9,Northern America,215,USA,AZO,193182,3,-85.551944,42.235
Bermuda,377,803,2,Americas,9,Northern America,26,Bermuda,BDA,551282.5,14,-64.678611,32.364167
Hartford Bradley International Apt,378,261,2,Americas,9,Northern America,215,USA,BDL,3380275,31,-72.683333,41.938889
Bakersfield,379,1355,2,Americas,9,Northern America,215,USA,BFL,177684.5,6,-119.056667,35.433611
Binghamton,380,1498,2,Americas,9,Northern America,215,USA,BGM,135371,3,-75.979722,42.208611
Bangor,381,1063,2,Americas,9,Northern America,215,USA,BGR,314391,7,-68.828056,44.8075
Birmingham,382,392,2,Americas,9,Northern America,215,USA,BHM,1887211,27,-86.753611,33.563056
Billings,383,932,2,Americas,9,Northern America,215,USA,BIL,422532.5,9,-108.542778,45.807778
Bismarck,384,1084,2,Americas,9,Northern America,215,USA,BIS,304964.5,5,-100.745833,46.772222
Branson,385,1264,2,Americas,9,Northern America,215,USA,BKG,206951,6,-93.199722,36.531667
Bellingham,386,739,2,Americas,9,Northern America,215,USA,BLI,658109.5,13,-122.5375,48.792778
Bloomington-Normal,387,1138,2,Americas,9,Northern America,215,USA,BMI,275367,8,-88.915833,40.477222
Nashville,388,146,2,Americas,9,Northern America,215,USA,BNA,6929334.5,52,-86.678333,36.124444
Boise,389,422,2,Americas,9,Northern America,215,USA,BOI,1651560.5,17,-116.222778,43.564444
Boston Logan International Apt,390,54,2,Americas,9,Northern America,215,USA,BOS,18644671.5,101,-71.005278,42.364444
Brownsville,391,1538,2,Americas,9,Northern America,215,USA,BRO,125232.5,3,-97.425833,25.906944
Baton Rouge Metropolitan Apt,392,837,2,Americas,9,Northern America,215,USA,BTR,511106.5,13,-91.149722,30.533056
Burlington,393,666,2,Americas,9,Northern America,215,USA,BTV,766022.5,11,-73.153333,44.471944
Buffalo,394,273,2,Americas,9,Northern America,215,USA,BUF,3251883.5,28,-78.732222,42.940556
Burbank,395,282,2,Americas,9,Northern America,215,USA,BUR,2906522,12,-118.358611,34.200556
Baltimore Washington International Apt,396,66,2,Americas,9,Northern America,215,USA,BWI,14611260.5,78,-76.668333,39.175278
Bozeman,397,847,2,Americas,9,Northern America,215,USA,BZN,504800.5,13,-111.153056,45.7775
Columbia Metropolitan Apt,398,730,2,Americas,9,Northern America,215,USA,CAE,673176,13,-81.119444,33.938889
Akron/Canton Ohio Regional,399,525,2,Americas,9,Northern America,215,USA,CAK,1110422.5,14,-81.442222,40.916111
Chattanooga Lovell Field Apt,400,950,2,Americas,9,Northern America,215,USA,CHA,406297,8,-85.203889,35.035278
Charlottesville,401,1059,2,Americas,9,Northern America,215,USA,CHO,316793,7,-78.452778,38.138611
Charleston,402,398,2,Americas,9,Northern America,215,USA,CHS,1832261,22,-80.040556,32.898611
Cedar Rapids,403,740,2,Americas,9,Northern America,215,USA,CID,658005,12,-91.710833,41.884722
Cleveland Hopkins International Apt,404,177,2,Americas,9,Northern America,215,USA,CLE,5749543.5,78,-81.849722,41.411667
College Station,405,1549,2,Americas,9,Northern America,215,USA,CLL,122811.5,16,-96.363889,30.588611
Charlotte,406,25,2,Americas,9,Northern America,215,USA,CLT,25880236.5,141,-80.943056,35.213889
Columbus Port Columbus Intl Apt,407,232,2,Americas,9,Northern America,215,USA,CMH,4113348,35,-82.891944,39.998056
Colorado Springs Peterson Field,408,617,2,Americas,9,Northern America,215,USA,COS,865129,16,-104.700833,38.805833
Casper,409,1490,2,Americas,9,Northern America,215,USA,CPR,137334,5,-106.464444,42.908056
Corpus Christi International Apt,410,852,2,Americas,9,Northern America,215,USA,CRP,497971.5,5,-97.501111,27.770278
Charleston,411,1003,2,Americas,9,Northern America,215,USA,CRW,364275,11,-81.593056,38.373056
Cincinnati Northern Kentucky Intl Apt,412,243,2,Americas,9,Northern America,215,USA,CVG,3805566.5,53,-84.667778,39.048889
Wausau Central Wisconsin Apt,413,1384,2,Americas,9,Northern America,215,USA,CWA,166266,3,-89.666667,44.783333
Daytona Beach,414,1032,2,Americas,9,Northern America,215,USA,DAB,342003.5,4,-81.058056,29.18
Dallas/Fort Worth Love Field,415,166,2,Americas,9,Northern America,215,USA,DAL,6017873,22,-96.851667,32.847222
Dayton Intl Apt,416,430,2,Americas,9,Northern America,215,USA,DAY,1592949.5,16,-84.219444,39.9025
Washington Ronald Reagan National Apt,417,73,2,Americas,9,Northern America,215,USA,DCA,13604772.5,97,-77.037778,38.852222
Denver Intl Apt,418,21,2,Americas,9,Northern America,215,USA,DEN,30160866,159,-104.673056,39.861667
Dallas/Fort Worth Intl Apt,419,12,2,Americas,9,Northern America,215,USA,DFW,36443642.5,187,-97.038056,32.896944
Duluth International Apt,420,1273,2,Americas,9,Northern America,215,USA,DLH,205468,6,-92.193611,46.842222
Durango La Plata Apt,421,1203,2,Americas,9,Northern America,215,USA,DRO,238257.5,3,-107.753611,37.152222
Des Moines,422,477,2,Americas,9,Northern America,215,USA,DSM,1324615.5,25,-93.657778,41.534167
Detroit Wayne County,423,51,2,Americas,9,Northern America,215,USA,DTW,19611374.5,144,-83.353333,42.2125
Panama City NW Florida Beaches Intl,424,804,2,Americas,9,Northern America,215,USA,ECP,549510,6,-85.798889,30.357778
Vail/Eagle County Apt,425,1168,2,Americas,9,Northern America,215,USA,EGE,256514,11,-106.917778,39.6425
Elmira/Corning,426,1317,2,Americas,9,Northern America,215,USA,ELM,191118,4,-76.891667,42.16
El Paso International Apt,427,358,2,Americas,9,Northern America,215,USA,ELP,2140034,16,-106.398333,31.8025
Kenai,428,1431,2,Americas,9,Northern America,215,USA,ENA,152219,1,-151.245,60.573056
Erie,429,1452,2,Americas,9,Northern America,215,USA,ERI,145625.5,3,-80.176111,42.081944
Eugene,430,813,2,Americas,9,Northern America,215,USA,EUG,534723.5,16,-123.211944,44.124722
Evansville,431,1217,2,Americas,9,Northern America,215,USA,EVV,232129,4,-87.5325,38.036944
New Bern,432,1374,2,Americas,9,Northern America,215,USA,EWN,170050,2,-77.043056,35.073056
Newark Liberty International Apt,433,38,2,Americas,9,Northern America,215,USA,EWR,22148536.5,189,-74.168611,40.6925
Key West International Apt,434,838,2,Americas,9,Northern America,215,USA,EYW,510663.5,10,-81.759444,24.556111
Fairbanks International Apt,435,771,2,Americas,9,Northern America,215,USA,FAI,609579.5,7,-147.856389,64.815
Fargo,436,839,2,Americas,9,Northern America,215,USA,FAR,510088.5,11,-96.815833,46.920556
Fresno Yosemite International Airport,437,621,2,Americas,9,Northern America,215,USA,FAT,851808.5,14,-119.718056,36.776111
Fayetteville Municipal Apt,438,1016,2,Americas,9,Northern America,215,USA,FAY,355556.5,5,-78.883056,34.99
Kalispell,439,1211,2,Americas,9,Northern America,215,USA,FCA,234637,10,-114.256111,48.310556
Fort Lauderdale/Hollywood Intl Apt,440,71,2,Americas,9,Northern America,215,USA,FLL,13958907.5,104,-80.152778,26.0725
Flint,441,809,2,Americas,9,Northern America,215,USA,FNT,540607.5,11,-83.743611,42.965556
Sioux Falls,442,783,2,Americas,9,Northern America,215,USA,FSD,580977,11,-96.741944,43.581944
Fort Smith,443,1557,2,Americas,9,Northern America,215,USA,FSM,120797,4,-94.3675,35.336667
Fort Wayne Baer Field,444,1011,2,Americas,9,Northern America,215,USA,FWA,358873,10,-85.189722,40.983056
Spokane International Apt,445,408,2,Americas,9,Northern America,215,USA,GEG,1759366,16,-117.54,47.617222
Grand Forks,446,1305,2,Americas,9,Northern America,215,USA,GFK,194908,5,-97.176111,47.949167
Grand Junction,447,1115,2,Americas,9,Northern America,215,USA,GJT,290433,8,-108.525833,39.123333
Gainesville,448,1145,2,Americas,9,Northern America,215,USA,GNV,271743,9,-82.271667,29.69
Gulfport/Biloxi,449,937,2,Americas,9,Northern America,215,USA,GPT,417553.5,6,-89.07,30.407222
Green Bay,450,975,2,Americas,9,Northern America,215,USA,GRB,380338.5,7,-88.133889,44.485556
Killeen Gray AAF,451,1174,2,Americas,9,Northern America,215,USA,GRK,252216.5,7,-97.828889,31.067222
Grand Rapids,452,458,2,Americas,9,Northern America,215,USA,GRR,1417676,23,-85.522778,42.880833
Greensboro/High Point,453,510,2,Americas,9,Northern America,215,USA,GSO,1180062.5,18,-79.937222,36.097778
Greenville/Spartanburg Apt,454,495,2,Americas,9,Northern America,215,USA,GSP,1243335.5,23,-82.218889,34.895556
Great Falls International Apt,455,1150,2,Americas,9,Northern America,215,USA,GTF,268262,7,-111.370556,47.481944
Hayden,456,1495,2,Americas,9,Northern America,215,USA,HDN,136212,9,-107.223611,40.483333
Helena,457,1437,2,Americas,9,Northern America,215,USA,HLN,149477,5,-111.982778,46.606944
Honolulu International Apt,458,89,2,Americas,9,Northern America,215,USA,HNL,11680393.5,57,-157.922222,21.327778
Houston Hobby Apt,459,130,2,Americas,9,Northern America,215,USA,HOU,7839196,51,-95.278889,29.645556
Westchester County,460,580,2,Americas,9,Northern America,215,USA,HPN,963265.5,12,-73.7075,41.066944
Harlingen,461,909,2,Americas,9,Northern America,215,USA,HRL,442059,7,-97.654444,26.228611
Huntsville International Airport,462,676,2,Americas,9,Northern America,215,USA,HSV,748227.5,12,-86.775,34.637222
Huntington,463,1540,2,Americas,9,Northern America,215,USA,HTS,125054.5,8,-82.559167,38.368333
Washington Dulles International Apt,464,75,2,Americas,9,Northern America,215,USA,IAD,13507148.5,137,-77.455833,38.944444
Houston George Bush Intercontinental Ap,465,31,2,Americas,9,Northern America,215,USA,IAH,23544672,188,-95.341389,29.984444
Wichita Mid-Continent Apt,466,565,2,Americas,9,Northern America,215,USA,ICT,1001204,11,-97.433056,37.652778
Idaho Falls,467,1302,2,Americas,9,Northern America,215,USA,IDA,195317.5,7,-112.070833,43.514444
Wilmington,468,825,2,Americas,9,Northern America,215,USA,ILM,524650.5,6,-77.9025,34.270556
Indianapolis,469,215,2,Americas,9,Northern America,215,USA,IND,4523805.5,45,-86.294444,39.717222
Williston,470,1548,2,Americas,9,Northern America,215,USA,ISN,122835,3,-103.643333,48.179167
Long Island MacArthur,471,648,2,Americas,9,Northern America,215,USA,ISP,810703,10,-73.100278,40.795278
Ithaca,472,1428,2,Americas,9,Northern America,215,USA,ITH,152559,3,-76.460833,42.491111
Hilo,473,642,2,Americas,9,Northern America,215,USA,ITO,819866,5,-155.048333,19.721389
Jackson,474,1001,2,Americas,9,Northern America,215,USA,JAC,365214,12,-110.737778,43.607222
Jackson-Evers International Airport,475,637,2,Americas,9,Northern America,215,USA,JAN,825019,14,-90.075833,32.311111
Jacksonville International Apt,476,272,2,Americas,9,Northern America,215,USA,JAX,3274612.5,35,-81.687778,30.494167
New York J F Kennedy International Apt,477,19,2,Americas,9,Northern America,215,USA,JFK,30899949.5,178,-73.778889,40.639722
Juneau,478,882,2,Americas,9,Northern America,215,USA,JNU,463825,4,-134.576389,58.355
Kona,479,417,2,Americas,9,Northern America,215,USA,KOA,1701409,13,-156.045556,19.738889
Ketchikan International Apt,480,1134,2,Americas,9,Northern America,215,USA,KTN,277275,5,-131.713889,55.355556
Lansing,481,1061,2,Americas,9,Northern America,215,USA,LAN,315922.5,14,-84.587222,42.778611
Las Vegas McCarran International Apt,482,28,2,Americas,9,Northern America,215,USA,LAS,24609914.5,139,-115.152222,36.08
Los Angeles International Apt,483,7,2,Americas,9,Northern America,215,USA,LAX,39957645.5,166,-118.408056,33.9425
Lubbock Preston Smith International Apt,484,758,2,Americas,9,Northern America,215,USA,LBB,627211.5,14,-101.822778,33.663611
Latrobe,485,1461,2,Americas,9,Northern America,215,USA,LBE,142304,4,-79.404722,40.275833
Lexington Blue Grass Apt,486,700,2,Americas,9,Northern America,215,USA,LEX,709829,14,-84.605833,38.036389
Lafayette Regional Apt,487,1109,2,Americas,9,Northern America,215,USA,LFT,291959,3,-91.9875,30.205278
New York La Guardia Apt,488,55,2,Americas,9,Northern America,215,USA,LGA,18600720,82,-73.8725,40.777222
Long Beach Apt,489,415,2,Americas,9,Northern America,215,USA,LGB,1707864.5,17,-118.151667,33.817778
Kauai Island Lihue Municipal Apt,490,425,2,Americas,9,Northern America,215,USA,LIH,1638128.5,13,-159.336111,21.976389
Little Rock,491,443,2,Americas,9,Northern America,215,USA,LIT,1489736.5,22,-92.224444,34.729444
Lincoln,492,1392,2,Americas,9,Northern America,215,USA,LNK,164841,9,-96.759167,40.851111
Lanai City,493,1512,2,Americas,9,Northern America,215,USA,LNY,131576.5,3,-156.951389,20.785556
Laredo,494,1444,2,Americas,9,Northern America,215,USA,LRD,147399.5,6,-99.461667,27.543889
La Crosse,495,1525,2,Americas,9,Northern America,215,USA,LSE,127351,9,-91.256667,43.878889
Midland Odessa Regional Apt,496,690,2,Americas,9,Northern America,215,USA,MAF,727578,6,-102.201944,31.9425
Saginaw,497,1385,2,Americas,9,Northern America,215,USA,MBS,166240,3,-84.0825,43.531944
Kansas City International Apt,498,153,2,Americas,9,Northern America,215,USA,MCI,6593601,54,-94.713889,39.2975
Orlando International Apt,499,44,2,Americas,9,Northern America,215,USA,MCO,20190715.5,124,-81.308889,28.429444
Harrisburg International Apt,500,632,2,Americas,9,Northern America,215,USA,MDT,827138,15,-76.763333,40.193611
Chicago Midway Apt,501,77,2,Americas,9,Northern America,215,USA,MDW,13345744,83,-87.7525,41.786111
Memphis International Apt,502,278,2,Americas,9,Northern America,215,USA,MEM,3100822.5,56,-89.976667,35.0425
McAllen,503,899,2,Americas,9,Northern America,215,USA,MFE,449398,7,-98.238611,26.175833
Medford,504,986,2,Americas,9,Northern America,215,USA,MFR,373210.5,9,-122.873611,42.374167
Montgomery Dannelly Field,505,1193,2,Americas,9,Northern America,215,USA,MGM,242747,3,-86.393889,32.300556
Manchester,506,454,2,Americas,9,Northern America,215,USA,MHT,1446963,17,-71.435556,42.9325
Miami International Apt,507,32,2,Americas,9,Northern America,215,USA,MIA,23446707,147,-80.290556,25.793333
Milwaukee General Mitchell Intl Apt,508,223,2,Americas,9,Northern America,215,USA,MKE,4296011.5,40,-87.896667,42.947222
Hoolehua,509,1522,2,Americas,9,Northern America,215,USA,MKK,128602,3,-157.097778,21.151667
Melbourne,510,1165,2,Americas,9,Northern America,215,USA,MLB,260060,4,-80.645278,28.102778
Moline,511,843,2,Americas,9,Northern America,215,USA,MLI,509017,11,-90.5075,41.448611
Monroe,512,1411,2,Americas,9,Northern America,215,USA,MLU,157376.5,4,-92.037778,32.510833
Mobile Municipal Apt,513,964,2,Americas,9,Northern America,215,USA,MOB,391301.5,5,-88.242778,30.691111
Minot International Apt,514,1090,2,Americas,9,Northern America,215,USA,MOT,300646.5,5,-101.280278,48.259444
Monterey Peninsula Apt,515,1121,2,Americas,9,Northern America,215,USA,MRY,287530,6,-121.843056,36.586944
Madison,516,545,2,Americas,9,Northern America,215,USA,MSN,1068329.5,22,-89.3375,43.139722
Missoula,517,1034,2,Americas,9,Northern America,215,USA,MSO,339818,12,-114.090556,46.916389
Minneapolis International Apt,518,45,2,Americas,9,Northern America,215,USA,MSP,20156313.5,144,-93.221667,44.881944
New Orleans Louis Armstrong Intl Apt,519,162,2,Americas,9,Northern America,215,USA,MSY,6087577,50,-90.258056,29.993333
Montrose,520,1558,2,Americas,9,Northern America,215,USA,MTJ,120548.5,9,-107.894167,38.505278
Myrtle Beach AFB,521,553,2,Americas,9,Northern America,215,USA,MYR,1048273.5,21,-78.928333,33.679722
Jacksonville,522,1187,2,Americas,9,Northern America,215,USA,OAJ,245653.5,3,-77.439722,34.708333
Oakland International Apt,523,152,2,Americas,9,Northern America,215,USA,OAK,6666013.5,50,-122.220833,37.721389
Kahului,524,251,2,Americas,9,Northern America,215,USA,OGG,3637530.5,23,-156.430556,20.898611
Oklahoma City Will Rogers Apt,525,318,2,Americas,9,Northern America,215,USA,OKC,2498124,31,-97.600833,35.393056
Omaha Eppley Airfield,526,323,2,Americas,9,Northern America,215,USA,OMA,2481758,26,-95.894167,41.303056
Ontario LA/Ontario International Apt,527,304,2,Americas,9,Northern America,215,USA,ONT,2647143.5,17,-117.601111,34.056111
Chicago O'Hare International Apt,528,6,2,Americas,9,Northern America,215,USA,ORD,40277465,216,-87.904722,41.978611
Norfolk International Apt,529,346,2,Americas,9,Northern America,215,USA,ORF,2271914,21,-76.201111,36.894722
Plattsburgh,530,1341,2,Americas,9,Northern America,215,USA,PBG,181872,7,-73.468889,44.6525
West Palm Beach International Apt,531,269,2,Americas,9,Northern America,215,USA,PBI,3325251,33,-80.095556,26.683056
Portland,532,121,2,Americas,9,Northern America,215,USA,PDX,9041234.5,60,-122.5975,45.588611
Punta Gorda,533,1501,2,Americas,9,Northern America,215,USA,PGD,135207,15,-81.995278,26.917778
Newport News,534,1002,2,Americas,9,Northern America,215,USA,PHF,364281,5,-76.493056,37.131944
Philadelphia International Apt,535,53,2,Americas,9,Northern America,215,USA,PHL,18891178,126,-75.241111,39.871944
Phoenix Sky Harbor Intl Apt,536,29,2,Americas,9,Northern America,215,USA,PHX,24578367,97,-112.011667,33.434167
Peoria,537,962,2,Americas,9,Northern America,215,USA,PIA,393857,10,-89.693333,40.664167
Tampa St Petersbrg-Clearwater Intl Apt,538,866,2,Americas,9,Northern America,215,USA,PIE,485529,41,-82.6875,27.910278
Pittsburgh International Apt,539,201,2,Americas,9,Northern America,215,USA,PIT,5114196.5,50,-80.232778,40.491389
Pensacola International,540,588,2,Americas,9,Northern America,215,USA,PNS,946225,13,-87.186667,30.473333
Pasco,541,944,2,Americas,9,Northern America,215,USA,PSC,408399,8,-119.116667,46.266667
Palm Springs Municipal Apt,542,546,2,Americas,9,Northern America,215,USA,PSP,1065436,24,-116.506667,33.829722
Providence,543,344,2,Americas,9,Northern America,215,USA,PVD,2274315.5,24,-71.425833,41.725
Portland,544,550,2,Americas,9,Northern America,215,USA,PWM,1056690,16,-70.309167,43.646111
Rapid City Regional Apt,545,1012,2,Americas,9,Northern America,215,USA,RAP,357033.5,8,-103.056944,44.043056
Redmond,546,1092,2,Americas,9,Northern America,215,USA,RDM,300119,6,-121.15,44.254167
Raleigh/Durham,547,169,2,Americas,9,Northern America,215,USA,RDU,5885027,41,-78.7875,35.877778
Richmond,548,366,2,Americas,9,Northern America,215,USA,RIC,2095895.5,26,-77.319722,37.505278
Reno,549,353,2,Americas,9,Northern America,215,USA,RNO,2192488,18,-119.768056,39.499167
Roanoke,550,884,2,Americas,9,Northern America,215,USA,ROA,461786.5,9,-79.975556,37.325556
Rochester,551,438,2,Americas,9,Northern America,215,USA,ROC,1520844,19,-77.6725,43.118889
Rochester Municipal Apt,552,1389,2,Americas,9,Northern America,215,USA,RST,165266,3,-92.496667,43.910278
Fort Myers SW Florida International Apt,553,217,2,Americas,9,Northern America,215,USA,RSW,4479669,41,-81.755278,26.536111
San Diego International,554,96,2,Americas,9,Northern America,215,USA,SAN,11223508.5,60,-117.189722,32.733611
San Antonio International Apt,555,192,2,Americas,9,Northern America,215,USA,SAT,5299547,47,-98.469722,29.533611
Savannah/Hilton Head International Apt,556,552,2,Americas,9,Northern America,215,USA,SAV,1048465,11,-81.202222,32.1275
Santa Barbara Municipal Apt,557,879,2,Americas,9,Northern America,215,USA,SBA,469746.5,7,-119.840278,34.426111
South Bend,558,953,2,Americas,9,Northern America,215,USA,SBN,403817,19,-86.313056,41.704722
San Luis Obispo County Apt,559,1358,2,Americas,9,Northern America,215,USA,SBP,176124,3,-120.641944,35.236944
State College,560,1313,2,Americas,9,Northern America,215,USA,SCE,192114.5,12,-77.847222,40.850556
Louisville International,561,333,2,Americas,9,Northern America,215,USA,SDF,2355709,30,-85.736111,38.174444
Seattle/Tacoma International Apt,562,50,2,Americas,9,Northern America,215,USA,SEA,19634760,104,-122.309444,47.448889
Orlando Sanford International Airport,563,606,2,Americas,9,Northern America,215,USA,SFB,900184.5,52,-81.2375,28.777778
San Francisco International Apt,564,23,2,Americas,9,Northern America,215,USA,SFO,26426947.5,110,-122.391667,37.618889
Springfield,565,895,2,Americas,9,Northern America,215,USA,SGF,454685,11,-93.388611,37.245556
Shreveport Regional Apt,566,967,2,Americas,9,Northern America,215,USA,SHV,387435.5,7,-93.828889,32.447222
Sitka,567,1353,2,Americas,9,Northern America,215,USA,SIT,179232,4,-135.361667,57.047222
San Jose Norman Y. Mineta Intl,568,170,2,Americas,9,Northern America,215,USA,SJC,5879223,37,-121.928889,37.3625
Salt Lake City,569,92,2,Americas,9,Northern America,215,USA,SLC,11435557,86,-111.977778,40.788333
Sacramento International Apt,570,185,2,Americas,9,Northern America,215,USA,SMF,5538613,32,-121.590833,38.695556
Santa Ana John Wayne Apt,571,178,2,Americas,9,Northern America,215,USA,SNA,5748518,26,-117.868333,33.675556
Sarasota/Bradenton,572,696,2,Americas,9,Northern America,215,USA,SRQ,713068.5,9,-82.554444,27.395556
St Louis Lambert Intl Apt,573,127,2,Americas,9,Northern America,215,USA,STL,8532916.5,61,-90.37,38.748611
Santa Rosa,574,1440,2,Americas,9,Northern America,215,USA,STS,148580,4,-122.810278,38.510556
Newburgh,575,1309,2,Americas,9,Northern America,215,USA,SWF,193491,9,-74.104722,41.504167
Syracuse,576,498,2,Americas,9,Northern America,215,USA,SYR,1236691.5,28,-76.106389,43.111111
Tallahassee,577,910,2,Americas,9,Northern America,215,USA,TLH,441812,8,-84.349722,30.391667
Tampa International Apt,578,106,2,Americas,9,Northern America,215,USA,TPA,10291482,78,-82.533333,27.975556
Tri-Cities Regional,579,1142,2,Americas,9,Northern America,215,USA,TRI,273076,4,-82.4075,36.475278
Philadelphia Trenton-Mercer Apt,580,1398,2,Americas,9,Northern America,215,USA,TTN,162012,10,-74.811944,40.276944
Tulsa International Apt,581,382,2,Americas,9,Northern America,215,USA,TUL,1966968,22,-95.888056,36.198333
Tucson International Apt,582,379,2,Americas,9,Northern America,215,USA,TUS,2009910,19,-110.941111,32.116111
Traverse City,583,1208,2,Americas,9,Northern America,215,USA,TVC,236262,9,-85.582222,44.741389
Knoxville,584,541,2,Americas,9,Northern America,215,USA,TYS,1070244.5,20,-83.994167,35.811111
Valparaiso Fort Walton Beach Apt,585,872,2,Americas,9,Northern America,215,USA,VPS,475749,5,-86.52,30.486667
Fayetteville Northwest Arkansas Reg Apt,586,654,2,Americas,9,Northern America,215,USA,XNA,802415,19,-94.17,36.004722
Sault Ste Marie,587,1287,2,Americas,9,Northern America,35,Canada,YAM,200866,6,-84.509444,46.485
Nanaimo Cassidy Apt,588,1454,2,Americas,9,Northern America,35,Canada,YCD,144244,2,-123.870278,49.052222
Deer Lake,589,1235,2,Americas,9,Northern America,35,Canada,YDF,221770.5,5,-57.391389,49.210833
Edmonton International Apt,590,214,2,Americas,9,Northern America,35,Canada,YEG,4546512.5,44,-113.586111,53.3075
Fredericton,591,1327,2,Americas,9,Northern America,35,Canada,YFC,185836.5,6,-66.53,45.868889
Toronto John C Munro Hamilton,592,1238,2,Americas,9,Northern America,35,Canada,YHM,219268,11,-79.928056,43.161944
Halifax Stanfield International Apt,593,348,2,Americas,9,Northern America,35,Canada,YHZ,2221160.5,42,-63.512778,44.886944
Kamloops,594,1293,2,Americas,9,Northern America,35,Canada,YKA,198353,4,-120.444444,50.702222
Kelowna,595,570,2,Americas,9,Northern America,35,Canada,YLW,992199,18,-119.377778,49.956111
Fort McMurray,596,762,2,Americas,9,Northern America,35,Canada,YMM,624907,8,-111.221944,56.653333
McDonald -  Cartier Intl Apt,597,275,2,Americas,9,Northern America,35,Canada,YOW,3221526,44,-75.669167,45.3225
Quebec International Airport,598,584,2,Americas,9,Northern America,35,Canada,YQB,951840.5,24,-71.393333,46.791111
Windsor Apt,599,1311,2,Americas,9,Northern America,35,Canada,YQG,193080.5,5,-82.961944,42.270556
Greater Moncton International Airport,600,969,2,Americas,9,Northern America,35,Canada,YQM,385627,11,-64.6925,46.106944
Comox,601,1259,2,Americas,9,Northern America,35,Canada,YQQ,207283,4,-124.886667,49.710833
Regina,602,641,2,Americas,9,Northern America,35,Canada,YQR,820068.5,21,-104.657222,50.429444
Thunder Bay,603,870,2,Americas,9,Northern America,35,Canada,YQT,476405,9,-89.323889,48.371944
Grande Prairie,604,1120,2,Americas,9,Northern America,35,Canada,YQU,287643.5,3,-118.885,55.179722
Sudbury,605,1219,2,Americas,9,Northern America,35,Canada,YSB,231846,6,-80.798889,46.625
St John,606,1430,2,Americas,9,Northern America,35,Canada,YSJ,152265.5,4,-65.882222,45.320556
Timmins,607,1366,2,Americas,9,Northern America,35,Canada,YTS,174154,4,-81.376667,48.569722
Bishop Billy City A/P,608,362,2,Americas,9,Northern America,35,Canada,YTZ,2130520,16,-79.396111,43.6275
Montreal Pierre Elliott Trudeau Int Apt,609,124,2,Americas,9,Northern America,35,Canada,YUL,8751269.5,105,-73.740833,45.470556
Yuma International Apt,610,1506,2,Americas,9,Northern America,215,USA,YUM,133800,2,-114.606111,32.656667
Vancouver International Apt,611,100,2,Americas,9,Northern America,35,Canada,YVR,10717954.5,75,-123.184444,49.193889
Winnipeg,612,367,2,Americas,9,Northern America,35,Canada,YWG,2085726.5,29,-97.24,49.91
Wabush,613,1415,2,Americas,9,Northern America,35,Canada,YWK,156076,4,-66.864444,52.921944
Saskatoon,614,615,2,Americas,9,Northern America,35,Canada,YXE,875997,22,-106.699722,52.170833
Fort St John,615,1477,2,Americas,9,Northern America,35,Canada,YXJ,140330,4,-120.740278,56.238056
Prince George,616,1100,2,Americas,9,Northern America,35,Canada,YXS,297013,8,-122.675833,53.881944
Terrace,617,1517,2,Americas,9,Northern America,35,Canada,YXT,131141,2,-128.576111,54.468611
London International,618,1069,2,Americas,9,Northern America,35,Canada,YXU,312200,9,-81.153889,43.035556
Abbotsford,619,1066,2,Americas,9,Northern America,35,Canada,YXX,312470,4,-122.360556,49.025278
Whitehorse,620,1306,2,Americas,9,Northern America,35,Canada,YXY,194130.5,5,-135.067222,60.709444
Calgary,621,129,2,Americas,9,Northern America,35,Canada,YYC,8486985.5,66,-114.020278,51.113889
Charlottetown,622,1331,2,Americas,9,Northern America,35,Canada,YYG,185226,5,-63.125556,46.289167
Victoria International Apt,623,549,2,Americas,9,Northern America,35,Canada,YYJ,1061981.5,13,-123.425833,48.646944
Goose Bay,624,1563,2,Americas,9,Northern America,35,Canada,YYR,119641.5,4,-60.410556,53.319444
St Johns,625,612,2,Americas,9,Northern America,35,Canada,YYT,882194.5,15,-52.751944,47.618611
Lester B Pearson Intl,626,40,2,Americas,9,Northern America,35,Canada,YYZ,22112642.5,176,-79.630556,43.677222
Yellowknife,627,1308,2,Americas,9,Northern America,35,Canada,YZF,193804,2,-114.443056,62.468611
Sept-Iles,628,1354,2,Americas,9,Northern America,35,Canada,YZV,178283,3,-66.265556,50.223333
Aktobe,629,1333,3,Asia,10,Central Asia,115,Kazakhstan,AKX,184824,7,57.206667,50.245833
Almaty,630,303,3,Asia,10,Central Asia,115,Kazakhstan,ALA,2670886,43,77.042222,43.353333
Ashgabat International,631,911,3,Asia,10,Central Asia,204,Turkmenistan,ASB,440399.5,13,58.360833,37.986944
Bukhara,632,1507,3,Asia,10,Central Asia,217,Uzbekistan,BHK,133612,8,64.48,39.766389
Shymkent,633,1148,3,Asia,10,Central Asia,115,Kazakhstan,CIT,269823,16,69.478889,42.364167
Dushanbe,634,721,3,Asia,10,Central Asia,202,Tajikistan,DYU,685240,43,68.825,38.543333
Bishkek,635,518,3,Asia,10,Central Asia,106,Kyrgyzstan,FRU,1136720.5,33,74.4775,43.061389
Atyrau,636,952,3,Asia,10,Central Asia,115,Kazakhstan,GUW,404815.5,12,51.821389,47.121944
Khujand,637,994,3,Asia,10,Central Asia,202,Tajikistan,LBD,369438,25,69.694722,40.215278
Namangan,638,1417,3,Asia,10,Central Asia,217,Uzbekistan,NMA,155481.5,10,71.556944,40.985
Osh,639,702,3,Asia,10,Central Asia,106,Kyrgyzstan,OSS,708420,17,72.793333,40.608889
Aktau,640,888,3,Asia,10,Central Asia,115,Kazakhstan,SCO,459779.5,19,51.091944,43.86
Samarkand,641,1214,3,Asia,10,Central Asia,217,Uzbekistan,SKD,233840.5,11,66.984722,39.700556
Tashkent,642,401,3,Asia,10,Central Asia,217,Uzbekistan,TAS,1802068.5,57,69.281111,41.257778
Kulob,643,1567,3,Asia,10,Central Asia,202,Tajikistan,TJU,119177.5,6,69.805278,37.988333
Astana,644,435,3,Asia,10,Central Asia,115,Kazakhstan,TSE,1563227.5,31,71.466944,51.023056
Urgench,645,1324,3,Asia,10,Central Asia,217,Uzbekistan,UGC,188115,6,60.641667,41.584167
Ust-Kamenogorsk,646,1468,3,Asia,10,Central Asia,115,Kazakhstan,UKK,140758,6,82.493611,50.036667
Altay,647,1400,3,Asia,11,Eastern Asia,45,China,AAT,161856.5,2,88.085833,47.750556
Asahikawa,648,595,3,Asia,11,Eastern Asia,104,Japan,AKJ,929170,7,142.4475,43.670833
Aksu,649,929,3,Asia,11,Eastern Asia,45,China,AKU,423024.5,2,80.291944,41.262778
Aomori,650,742,3,Asia,11,Eastern Asia,104,Japan,AOJ,653468,6,140.690833,40.734722
Amami,651,1532,3,Asia,11,Eastern Asia,104,Japan,ASJ,126570,2,129.7125,28.430556
Akita,652,564,3,Asia,11,Eastern Asia,104,Japan,AXT,1003968,6,140.218611,39.615556
Baotou,653,543,3,Asia,11,Eastern Asia,45,China,BAV,1069862,19,109.996389,40.560556
Beihai,654,778,3,Asia,11,Eastern Asia,45,China,BHY,591136,19,109.293889,21.539444
Baoshan,655,1312,3,Asia,11,Eastern Asia,45,China,BSD,192210,1,99.168056,25.053611
Guangzhou,656,15,3,Asia,11,Eastern Asia,45,China,CAN,31752809,146,113.298889,23.3925
Changde,657,1271,3,Asia,11,Eastern Asia,45,China,CGD,205918,10,111.640833,28.918611
Zhengzhou,658,119,3,Asia,11,Eastern Asia,45,China,CGO,9164593,66,113.841111,34.519444
Changchun,659,220,3,Asia,11,Eastern Asia,45,China,CGQ,4417325.5,44,125.685278,43.996111
Chifeng,660,919,3,Asia,11,Eastern Asia,45,China,CIF,429858,12,118.840833,42.16
Changzhi,661,835,3,Asia,11,Eastern Asia,45,China,CIH,511478.5,12,113.125833,36.2475
Cheongju,662,750,3,Asia,11,Eastern Asia,112,KoreaRepublicof,CJJ,640469,12,127.499167,36.716667
Jeju International,663,113,3,Asia,11,Eastern Asia,112,KoreaRepublicof,CJU,9643873.5,47,126.493056,33.511389
Chongqing,664,67,3,Asia,11,Eastern Asia,45,China,CKG,14605012,93,106.641944,29.719444
Changsha,665,104,3,Asia,11,Eastern Asia,45,China,CSX,10383526.5,73,113.217778,28.193611
Sapporo New Chitose Apt,666,74,3,Asia,11,Eastern Asia,104,Japan,CTS,13557621.5,35,141.692222,42.775278
Chengdu,667,46,3,Asia,11,Eastern Asia,45,China,CTU,20088467.5,111,103.947222,30.578611
Changzhou,668,513,3,Asia,11,Eastern Asia,45,China,CZX,1159261.5,20,119.778333,31.919444
Datong,669,1098,3,Asia,11,Eastern Asia,45,China,DAT,297872.5,11,113.146111,39.718889
Dazhou,670,1361,3,Asia,11,Eastern Asia,45,China,DAX,174952.5,5,107.430556,31.131944
Deqen,671,940,3,Asia,11,Eastern Asia,45,China,DIG,412547,5,99.678056,27.791667
Dalian,672,134,3,Asia,11,Eastern Asia,45,China,DLC,7559032.5,69,121.538611,38.965556
Dali,673,1020,3,Asia,11,Eastern Asia,45,China,DLU,350926,4,100.319444,25.650278
Dunhuang,674,1093,3,Asia,11,Eastern Asia,45,China,DNH,299523,7,94.681667,40.092222
Dongying,675,1402,3,Asia,11,Eastern Asia,45,China,DOY,161318,8,118.789444,37.507778
Daqing,676,1000,3,Asia,11,Eastern Asia,45,China,DQA,365383.5,7,125.139167,46.75
Ordos,677,506,3,Asia,11,Eastern Asia,45,China,DSN,1195026.5,30,109.863056,39.492222
Zhangjiajie,678,767,3,Asia,11,Eastern Asia,45,China,DYG,617073.5,19,110.443056,29.104444
Enshi,679,1282,3,Asia,11,Eastern Asia,45,China,ENH,201438.5,1,109.485278,30.321111
Yan'an,680,1243,3,Asia,11,Eastern Asia,45,China,ENY,216345.5,4,109.553333,36.636667
Fukushima,681,1160,3,Asia,11,Eastern Asia,104,Japan,FKS,263251,3,140.430556,37.2275
Fuzhou,682,179,3,Asia,11,Eastern Asia,45,China,FOC,5733171,56,119.663333,25.935
Shizuoka,683,976,3,Asia,11,Eastern Asia,104,Japan,FSZ,379878,8,138.180833,34.796944
Fuyang,684,1206,3,Asia,11,Eastern Asia,45,China,FUG,237218.5,13,115.733611,32.880833
Fukue,685,1451,3,Asia,11,Eastern Asia,104,Japan,FUJ,145629.5,2,128.832778,32.666389
Fukuoka,686,81,3,Asia,11,Eastern Asia,104,Japan,FUK,12824944.5,40,130.450556,33.585833
Foshan,687,1536,3,Asia,11,Eastern Asia,45,China,FUO,125471.5,4,113.07,23.081667
Seoul Gimpo International Airport,688,97,3,Asia,11,Eastern Asia,112,KoreaRepublicof,GMP,11173967,13,126.790556,37.558333
Hachijojima,689,1330,3,Asia,11,Eastern Asia,104,Japan,HAC,185508,1,139.785833,33.115
Haikou,690,150,3,Asia,11,Eastern Asia,45,China,HAK,6852429.5,63,110.458889,19.934722
Handan,691,1352,3,Asia,11,Eastern Asia,45,China,HDG,179517.5,7,114.425,36.525833
Hohhot,692,244,3,Asia,11,Eastern Asia,45,China,HET,3793634,46,111.824167,40.851389
Hefei,693,239,3,Asia,11,Eastern Asia,45,China,HFE,3839157.5,46,116.989167,31.991111
Hangzhou,694,69,3,Asia,11,Eastern Asia,45,China,HGH,14419171,92,120.434444,30.229444
Huai'an,695,1037,3,Asia,11,Eastern Asia,45,China,HIA,338256,14,119.127778,33.7875
Hiroshima,696,369,3,Asia,11,Eastern Asia,104,Japan,HIJ,2079285,15,132.919444,34.436111
Jinju,697,1494,3,Asia,11,Eastern Asia,112,KoreaRepublicof,HIN,136520,2,128.070278,35.088611
Hakodate,698,522,3,Asia,11,Eastern Asia,104,Japan,HKD,1127484,7,140.821944,41.77
Hong Kong International Apt,699,8,3,Asia,11,Eastern Asia,89,HongKong(SAR)China,HKG,38635683.5,146,113.914722,22.308889
Hailar,700,650,3,Asia,11,Eastern Asia,45,China,HLD,806261.5,24,119.816667,49.208611
Ulanhot,701,1348,3,Asia,11,Eastern Asia,45,China,HLH,179868.5,4,122.008333,46.194722
Hami,702,1463,3,Asia,11,Eastern Asia,45,China,HMI,141860.5,5,93.670833,42.840833
Hanamaki,703,1152,3,Asia,11,Eastern Asia,104,Japan,HNA,267740,4,141.135278,39.428611
Tokyo Intl (Haneda),704,3,3,Asia,11,Eastern Asia,104,Japan,HND,48853316.5,63,139.779722,35.552222
Harbin,705,165,3,Asia,11,Eastern Asia,45,China,HRB,6046295.5,64,126.250278,45.623333
Saga,706,1158,3,Asia,11,Eastern Asia,104,Japan,HSG,264046,3,130.302222,33.149722
Zhoushan,707,982,3,Asia,11,Eastern Asia,45,China,HSN,374982.5,8,122.361944,29.934722
Hotan,708,1094,3,Asia,11,Eastern Asia,45,China,HTN,299214.5,1,79.865,37.038056
Hualien,709,1257,3,Asia,11,Eastern Asia,210,Taiwan,HUN,207422.5,8,121.617778,24.023056
Taizhou,710,973,3,Asia,11,Eastern Asia,45,China,HYN,382187,11,121.430278,28.565278
Ibaraki,711,1249,3,Asia,11,Eastern Asia,104,Japan,IBR,212314,5,140.418056,36.178333
Seoul Incheon International Airport,712,22,3,Asia,11,Eastern Asia,112,KoreaRepublicof,ICN,26795983.5,166,126.450556,37.469167
Yinchuan,713,286,3,Asia,11,Eastern Asia,45,China,INC,2861890,33,106.011944,38.493333
New Ishigaki,714,455,3,Asia,11,Eastern Asia,104,Japan,ISG,1433133,10,124.245,24.396389
Osaka Intl (Itami),715,115,3,Asia,11,Eastern Asia,104,Japan,ITM,9444333,23,135.438333,34.785556
Iwakuni,716,1184,3,Asia,11,Eastern Asia,104,Japan,IWK,247682.5,2,132.235556,34.135278
Izumo,717,951,3,Asia,11,Eastern Asia,104,Japan,IZO,406231,1,132.89,35.413611
Jingdezhen,718,1116,3,Asia,11,Eastern Asia,45,China,JDZ,288928,8,117.176389,29.339167
Jiayuguan,719,1074,3,Asia,11,Eastern Asia,45,China,JGN,309561,7,98.341389,39.857222
Ji'an,720,1022,3,Asia,11,Eastern Asia,45,China,JGS,348617.5,9,114.736389,26.857778
Jinghong,721,368,3,Asia,11,Eastern Asia,45,China,JHG,2081485.5,12,100.763056,21.973056
Quanzhou,722,400,3,Asia,11,Eastern Asia,45,China,JJN,1809537,28,118.588056,24.795556
Jiamusi,723,1178,3,Asia,11,Eastern Asia,45,China,JMU,250604,7,130.465278,46.843333
Jining,724,1215,3,Asia,11,Eastern Asia,45,China,JNG,233049,18,116.346667,35.293056
Jinzhou,725,1467,3,Asia,11,Eastern Asia,45,China,JNZ,141335.5,6,121.061944,41.1025
Quzhou,726,1472,3,Asia,11,Eastern Asia,45,China,JUZ,140550.5,3,118.9,28.967222
Jiuzhaigou,727,590,3,Asia,11,Eastern Asia,45,China,JZH,938119.5,8,103.683056,32.856667
Kuqa,728,1483,3,Asia,11,Eastern Asia,45,China,KCA,138783,1,82.986667,41.718056
Kochi,729,536,3,Asia,11,Eastern Asia,104,Japan,KCZ,1081529,7,133.669444,33.546111
Kashi,730,719,3,Asia,11,Eastern Asia,45,China,KHG,686909.5,7,76.02,39.5425
Kaohsiung,731,289,3,Asia,11,Eastern Asia,210,Taiwan,KHH,2815898,44,120.35,22.577222
Nanchang,732,211,3,Asia,11,Eastern Asia,45,China,KHN,4706284,46,115.902222,28.863889
Niigata,733,598,3,Asia,11,Eastern Asia,104,Japan,KIJ,923256,13,139.120833,37.955833
Osaka Kansai International Airport,734,90,3,Asia,11,Eastern Asia,104,Japan,KIX,11650347.5,66,135.244167,34.427222
Kitakyushu,735,559,3,Asia,11,Eastern Asia,104,Japan,KKJ,1016681,2,131.034722,33.845833
Kunming,736,52,3,Asia,11,Eastern Asia,45,China,KMG,19289042.5,101,102.743611,24.992222
Miyazaki,737,365,3,Asia,11,Eastern Asia,104,Japan,KMI,2112174.5,8,131.448611,31.877222
Kumamoto,738,351,3,Asia,11,Eastern Asia,104,Japan,KMJ,2211378,8,130.855,32.837222
Komatsu,739,416,3,Asia,11,Eastern Asia,104,Japan,KMQ,1705622.5,11,136.406667,36.394722
Kinmen,740,784,3,Asia,11,Eastern Asia,210,Taiwan,KNH,580628,4,118.361667,24.429722
Kagoshima,741,277,3,Asia,11,Eastern Asia,104,Japan,KOJ,3161929.5,13,130.719444,31.803333
Ganzhou,742,922,3,Asia,11,Eastern Asia,45,China,KOW,428622.5,13,114.775278,25.851389
Pohang,743,1212,3,Asia,11,Eastern Asia,112,KoreaRepublicof,KPO,234167,2,129.420556,35.987778
Korla,744,874,3,Asia,11,Eastern Asia,45,China,KRL,475152,4,86.130278,41.699167
Kushiro,745,836,3,Asia,11,Eastern Asia,104,Japan,KUH,511347,4,144.193056,43.040833
Guiyang,746,154,3,Asia,11,Eastern Asia,45,China,KWE,6551126,54,106.800833,26.538611
Gwangju,747,601,3,Asia,11,Eastern Asia,112,KoreaRepublicof,KWJ,910883,4,126.808889,35.126389
Guilin,748,245,3,Asia,11,Eastern Asia,45,China,KWL,3789134.5,43,110.039167,25.218056
Lanzhou Zhongchuan Apt,749,252,3,Asia,11,Eastern Asia,45,China,LHW,3617609,36,103.616667,36.516667
Lijiang,750,312,3,Asia,11,Eastern Asia,45,China,LJG,2552451.5,30,100.243611,26.674167
Lincang,751,1489,3,Asia,11,Eastern Asia,45,China,LNJ,137551.5,1,100.025,23.738889
Mangshi,752,729,3,Asia,11,Eastern Asia,45,China,LUM,673845,5,98.532222,24.401389
Lhasa/Lasa,753,442,3,Asia,11,Eastern Asia,45,China,LXA,1493391.5,13,90.912222,29.298056
Luoyang,754,857,3,Asia,11,Eastern Asia,45,China,LYA,492206,16,112.389444,34.741389
Lianyungang,755,903,3,Asia,11,Eastern Asia,45,China,LYG,446179,18,118.873889,34.571944
Linyi,756,752,3,Asia,11,Eastern Asia,45,China,LYI,638465.5,16,118.411944,35.049444
Liuzhou,757,851,3,Asia,11,Eastern Asia,45,China,LZH,500514,21,109.391389,24.207778
Luzhou,758,1106,3,Asia,11,Eastern Asia,45,China,LZO,292497,9,105.393333,28.852778
Nyingchi/Linzhi,759,1403,3,Asia,11,Eastern Asia,45,China,LZY,160935,3,94.338611,29.305833
Mudanjiang,760,1114,3,Asia,11,Eastern Asia,45,China,MDG,290659,10,129.568889,44.524167
Macau,761,249,3,Asia,11,Eastern Asia,137,Macao(SAR)China,MFM,3698997.5,49,113.591667,22.149444
Mianyang,762,814,3,Asia,11,Eastern Asia,45,China,MIG,533735,17,104.740833,31.428889
Memambetsu,763,772,3,Asia,11,Eastern Asia,104,Japan,MMB,605846,4,144.164167,43.880556
Miyako,764,636,3,Asia,11,Eastern Asia,104,Japan,MMY,825109,4,125.295,24.782778
Misawa,765,1288,3,Asia,11,Eastern Asia,104,Japan,MSJ,200676,2,141.368333,40.703333
Matsuyama,766,391,3,Asia,11,Eastern Asia,104,Japan,MYJ,1891082,10,132.699722,33.827222
Magong,767,704,3,Asia,11,Eastern Asia,210,Taiwan,MZG,705899,4,119.628333,23.568611
Nanchong,768,1329,3,Asia,11,Eastern Asia,45,China,NAO,185650,6,106.159722,30.793889
Beijing Nanyuan Apt,769,291,3,Asia,11,Eastern Asia,45,China,NAY,2799772.5,42,116.386389,39.786389
Baishan,770,1167,3,Asia,11,Eastern Asia,45,China,NBS,257138.5,9,127.6025,42.065
Qiqihar,771,1441,3,Asia,11,Eastern Asia,45,China,NDG,148219,5,-64.328056,18.728056
Ningbo,772,256,3,Asia,11,Eastern Asia,45,China,NGB,3519117,45,121.461944,29.826667
Nagoya Chubu Centrair International Apt,773,141,3,Asia,11,Eastern Asia,104,Japan,NGO,7210597,48,136.805278,34.858333
Nagasaki,774,371,3,Asia,11,Eastern Asia,104,Japan,NGS,2057064.5,12,129.913611,32.916944
Nanjing,775,110,3,Asia,11,Eastern Asia,45,China,NKG,9862735,67,118.861944,31.741944
Nagoya Komaki Airport,776,948,3,Asia,11,Eastern Asia,104,Japan,NKM,406524,6,136.924444,35.255
Nanning,777,198,3,Asia,11,Eastern Asia,45,China,NNG,5153153,47,108.1725,22.608333
Nanyang,778,1036,3,Asia,11,Eastern Asia,45,China,NNY,339047,8,112.615556,32.981111
Tokyo Narita Intl,779,35,3,Asia,11,Eastern Asia,104,Japan,NRT,22876688,111,140.386389,35.764722
Nantong,780,812,3,Asia,11,Eastern Asia,45,China,NTG,535238.5,14,120.980278,32.072222
Wajima,781,1541,3,Asia,11,Eastern Asia,104,Japan,NTQ,124939,1,136.958889,37.2925
Manzhouli,782,1266,3,Asia,11,Eastern Asia,45,China,NZH,206423,10,117.330556,49.566667
Obihiro,783,945,3,Asia,11,Eastern Asia,104,Japan,OBO,407198,2,143.216667,42.733333
Oita,784,471,3,Asia,11,Eastern Asia,104,Japan,OIT,1344044,5,131.737222,33.479444
Okinawa Naha Apt,785,103,3,Asia,11,Eastern Asia,104,Japan,OKA,10494071.5,33,127.645833,26.195833
Okayama,786,534,3,Asia,11,Eastern Asia,104,Japan,OKJ,1093852.5,9,133.855278,34.756944
Odate/Noshiro,787,1565,3,Asia,11,Eastern Asia,104,Japan,ONJ,119491,1,140.371389,40.191944
Beijing Capital Intl Apt,788,2,3,Asia,11,Eastern Asia,45,China,PEK,53296665,208,116.584444,40.08
Busan,789,159,3,Asia,11,Eastern Asia,112,KoreaRepublicof,PUS,6219939,50,128.9425,35.176667
Shanghai Pudong International Apt,790,18,3,Asia,11,Eastern Asia,45,China,PVG,31163625,158,121.805278,31.143333
Bayannur,791,1474,3,Asia,11,Eastern Asia,45,China,RLK,140451.5,4,107.738889,40.926389
Taichung,792,586,3,Asia,11,Eastern Asia,210,Taiwan,RMQ,951000,31,120.620833,24.265
Yeosu/Suncheon,793,892,3,Asia,11,Eastern Asia,112,KoreaRepublicof,RSU,457609,2,127.616944,34.842222
Sendai,794,321,3,Asia,11,Eastern Asia,104,Japan,SDJ,2486161,16,140.916944,38.139722
Shanghai Hongqiao International Apt,795,36,3,Asia,11,Eastern Asia,45,China,SHA,22450797,67,121.336389,31.197778
Nakashibetsu,796,1396,3,Asia,11,Eastern Asia,104,Japan,SHB,163535,4,144.96,43.5775
Shenyang,797,144,3,Asia,11,Eastern Asia,45,China,SHE,7154436,77,123.483333,41.639722
Shijiazhuang,798,281,3,Asia,11,Eastern Asia,45,China,SJW,2929418,43,114.697222,38.280556
Shantou,799,394,3,Asia,11,Eastern Asia,45,China,SWA,1864435.5,32,116.7625,23.4275
Simao,800,1204,3,Asia,11,Eastern Asia,45,China,SYM,238137.5,1,100.959167,22.794722
Shonai,801,1104,3,Asia,11,Eastern Asia,104,Japan,SYO,293150,1,139.787222,38.812222
Sanya,802,149,3,Asia,11,Eastern Asia,45,China,SYX,6853201.5,51,109.412222,18.302778
Shenzhen,803,49,3,Asia,11,Eastern Asia,45,China,SZX,19727146.5,87,113.810556,22.639167
Daegu,804,710,3,Asia,11,Eastern Asia,112,KoreaRepublicof,TAE,701564.5,7,128.658889,35.894167
Takamatsu,805,508,3,Asia,11,Eastern Asia,104,Japan,TAK,1186516,6,134.015556,34.214167
Qingdao,806,107,3,Asia,11,Eastern Asia,45,China,TAO,9882083,57,120.374444,36.266111
Tengchong,807,806,3,Asia,11,Eastern Asia,45,China,TCZ,546582.5,5,98.485556,24.937778
Tongliao,808,959,3,Asia,11,Eastern Asia,45,China,TGO,396005.5,15,122.2,43.5575
Tokushima,809,688,3,Asia,11,Eastern Asia,104,Japan,TKS,730925,1,134.606667,34.132778
Jinan,810,174,3,Asia,11,Eastern Asia,45,China,TNA,5781596.5,51,117.216111,36.857222
Toyama,811,672,3,Asia,11,Eastern Asia,104,Japan,TOY,752365.5,9,137.1875,36.648333
Taipei Taiwan Taoyuan International Apt,812,42,3,Asia,11,Eastern Asia,210,Taiwan,TPE,21170187,112,121.232778,25.077778
Taipei Songshan,813,313,3,Asia,11,Eastern Asia,210,Taiwan,TSA,2551550.5,18,121.5525,25.069722
Tsushima,814,1164,3,Asia,11,Eastern Asia,104,Japan,TSJ,260863.5,2,129.330556,34.285
Tianjin,815,164,3,Asia,11,Eastern Asia,45,China,TSN,6046644.5,69,117.346111,39.124444
Tottori,816,1194,3,Asia,11,Eastern Asia,104,Japan,TTJ,242740,2,134.166667,35.53
Huangshan,817,876,3,Asia,11,Eastern Asia,45,China,TXN,473710.5,18,118.257222,29.732778
Taiyuan,818,193,3,Asia,11,Eastern Asia,45,China,TYN,5298336.5,58,112.628333,37.746944
Ube,819,683,3,Asia,11,Eastern Asia,104,Japan,UBJ,735272.5,2,131.278611,33.93
Osaka Kobe Airport,820,453,3,Asia,11,Eastern Asia,104,Japan,UKB,1449640,8,135.223889,34.632778
Ulaanbaatar,821,834,3,Asia,11,Eastern Asia,136,Mongolia,ULN,512291,18,106.766667,47.843056
Urumqi,822,117,3,Asia,11,Eastern Asia,45,China,URC,9329865.5,70,87.474167,43.907222
Ulsan,823,990,3,Asia,11,Eastern Asia,112,KoreaRepublicof,USN,371110.5,2,129.351667,35.593611
Yulin,824,603,3,Asia,11,Eastern Asia,45,China,UYN,904114,11,109.730556,38.27
Weifang,825,1566,3,Asia,11,Eastern Asia,45,China,WEF,119237,6,119.118611,36.646944
Weihai,826,634,3,Asia,11,Eastern Asia,45,China,WEH,825668,14,122.228889,37.187222
Wakkanai,827,1401,3,Asia,11,Eastern Asia,104,Japan,WKJ,161579,2,141.800833,45.404167
Wenzhou,828,227,3,Asia,11,Eastern Asia,45,China,WNZ,4161563,47,120.852222,27.913056
Wuhai,829,1040,3,Asia,11,Eastern Asia,45,China,WUA,337191.5,5,106.799444,39.7925
Wuhan,830,105,3,Asia,11,Eastern Asia,45,China,WUH,10322472,77,114.208056,30.783889
Wuyishan,831,743,3,Asia,11,Eastern Asia,45,China,WUS,652569.5,13,118.003056,27.706944
Wuxi,832,331,3,Asia,11,Eastern Asia,45,China,WUX,2360180.5,34,120.429444,31.494722
Wanzhou,833,1189,3,Asia,11,Eastern Asia,45,China,WXN,245015.5,9,108.427222,30.803889
Xiangyang,834,869,3,Asia,11,Eastern Asia,45,China,XFN,478541.5,15,112.290833,32.150556
Xichang,835,1143,3,Asia,11,Eastern Asia,45,China,XIC,272914.5,3,102.184444,27.989167
Xilinhot,836,1107,3,Asia,11,Eastern Asia,45,China,XIL,292089.5,5,115.963333,43.915556
Xi'an Xianyang Apt,837,57,3,Asia,11,Eastern Asia,45,China,XIY,17055111.5,91,108.753889,34.447778
Xiamen,838,83,3,Asia,11,Eastern Asia,45,China,XMN,12573880.5,79,118.127778,24.544167
Xining,839,374,3,Asia,11,Eastern Asia,45,China,XNN,2043054,29,102.040278,36.528611
Xuzhou,840,659,3,Asia,11,Eastern Asia,45,China,XUZ,795948,21,117.245833,34.229444
Yibin,841,1163,3,Asia,11,Eastern Asia,45,China,YBP,261151.5,9,104.545,28.800278
Yuncheng,842,727,3,Asia,11,Eastern Asia,45,China,YCU,675474.5,19,111.033611,35.116389
Yonago,843,954,3,Asia,11,Eastern Asia,104,Japan,YGJ,400797,4,133.236389,35.492222
Yichang,844,668,3,Asia,11,Eastern Asia,45,China,YIH,762456.5,22,111.479722,30.556944
Yining,845,974,3,Asia,11,Eastern Asia,45,China,YIN,381155,3,81.328889,43.955278
Yiwu,846,638,3,Asia,11,Eastern Asia,45,China,YIW,822033,17,120.0325,29.345
Yanji,847,715,3,Asia,11,Eastern Asia,45,China,YNJ,693469.5,14,129.451389,42.882778
Yantai,848,301,3,Asia,11,Eastern Asia,45,China,YNT,2697138.5,28,121.371667,37.401667
Yancheng,849,1157,3,Asia,11,Eastern Asia,45,China,YNZ,264307.5,11,120.203056,33.426111
Yangzhou,850,907,3,Asia,11,Eastern Asia,45,China,YTY,443242.5,13,119.718889,32.563056
Zhanjiang,851,862,3,Asia,11,Eastern Asia,45,China,ZHA,489693.5,15,110.358333,21.215278
Zhuhai,852,375,3,Asia,11,Eastern Asia,45,China,ZUH,2029149,30,113.376111,22.006667
Zunyi,853,1320,3,Asia,11,Eastern Asia,45,China,ZYI,189654.5,10,107.246111,27.811111
Abadan,854,1416,3,Asia,12,Southern Asia,99,IranIslamicRepublicof,ABD,155558.5,6,48.228333,30.371111
Ahmedabad,855,271,3,Asia,12,Southern Asia,97,India,AMD,3279399,25,72.634722,23.077222
Amritsar,856,685,3,Asia,12,Southern Asia,97,India,ATQ,732059,13,74.797222,31.709722
Ahwaz,857,684,3,Asia,12,Southern Asia,99,IranIslamicRepublicof,AWZ,733722.5,15,48.760278,31.3375
Yazd,858,1201,3,Asia,12,Southern Asia,99,IranIslamicRepublicof,AZD,240124,7,54.281944,31.901111
Bhubaneshwar,859,591,3,Asia,12,Southern Asia,97,India,BBI,934503,9,85.817778,20.244444
Vadodara,860,832,3,Asia,12,Southern Asia,97,India,BDQ,519296,4,73.226389,22.336111
Bhopal,861,965,3,Asia,12,Southern Asia,97,India,BHO,390606.5,7,77.3375,23.2875
Biratnagar,862,1357,3,Asia,12,Southern Asia,157,Nepal,BIR,176430,1,87.266667,26.4825
Bengaluru,863,125,3,Asia,12,Southern Asia,97,India,BLR,8692632.5,42,77.705556,13.198889
Bandar Abbas,864,1027,3,Asia,12,Southern Asia,99,IranIslamicRepublicof,BND,345493,15,56.377778,27.218611
Mumbai,865,37,3,Asia,12,Southern Asia,97,India,BOM,22307269.5,85,72.868056,19.088611
Bushehr,866,1188,3,Asia,12,Southern Asia,99,IranIslamicRepublicof,BUZ,245260.5,6,50.830278,28.949444
Kozhikode,867,439,3,Asia,12,Southern Asia,97,India,CCJ,1520712.5,23,75.955278,11.136944
Kolkata,868,142,3,Asia,12,Southern Asia,97,India,CCU,7186672.5,37,88.446667,22.654722
Chittagong,869,652,3,Asia,12,Southern Asia,19,Bangladesh,CGP,804704,9,91.813333,22.249722
Coimbatore,870,582,3,Asia,12,Southern Asia,97,India,CJB,955363,9,77.043333,11.03
Bandaranaike Intl,871,202,3,Asia,12,Southern Asia,120,SriLanka,CMB,5056899.5,43,79.885278,7.180278
Kochi,872,253,3,Asia,12,Southern Asia,97,India,COK,3615731,28,76.401944,10.151944
Dhaka,873,254,3,Asia,12,Southern Asia,19,Bangladesh,DAC,3556383,30,90.397778,23.843333
Dehra Dun,874,1299,3,Asia,12,Southern Asia,97,India,DED,195810.5,4,78.180278,30.189722
Delhi,875,30,3,Asia,12,Southern Asia,97,India,DEL,24289425,98,77.103056,28.566389
Dibrugarh,876,1447,3,Asia,12,Southern Asia,97,India,DIB,146133,2,95.016667,27.483333
Guwahati,877,402,3,Asia,12,Southern Asia,97,India,GAU,1795339,10,91.585833,26.106111
Goa,878,352,3,Asia,12,Southern Asia,97,India,GOI,2198970,25,73.831389,15.380833
Herat,879,1290,3,Asia,12,Southern Asia,3,Afghanistan,HEA,200187,3,62.228333,34.21
Hambantota,880,1488,3,Asia,12,Southern Asia,120,SriLanka,HRI,138184,9,81.123889,6.283889
Hyderabad Rajiv Gandhi Intl Arpt,881,155,3,Asia,12,Southern Asia,97,India,HYD,6441908.5,35,78.431389,17.231111
Indore,882,597,3,Asia,12,Southern Asia,97,India,IDR,923764,13,75.801111,22.721667
Esfahan,883,760,3,Asia,12,Southern Asia,99,IranIslamicRepublicof,IFN,625123,18,51.869722,32.751667
Tehran Imam Khomeini International Apt,884,305,3,Asia,12,Southern Asia,99,IranIslamicRepublicof,IKA,2640965.5,51,51.152222,35.416111
Imphal,885,1006,3,Asia,12,Southern Asia,97,India,IMF,360164,4,93.896667,24.76
Islamabad,886,314,3,Asia,12,Southern Asia,167,Pakistan,ISB,2530178.5,39,73.099167,33.616667
Agartala,887,779,3,Asia,12,Southern Asia,97,India,IXA,587669,4,91.240556,23.886944
Bagdogra,888,824,3,Asia,12,Southern Asia,97,India,IXB,525505,4,88.328611,26.681111
Chandigarh,889,717,3,Asia,12,Southern Asia,97,India,IXC,690322.5,7,76.788611,30.673333
Mangalore,890,630,3,Asia,12,Southern Asia,97,India,IXE,828580.5,12,74.89,12.961389
Jammu,891,651,3,Asia,12,Southern Asia,97,India,IXJ,805871,5,74.8375,32.689167
Leh,892,1335,3,Asia,12,Southern Asia,97,India,IXL,184051,5,77.546389,34.135833
Ranchi,893,904,3,Asia,12,Southern Asia,97,India,IXR,444643,9,85.321667,23.314167
Silchar,894,1524,3,Asia,12,Southern Asia,97,India,IXS,128260,4,92.978611,24.913056
Aurangabad,895,1110,3,Asia,12,Southern Asia,97,India,IXU,291916.5,5,75.398056,19.862778
Port Blair,896,881,3,Asia,12,Southern Asia,97,India,IXZ,467915.5,5,92.729722,11.641111
Jaipur,897,476,3,Asia,12,Southern Asia,97,India,JAI,1327333.5,19,75.812222,26.824167
Jodhpur,898,1285,3,Asia,12,Southern Asia,97,India,JDH,201223,5,73.048889,26.251111
Kabul,899,519,3,Asia,12,Southern Asia,3,Afghanistan,KBL,1131830,21,69.2125,34.565833
Kandahar,900,1487,3,Asia,12,Southern Asia,3,Afghanistan,KDH,138380,7,65.847778,31.505556
Karachi,901,231,3,Asia,12,Southern Asia,167,Pakistan,KHI,4142554,28,67.160833,24.906667
Kish Island,902,746,3,Asia,12,Southern Asia,99,IranIslamicRepublicof,KIH,647361,12,53.979167,26.5275
Kermanshah,903,1197,3,Asia,12,Southern Asia,99,IranIslamicRepublicof,KSH,241613,8,47.156667,34.348056
Kathmandu,904,322,3,Asia,12,Southern Asia,157,Nepal,KTM,2484643,28,85.359167,27.696667
Lahore,905,293,3,Asia,12,Southern Asia,167,Pakistan,LHE,2784884.5,34,74.403611,31.521667
Lucknow,906,423,3,Asia,12,Southern Asia,97,India,LKO,1647560,15,80.889444,26.760556
Chennai,907,120,3,Asia,12,Southern Asia,97,India,MAA,9060282.5,40,80.180556,12.994444
Mashhad,908,364,3,Asia,12,Southern Asia,99,IranIslamicRepublicof,MHD,2113927.5,33,59.645,36.234167
Male,909,357,3,Asia,12,Southern Asia,144,Maldives,MLE,2158791,32,73.529167,4.191667
Multan,910,1338,3,Asia,12,Southern Asia,167,Pakistan,MUX,183714,6,71.419167,30.203333
Nagpur,911,532,3,Asia,12,Southern Asia,97,India,NAG,1102824.5,13,79.047222,21.092222
Urumiyeh,912,1278,3,Asia,12,Southern Asia,99,IranIslamicRepublicof,OMH,202920,6,45.063611,37.662222
Patna,913,707,3,Asia,12,Southern Asia,97,India,PAT,703657,5,85.088056,25.591389
Peshawar,914,614,3,Asia,12,Southern Asia,167,Pakistan,PEW,878459.5,17,71.514444,33.993889
Asaloyeh,915,1448,3,Asia,12,Southern Asia,99,IranIslamicRepublicof,PGU,146074,7,52.737778,27.379444
Pokhara,916,1386,3,Asia,12,Southern Asia,157,Nepal,PKR,165855,1,83.981389,28.200556
Pune,917,334,3,Asia,12,Southern Asia,97,India,PNQ,2352306.5,18,73.919722,18.582222
Rajkot,918,1256,3,Asia,12,Southern Asia,97,India,RAJ,207851.5,3,70.779444,22.309167
Rasht,919,1376,3,Asia,12,Southern Asia,99,IranIslamicRepublicof,RAS,169832,10,49.617778,37.323333
Raipur,920,733,3,Asia,12,Southern Asia,97,India,RPR,666519,9,81.738889,21.180278
Sialkot,921,1244,3,Asia,12,Southern Asia,167,Pakistan,SKT,215394,10,74.363889,32.535278
Surat,922,1543,3,Asia,12,Southern Asia,97,India,STV,124060,2,72.741667,21.114167
Srinagar,923,501,3,Asia,12,Southern Asia,97,India,SXR,1218411,6,74.774167,33.987222
Shiraz,924,579,3,Asia,12,Southern Asia,99,IranIslamicRepublicof,SYZ,966317.5,25,52.588611,29.540278
Tabriz,925,798,3,Asia,12,Southern Asia,99,IranIslamicRepublicof,TBZ,568761.5,14,46.235,38.133889
Tehran Mehrabad International Airport,926,234,3,Asia,12,Southern Asia,99,IranIslamicRepublicof,THR,3906015.5,21,51.314722,35.688889
Tirupati,927,1314,3,Asia,12,Southern Asia,97,India,TIR,191997,3,79.543333,13.6325
Thiruvananthapuram,928,376,3,Asia,12,Southern Asia,97,India,TRV,2024222,18,76.92,8.482222
Tiruchchirappalli,929,751,3,Asia,12,Southern Asia,97,India,TRZ,638933.5,9,78.709722,10.765278
Udaipur,930,1117,3,Asia,12,Southern Asia,97,India,UDR,288766.5,6,73.896111,24.617778
Quetta,931,1350,3,Asia,12,Southern Asia,167,Pakistan,UET,179666,7,66.937778,30.251389
Vijayawada,932,1436,3,Asia,12,Southern Asia,97,India,VGA,149606,3,80.796944,16.530556
Varanasi,933,889,3,Asia,12,Southern Asia,97,India,VNS,458814,9,82.859444,25.452222
Vishakhapatnam,934,647,3,Asia,12,Southern Asia,97,India,VTZ,813026,9,83.224444,17.721111
Zahedan,935,1294,3,Asia,12,Southern Asia,99,IranIslamicRepublicof,ZAH,198243,8,60.903333,29.473333
Ambon,936,833,3,Asia,13,South-Eastern Asia,94,Indonesia,AMQ,519028,4,128.089167,-3.710278
Alor Setar,937,1017,3,Asia,13,South-Eastern Asia,147,Malaysia,AOR,353240,2,100.400833,6.194444
Bacolod,938,520,3,Asia,13,South-Eastern Asia,166,Philippines,BCD,1130263,3,123.019167,10.776667
Banjarmasin,939,319,3,Asia,13,South-Eastern Asia,94,Indonesia,BDJ,2487074,9,114.7625,-3.442222
Bandung,940,396,3,Asia,13,South-Eastern Asia,94,Indonesia,BDO,1844742,13,107.576389,-6.900556
Tanjung Redeb,941,1186,3,Asia,13,South-Eastern Asia,94,Indonesia,BEJ,246335,5,117.432778,2.155278
Biak,942,1404,3,Asia,13,South-Eastern Asia,94,Indonesia,BIK,159480,2,136.108056,-1.19
Kota Kinabalu,943,216,3,Asia,13,South-Eastern Asia,147,Malaysia,BKI,4492542,35,116.053056,5.937222
Bangkok Suvarnabhumi International Apt,944,14,3,Asia,13,South-Eastern Asia,201,Thailand,BKK,32415054.5,143,100.748889,13.685833
Bengkulu,945,956,3,Asia,13,South-Eastern Asia,94,Indonesia,BKS,399026,2,102.339167,-3.863611
Ban Me Thuot,946,1123,3,Asia,13,South-Eastern Asia,222,VietNam,BMV,285322.5,4,108.120278,12.668333
Balikpapan,947,187,3,Asia,13,South-Eastern Asia,94,Indonesia,BPN,5443170.5,18,116.894444,-1.268333
Batam,948,324,3,Asia,13,South-Eastern Asia,94,Indonesia,BTH,2474496,20,104.118889,1.121111
Banda Aceh,949,808,3,Asia,13,South-Eastern Asia,94,Indonesia,BTJ,544064,5,95.420278,5.523611
Bintulu,950,766,3,Asia,13,South-Eastern Asia,147,Malaysia,BTU,617434,5,113.019722,3.124167
Bandar Seri Begawan,951,524,3,Asia,13,South-Eastern Asia,27,BruneiDarussalam,BWN,1116003.5,16,114.928333,4.944167
Butuan,952,1039,3,Asia,13,South-Eastern Asia,166,Philippines,BXU,337566,3,125.481389,8.950556
Cotabato,953,1481,3,Asia,13,South-Eastern Asia,166,Philippines,CBO,139632,1,124.209722,7.165278
Cebu,954,196,3,Asia,13,South-Eastern Asia,166,Philippines,CEB,5232387.5,29,123.979444,10.3075
Chiang Rai,955,725,3,Asia,13,South-Eastern Asia,201,Thailand,CEI,679778,3,99.883056,19.952222
Jakarta Soekarno-Hatta Apt,956,11,3,Asia,13,South-Eastern Asia,94,Indonesia,CGK,37074065,71,106.655833,-6.125556
Cagayan de Oro,957,562,3,Asia,13,South-Eastern Asia,166,Philippines,CGY,1005274,6,124.456944,8.6125
Chiang Mai,958,262,3,Asia,13,South-Eastern Asia,201,Thailand,CNX,3370809.5,27,98.962778,18.771389
Angeles/Mabalacat,959,576,3,Asia,13,South-Eastern Asia,166,Philippines,CRK,978997.5,17,120.560278,15.186111
Nha Trang Cam Ranh Airport,960,897,3,Asia,13,South-Eastern Asia,222,VietNam,CXR,450670.5,5,109.219167,11.998056
Da Nang,961,332,3,Asia,13,South-Eastern Asia,222,VietNam,DAD,2357607.5,30,108.199444,16.043889
Dumaguete,962,1177,3,Asia,13,South-Eastern Asia,166,Philippines,DGT,251184,2,123.3,9.334444
Jambi,963,667,3,Asia,13,South-Eastern Asia,94,Indonesia,DJB,764832,2,103.644444,-1.638056
Jayapura,964,605,3,Asia,13,South-Eastern Asia,94,Indonesia,DJJ,902166.5,7,140.516389,-2.576944
Dalat,965,1149,3,Asia,13,South-Eastern Asia,222,VietNam,DLI,268719,3,108.366667,11.75
Bangkok Don Mueang International Arpt,966,108,3,Asia,13,South-Eastern Asia,201,Thailand,DMK,9870105,44,100.606667,13.9125
Dipolog,967,1458,3,Asia,13,South-Eastern Asia,166,Philippines,DPL,143256,3,123.3425,8.604167
Denpasar-Bali,968,112,3,Asia,13,South-Eastern Asia,94,Indonesia,DPS,9649389.5,40,115.167222,-8.748056
Davao,969,354,3,Asia,13,South-Eastern Asia,166,Philippines,DVO,2185948,11,125.645556,7.125278
General Santos,970,849,3,Asia,13,South-Eastern Asia,166,Philippines,GES,503030,3,125.235278,6.106389
Gorontalo,971,1078,3,Asia,13,South-Eastern Asia,94,Indonesia,GTO,308301,4,122.851389,0.637222
Hanoi,972,133,3,Asia,13,South-Eastern Asia,222,VietNam,HAN,7678613.5,47,105.807222,21.221111
Hat Yai,973,420,3,Asia,13,South-Eastern Asia,201,Thailand,HDY,1659800,7,100.395,6.932778
Heho,974,1181,3,Asia,13,South-Eastern Asia,135,Myanmar,HEH,248761,3,96.791944,20.746944
Phuket,975,167,3,Asia,13,South-Eastern Asia,201,Thailand,HKT,5945437,55,98.305278,8.112222
Jakarta Halim Perdanakusuma Apt,976,1141,3,Asia,13,South-Eastern Asia,94,Indonesia,HLP,273564,7,106.891111,-6.266667
Haiphong,977,893,3,Asia,13,South-Eastern Asia,222,VietNam,HPH,457428,2,106.725,20.819444
Hue,978,1103,3,Asia,13,South-Eastern Asia,222,VietNam,HUI,294475,2,107.703056,16.400833
Ilo-Ilo,979,445,3,Asia,13,South-Eastern Asia,166,Philippines,ILO,1474832,9,122.545278,10.713056
Johor Bahru,980,469,3,Asia,13,South-Eastern Asia,147,Malaysia,JHB,1354368,15,103.670278,1.638889
Yogyakarta,981,258,3,Asia,13,South-Eastern Asia,94,Indonesia,JOG,3412370,14,110.431667,-7.788056
Kota Bharu,982,542,3,Asia,13,South-Eastern Asia,147,Malaysia,KBR,1070090,6,102.291111,6.1675
Krabi,983,556,3,Asia,13,South-Eastern Asia,201,Thailand,KBV,1021023,13,98.988889,8.095833
Kuching,984,264,3,Asia,13,South-Eastern Asia,147,Malaysia,KCH,3356949,11,110.343889,1.484167
Kendari,985,842,3,Asia,13,South-Eastern Asia,94,Indonesia,KDI,509260.5,2,122.418333,-4.081667
Khon Kaen,986,980,3,Asia,13,South-Eastern Asia,201,Thailand,KKC,377000,3,102.782222,16.464444
Kalibo,987,457,3,Asia,13,South-Eastern Asia,166,Philippines,KLO,1427357,19,122.381111,11.684444
Medan Kuala Namu,988,387,3,Asia,13,South-Eastern Asia,94,Indonesia,KNO,1906607,16,98.674167,3.560278
Kupang,989,894,3,Asia,13,South-Eastern Asia,94,Indonesia,KOE,456731,3,123.671111,-10.171667
Nakhon Phanom,990,1518,3,Asia,13,South-Eastern Asia,201,Thailand,KOP,130081,1,104.641944,17.385278
Ketapang,991,1213,3,Asia,13,South-Eastern Asia,94,Indonesia,KTG,234164,5,109.963611,-1.816667
Kuantan,992,1270,3,Asia,13,South-Eastern Asia,147,Malaysia,KUA,206144,3,103.209444,3.780833
Kuala Lumpur International Airport,993,17,3,Asia,13,South-Eastern Asia,147,Malaysia,KUL,31364498.5,118,101.714722,2.745556
Laoag,994,1218,3,Asia,13,South-Eastern Asia,166,Philippines,LAO,231846.5,2,120.531389,18.178056
Labuan,995,830,3,Asia,13,South-Eastern Asia,147,Malaysia,LBU,520460,3,115.2525,5.297222
Langkawi,996,475,3,Asia,13,South-Eastern Asia,147,Malaysia,LGK,1329885,5,99.732222,6.338611
Legaspi,997,1072,3,Asia,13,South-Eastern Asia,166,Philippines,LGP,311792,2,123.734444,13.157222
Praya,998,489,3,Asia,13,South-Eastern Asia,94,Indonesia,LOP,1253312,8,116.276667,-8.757222
Luang Prabang,999,978,3,Asia,13,South-Eastern Asia,116,LaoPeople'sDemocraticRepublic,LPQ,378101,8,102.160833,19.897778
Manado,1000,490,3,Asia,13,South-Eastern Asia,94,Indonesia,MDC,1251729,8,124.926389,1.549167
Mandalay,1001,823,3,Asia,13,South-Eastern Asia,135,Myanmar,MDL,526171.5,11,95.978056,21.702222
Medan Polonia,1002,246,3,Asia,13,South-Eastern Asia,94,Indonesia,MES,3778515,17,98.671667,3.558056
Merauke,1003,1476,3,Asia,13,South-Eastern Asia,94,Indonesia,MKQ,140331.5,1,140.418333,-8.520278
Malang,1004,1171,3,Asia,13,South-Eastern Asia,94,Indonesia,MLG,255125,2,112.714444,-7.926667
Manila Ninoy Aquino International Apt,1005,41,3,Asia,13,South-Eastern Asia,166,Philippines,MNL,22090879.5,73,121.019444,14.508611
Caticlan,1006,916,3,Asia,13,South-Eastern Asia,166,Philippines,MPH,437092,2,121.954167,11.924444
Miri,1007,464,3,Asia,13,South-Eastern Asia,147,Malaysia,MYY,1384439,9,113.988333,4.325278
Nha Trang Airport,1008,1240,3,Asia,13,South-Eastern Asia,222,VietNam,NHA,218133,4,109.192222,12.2275
Nakhon Si Thammarat,1009,815,3,Asia,13,South-Eastern Asia,201,Thailand,NST,532815,1,99.944722,8.539722
Bagan/Nyaung-U,1010,1246,3,Asia,13,South-Eastern Asia,135,Myanmar,NYU,214733,3,94.930556,21.1775
Ozamis,1011,1379,3,Asia,13,South-Eastern Asia,166,Philippines,OZC,169400,2,123.841667,8.178611
Padang,1012,418,3,Asia,13,South-Eastern Asia,94,Indonesia,PDG,1670050.5,7,100.351944,-0.875
Penang,1013,241,3,Asia,13,South-Eastern Asia,147,Malaysia,PEN,3808341.5,23,100.276667,5.297222
Pangkalpinang,1014,661,3,Asia,13,South-Eastern Asia,94,Indonesia,PGK,789631,4,106.139167,-2.163611
Phitsanulok,1015,1470,3,Asia,13,South-Eastern Asia,201,Thailand,PHS,140659,4,100.279167,16.783056
Pangkalanbun,1016,1021,3,Asia,13,South-Eastern Asia,94,Indonesia,PKN,350021,9,111.673333,-2.705278
Pekanbaru,1017,397,3,Asia,13,South-Eastern Asia,94,Indonesia,PKU,1833779,11,101.444444,0.460833
Palangkaraya,1018,877,3,Asia,13,South-Eastern Asia,94,Indonesia,PKY,472811,4,113.942778,-2.225
Pakse,1019,1499,3,Asia,13,South-Eastern Asia,116,LaoPeople'sDemocraticRepublic,PKZ,135347,6,105.781389,15.131944
Palembang,1020,355,3,Asia,13,South-Eastern Asia,94,Indonesia,PLM,2181084.5,10,104.7,-2.898333
Palu,1021,748,3,Asia,13,South-Eastern Asia,94,Indonesia,PLW,643015,4,119.909722,-0.918611
Phnom Penh,1022,389,3,Asia,13,South-Eastern Asia,107,Cambodia,PNH,1903761,19,104.844167,11.546667
Pontianak,1023,500,3,Asia,13,South-Eastern Asia,94,Indonesia,PNK,1220900,7,109.403889,-0.150833
Puerto Princesa,1024,610,3,Asia,13,South-Eastern Asia,166,Philippines,PPS,882682,6,118.758611,9.742222
Phuquoc,1025,1009,3,Asia,13,South-Eastern Asia,222,VietNam,PQC,359541,3,103.967222,10.226944
Pleiku,1026,1373,3,Asia,13,South-Eastern Asia,222,VietNam,PXU,170658.5,3,108.017222,14.004444
Siem Reap,1027,410,3,Asia,13,South-Eastern Asia,107,Cambodia,REP,1739284.5,33,103.812778,13.410556
Yangon,1028,328,3,Asia,13,South-Eastern Asia,135,Myanmar,RGN,2379623.5,31,96.133333,16.907222
Sibu,1029,568,3,Asia,13,South-Eastern Asia,147,Malaysia,SBW,998077,6,111.9825,2.264167
Sandakan,1030,736,3,Asia,13,South-Eastern Asia,147,Malaysia,SDK,664752,4,118.061111,5.901389
Ho Chi Minh City,1031,88,3,Asia,13,South-Eastern Asia,222,VietNam,SGN,11700358,49,106.651944,10.818889
Singapore Changi Apt,1032,13,3,Asia,13,South-Eastern Asia,185,Singapore,SIN,36133287.5,131,103.989444,1.359167
Surakarta (Solo),1033,578,3,Asia,13,South-Eastern Asia,94,Indonesia,SOC,974646,8,110.756944,-7.516111
Sorong,1034,1505,3,Asia,13,South-Eastern Asia,94,Indonesia,SOQ,134252,4,131.121111,-0.926389
Semarang,1035,343,3,Asia,13,South-Eastern Asia,94,Indonesia,SRG,2276973,13,110.374167,-6.971389
Surabaya,1036,91,3,Asia,13,South-Eastern Asia,94,Indonesia,SUB,11531594,33,112.786944,-7.379722
Kuala Lumpur Sultan Abdul Aziz Shah Apt,1037,466,3,Asia,13,South-Eastern Asia,147,Malaysia,SZB,1370734,13,101.554444,3.121667
Tacloban,1038,677,3,Asia,13,South-Eastern Asia,166,Philippines,TAC,747620,3,125.027778,11.2275
Tagbilaran,1039,791,3,Asia,13,South-Eastern Asia,166,Philippines,TAG,575097,1,123.854167,9.660278
Kuala Terengganu,1040,890,3,Asia,13,South-Eastern Asia,147,Malaysia,TGG,458368,4,103.104722,5.381389
Tembagapura/Timika,1041,1561,3,Asia,13,South-Eastern Asia,94,Indonesia,TIM,120066,3,136.8875,-4.528333
Tanjung Pandan,1042,1196,3,Asia,13,South-Eastern Asia,94,Indonesia,TJQ,241645,3,107.755,-2.745833
Bandar Lampung,1043,714,3,Asia,13,South-Eastern Asia,94,Indonesia,TKG,694269,3,105.178889,-5.242222
Tanjung Pinang,1044,1539,3,Asia,13,South-Eastern Asia,94,Indonesia,TNJ,125077,1,104.533056,0.923889
Tarakan,1045,558,3,Asia,13,South-Eastern Asia,94,Indonesia,TRK,1017907,5,117.566667,3.326667
Trang,1046,1053,3,Asia,13,South-Eastern Asia,201,Thailand,TST,325134,1,99.615833,7.508611
Ternate,1047,1146,3,Asia,13,South-Eastern Asia,94,Indonesia,TTE,270826,3,127.381389,0.831389
Tawau,1048,655,3,Asia,13,South-Eastern Asia,147,Malaysia,TWU,801492,4,118.121944,4.313333
Ubon Ratchathani,1049,787,3,Asia,13,South-Eastern Asia,201,Thailand,UBP,578074,4,104.870278,15.251389
Quinhon,1050,1340,3,Asia,13,South-Eastern Asia,222,VietNam,UIH,183179,2,109.043333,13.953889
Makassar,1051,138,3,Asia,13,South-Eastern Asia,94,Indonesia,UPG,7449537,20,119.554167,-5.061667
Surat Thani,1052,747,3,Asia,13,South-Eastern Asia,201,Thailand,URT,646365.5,5,99.139167,9.136111
Ko Samui,1053,450,3,Asia,13,South-Eastern Asia,201,Thailand,USM,1455231,10,100.0625,9.550278
Udon Thani,1054,589,3,Asia,13,South-Eastern Asia,201,Thailand,UTH,944518,7,102.788333,17.386389
Cantho,1055,1443,3,Asia,13,South-Eastern Asia,222,VietNam,VCA,147728,6,105.763333,10.051389
Vinh City,1056,886,3,Asia,13,South-Eastern Asia,222,VietNam,VII,460906,4,105.670833,18.7375
Vientiane,1057,561,3,Asia,13,South-Eastern Asia,116,LaoPeople'sDemocraticRepublic,VTE,1007923,16,102.563333,17.988333
Wamena,1058,1349,3,Asia,13,South-Eastern Asia,94,Indonesia,WMX,179816,1,138.953611,-4.1
Zamboanga,1059,906,3,Asia,13,South-Eastern Asia,166,Philippines,ZAM,443442,5,122.059722,6.9225
Al Baha,1060,1328,3,Asia,14,Western Asia,180,SaudiArabia,ABT,185778,3,41.634167,20.296111
Adana,1061,338,3,Asia,14,Western Asia,207,Turkey,ADA,2337589,20,35.280278,36.982222
Izmir Adnan Menderes Apt,1062,205,3,Asia,14,Western Asia,207,Turkey,ADB,4871262,58,27.156944,38.2925
Aden,1063,996,3,Asia,14,Western Asia,226,Yemen,ADE,368873.5,19,45.028889,12.829444
Abha,1064,467,3,Asia,14,Western Asia,180,SaudiArabia,AHB,1368429,11,42.656667,18.240278
Jouf,1065,1362,3,Asia,14,Western Asia,180,SaudiArabia,AJF,174752,2,40.1,29.785
Amman Queen Alia International Apt,1066,218,3,Asia,14,Western Asia,103,Jordan,AMM,4462743,62,35.993333,31.7225
Kayseri,1067,563,3,Asia,14,Western Asia,207,Turkey,ASR,1004565,24,35.495556,38.770278
Abu Dhabi International Apt,1068,99,3,Asia,14,Western Asia,2,UnitedArabEmirates,AUH,11041438,99,54.651111,24.433056
Antalya,1069,145,3,Asia,14,Western Asia,207,Turkey,AYT,7083389,157,30.800556,36.898611
Bahrain,1070,181,3,Asia,14,Western Asia,23,Bahrain,BAH,5716254.5,49,50.633611,26.270833
Batman,1071,1229,3,Asia,14,Western Asia,207,Turkey,BAL,227144,3,41.116667,37.928889
Beirut,1072,230,3,Asia,14,Western Asia,117,Lebanon,BEY,4155440.5,71,35.488333,33.820833
Baghdad,1073,640,3,Asia,14,Western Asia,98,Iraq,BGW,821713,36,44.234444,33.2625
Bisha,1074,1286,3,Asia,14,Western Asia,180,SaudiArabia,BHH,201072,3,42.620833,19.984444
Bodrum Milas Airport,1075,434,3,Asia,14,Western Asia,207,Turkey,BJV,1564966,51,27.664444,37.250556
Basrah,1076,1077,3,Asia,14,Western Asia,98,Iraq,BSR,308981,12,47.662222,30.549167
Batumi,1077,1466,3,Asia,14,Western Asia,75,Georgia,BUS,141429,13,41.599722,41.610278
Damascus,1078,1019,3,Asia,14,Western Asia,196,SyrianArabRepublic,DAM,351687.5,21,36.514167,33.410556
Diyarbakir,1079,616,3,Asia,14,Western Asia,207,Turkey,DIY,865703.5,5,40.201111,37.893889
Dalaman,1080,414,3,Asia,14,Western Asia,207,Turkey,DLM,1709070,60,28.7925,36.713056
Dammam,1081,208,3,Asia,14,Western Asia,180,SaudiArabia,DMM,4833407.5,51,49.797778,26.471111
Denizli,1082,1346,3,Asia,14,Western Asia,207,Turkey,DNZ,180383.5,2,29.701389,37.785556
Doha,1083,58,3,Asia,14,Western Asia,174,Qatar,DOH,16660146.5,121,51.608333,25.274444
Dubai International,1084,5,3,Asia,14,Western Asia,2,UnitedArabEmirates,DXB,42466857.5,213,55.364444,25.252778
Nejran,1085,1065,3,Asia,14,Western Asia,180,SaudiArabia,EAM,312924,4,44.419167,17.611389
Erbil,1086,686,3,Asia,14,Western Asia,98,Iraq,EBL,732000.5,30,43.963056,36.237778
Ercan,1087,403,3,Asia,14,Western Asia,52,Cyprus,ECN,1775627.5,13,33.488333,35.159722
Gassim,1088,773,3,Asia,14,Western Asia,180,SaudiArabia,ELQ,603403.5,10,43.773889,26.302778
Erzincan,1089,1409,3,Asia,14,Western Asia,207,Turkey,ERC,157923,3,39.526944,39.710278
Erzurum,1090,887,3,Asia,14,Western Asia,207,Turkey,ERZ,460363,3,41.170278,39.956389
Ankara Esenboga Apt,1091,151,3,Asia,14,Western Asia,207,Turkey,ESB,6784909.5,52,32.995,40.128056
Eilat,1092,853,3,Asia,14,Western Asia,96,Israel,ETH,495791.5,3,34.958889,29.558333
Yerevan,1093,507,3,Asia,14,Western Asia,7,Armenia,EVN,1194866.5,54,44.395833,40.147222
Elazig,1094,846,3,Asia,14,Western Asia,207,Turkey,EZS,505602,10,39.291389,38.606944
Jazan,1095,691,3,Asia,14,Western Asia,180,SaudiArabia,GIZ,723566.5,4,42.585833,16.901111
Sanliurfa,1096,1108,3,Asia,14,Western Asia,207,Turkey,GNY,292062,4,38.846944,37.094444
Baku Heydar Aliyev International Apt,1097,388,3,Asia,14,Western Asia,16,Azerbaijan,GYD,1904959.5,62,50.046667,40.4675
Gazipasa,1098,1502,3,Asia,14,Western Asia,207,Turkey,GZP,135046,13,32.290278,36.298056
Gaziantep,1099,569,3,Asia,14,Western Asia,207,Turkey,GZT,993033,10,37.478611,36.947222
Hail,1100,1071,3,Asia,14,Western Asia,180,SaudiArabia,HAS,311874.5,5,41.686389,27.438056
Hatay,1101,795,3,Asia,14,Western Asia,207,Turkey,HTY,570051.5,9,36.284722,36.359722
Igdir,1102,1450,3,Asia,14,Western Asia,207,Turkey,IGD,145673,3,43.884444,39.972778
Istanbul Ataturk Airport,1103,16,3,Asia,14,Western Asia,207,Turkey,IST,31432395,233,28.814722,40.976944
Sulaymaniyah,1104,1260,3,Asia,14,Western Asia,98,Iraq,ISU,207112,19,45.315833,35.5625
Jeddah,1105,62,3,Asia,14,Western Asia,180,SaudiArabia,JED,15267994,141,39.156667,21.679444
Kars,1106,1199,3,Asia,14,Western Asia,207,Turkey,KSY,241390,3,43.115,40.562222
Kutaisi,1107,1531,3,Asia,14,Western Asia,75,Georgia,KUT,126835,11,42.4825,42.176667
Ganja,1108,1279,3,Asia,14,Western Asia,16,Azerbaijan,KVD,202556.5,8,46.3175,40.735
Kuwait,1109,147,3,Asia,14,Western Asia,113,Kuwait,KWI,6877113,65,47.968889,29.226667
Konya,1110,819,3,Asia,14,Western Asia,207,Turkey,KYA,528028,8,32.561944,37.978889
Larnaca,1111,315,3,Asia,14,Western Asia,52,Cyprus,LCA,2528547.5,72,33.624722,34.875
Latakia,1112,1427,3,Asia,14,Western Asia,196,SyrianArabRepublic,LTK,152766,13,35.948611,35.401111
Muscat,1113,180,3,Asia,14,Western Asia,161,Oman,MCT,5724887.5,51,58.281667,23.592778
Madinah,1114,306,3,Asia,14,Western Asia,180,SaudiArabia,MED,2640056.5,103,39.705,24.553333
Malatya,1115,1024,3,Asia,14,Western Asia,207,Turkey,MLX,347898.5,3,38.091111,38.435278
Mardin,1116,1261,3,Asia,14,Western Asia,207,Turkey,MQM,207098.5,4,40.631667,37.223333
Mus,1117,1410,3,Asia,14,Western Asia,207,Turkey,MSR,157483,3,41.661111,38.747778
Nevsehir,1118,1515,3,Asia,14,Western Asia,207,Turkey,NAV,131488,2,34.534444,38.771944
Al Najaf,1119,864,3,Asia,14,Western Asia,98,Iraq,NJF,487188,24,44.404167,31.989722
Paphos,1120,503,3,Asia,14,Western Asia,52,Cyprus,PFO,1211513.5,48,32.485833,34.718056
Mukalla,1121,1564,3,Asia,14,Western Asia,226,Yemen,RIY,119494.5,10,49.375,14.662778
Ras al Khaimah,1122,1033,3,Asia,14,Western Asia,2,UnitedArabEmirates,RKT,341225,16,55.938889,25.613611
Riyadh,1123,80,3,Asia,14,Western Asia,180,SaudiArabia,RUH,12853931,75,46.698889,24.957778
Sanaa,1124,548,3,Asia,14,Western Asia,226,Yemen,SAH,1063190.5,26,44.219722,15.476389
Istanbul Sabiha Gokcen Apt,1125,98,3,Asia,14,Western Asia,207,Turkey,SAW,11146798,110,29.309167,40.898611
Tel Aviv-Yafo Sde Dov,1126,1378,3,Asia,14,Western Asia,96,Israel,SDV,169579,1,34.782222,32.114722
Sharjah,1127,222,3,Asia,14,Western Asia,2,UnitedArabEmirates,SHJ,4366975.5,88,55.517222,25.328611
Salalah,1128,873,3,Asia,14,Western Asia,161,Oman,SLL,475526.5,9,54.091389,17.038611
Carsamba,1129,693,3,Asia,14,Western Asia,207,Turkey,SZF,721649.5,10,36.567222,41.254444
Tbilisi,1130,555,3,Asia,14,Western Asia,75,Georgia,TBS,1027335,41,44.954722,41.669167
Taif,1131,805,3,Asia,14,Western Asia,180,SaudiArabia,TIF,548158.5,9,40.544444,21.483333
Tel Aviv-Yafo Ben Gurion International,1132,140,3,Asia,14,Western Asia,96,Israel,TLV,7261366.5,98,34.880556,32.007222
Tabuk,1133,800,3,Asia,14,Western Asia,180,SaudiArabia,TUU,562448,7,36.618889,28.365556
Trabzon,1134,461,3,Asia,14,Western Asia,207,Turkey,TZX,1404544.5,16,39.789722,40.995
Van,1135,811,3,Asia,14,Western Asia,207,Turkey,VAN,538658.5,4,43.332222,38.468333
Sivas,1136,1265,3,Asia,14,Western Asia,207,Turkey,VAS,206460.5,3,36.903611,39.813889
Yanbu al Bahr,1137,966,3,Asia,14,Western Asia,180,SaudiArabia,YNB,388492,8,38.063333,24.144167
Anapa,1138,930,4,Europe,15,Eastern Europe,178,RussianFederation,AAQ,422954.5,27,37.347222,45.002222
Sochi,1139,474,4,Europe,15,Eastern Europe,178,RussianFederation,AER,1333645,49,39.956667,43.45
Arkhangelsk,1140,1015,4,Europe,15,Eastern Europe,178,RussianFederation,ARH,355585,6,40.716667,64.600278
Astrakhan,1141,1227,4,Europe,15,Eastern Europe,178,RussianFederation,ASF,228242,12,48.006389,46.283333
Barnaul,1142,1334,4,Europe,15,Eastern Europe,178,RussianFederation,BAX,184183.5,9,83.547222,53.363056
Bacau,1143,1268,4,Europe,15,Eastern Europe,176,Romania,BCM,206345.5,13,26.910278,46.521944
Burgas,1144,741,4,Europe,15,Eastern Europe,22,Bulgaria,BOJ,656524.5,64,27.515278,42.569722
Blagoveschensk,1145,1395,4,Europe,15,Eastern Europe,178,RussianFederation,BQS,163583,11,127.4125,50.425278
Brno,1146,1195,4,Europe,15,Eastern Europe,53,CzechRepublic,BRQ,242619,18,16.694444,49.151389
Bratislava,1147,703,4,Europe,15,Eastern Europe,188,Slovakia,BTS,708220.5,52,17.212778,48.170278
Budapest,1148,194,4,Europe,15,Eastern Europe,93,Hungary,BUD,5294748,104,19.255556,47.436944
Bydgoszcz,1149,1325,4,Europe,15,Eastern Europe,168,Poland,BZG,187272,8,17.977778,53.096667
Chelyabinsk,1150,745,4,Europe,15,Eastern Europe,178,RussianFederation,CEK,648883,31,61.503333,55.305833
Cluj-Napoca,1151,770,4,Europe,15,Eastern Europe,176,Romania,CLJ,611344,25,23.686111,46.785278
Moscow Domodedovo Apt,1152,61,4,Europe,15,Eastern Europe,178,RussianFederation,DME,15424494,195,37.54,55.24
Dnipropetrovsk,1153,1170,4,Europe,15,Eastern Europe,212,Ukraine,DNK,255397.5,7,35.100556,48.357222
Donetsk,1154,794,4,Europe,15,Eastern Europe,212,Ukraine,DOK,570989,25,37.739722,48.073611
Belgorod,1155,1480,4,Europe,15,Eastern Europe,178,RussianFederation,EGO,139704,16,36.59,50.643889
Gdansk,1156,404,4,Europe,15,Eastern Europe,168,Poland,GDN,1773759,53,18.466111,54.3775
Magadan,1157,1262,4,Europe,15,Eastern Europe,178,RussianFederation,GDX,207015.5,8,150.720556,59.911111
Nizhny Novgorod,1158,854,4,Europe,15,Eastern Europe,178,RussianFederation,GOJ,495086.5,36,43.784167,56.23
Krakow,1159,347,4,Europe,15,Eastern Europe,168,Poland,KRK,2239427,69,19.784722,50.077778
Khanty-Mansiysk,1160,1391,4,Europe,15,Eastern Europe,178,RussianFederation,HMA,165064.5,13,69.086111,61.028611
Kharkiv,1161,1137,4,Europe,15,Eastern Europe,212,Ukraine,HRK,275459.5,13,36.283611,49.926111
Chita,1162,1283,4,Europe,15,Eastern Europe,178,RussianFederation,HTA,201366,9,113.305556,52.026389
Iasi,1163,1372,4,Europe,15,Eastern Europe,176,Romania,IAS,171148,9,27.620556,47.178611
Kiev Zhuliany Intl Apt,1164,511,4,Europe,15,Eastern Europe,212,Ukraine,IEV,1174630,36,30.449722,50.401667
Irkutsk,1165,689,4,Europe,15,Eastern Europe,178,RussianFederation,IKT,730381.5,26,104.388889,52.268056
Kiev Borispol Intl Apt,1166,225,4,Europe,15,Eastern Europe,212,Ukraine,KBP,4210253,96,30.894722,50.345
Kemerovo,1167,1484,4,Europe,15,Eastern Europe,178,RussianFederation,KEJ,138645.5,4,86.107222,55.27
Kaliningrad,1168,646,4,Europe,15,Eastern Europe,178,RussianFederation,KGD,813783,14,20.5925,54.89
Khabarovsk,1169,487,4,Europe,15,Eastern Europe,178,RussianFederation,KHV,1266489,25,135.188333,48.528056
Chisinau,1170,653,4,Europe,15,Eastern Europe,129,MoldovaRepublicof,KIV,803618.5,31,28.930833,46.927778
Krasnoyarsk,1171,566,4,Europe,15,Eastern Europe,178,RussianFederation,KJA,1000252,38,92.493333,56.173056
Krasnodar,1172,478,4,Europe,15,Eastern Europe,178,RussianFederation,KRR,1317295,45,39.166389,45.0325
Kosice,1173,1399,4,Europe,15,Eastern Europe,188,Slovakia,KSC,161894,16,21.241111,48.663056
Katowice,1174,512,4,Europe,15,Eastern Europe,168,Poland,KTW,1160244,47,19.08,50.474167
Samara,1175,551,4,Europe,15,Eastern Europe,178,RussianFederation,KUF,1055027,49,50.151667,53.503889
Kazan,1176,607,4,Europe,15,Eastern Europe,178,RussianFederation,KZN,899039,44,49.278611,55.606111
Lodz,1177,1297,4,Europe,15,Eastern Europe,168,Poland,LCJ,196998,11,19.398056,51.721944
St Petersburg Pulkovo Apt,1178,143,4,Europe,15,Eastern Europe,178,RussianFederation,LED,7167451,138,30.2625,59.800278
Lviv,1179,995,4,Europe,15,Eastern Europe,212,Ukraine,LWO,368985.5,19,23.956111,49.8125
Makhachkala,1180,1407,4,Europe,15,Eastern Europe,178,RussianFederation,MCX,158237.5,13,47.652222,42.816944
Murmansk,1181,992,4,Europe,15,Eastern Europe,178,RussianFederation,MMK,370387.5,8,32.750833,68.781667
Mineralnye Vody,1182,694,4,Europe,15,Eastern Europe,178,RussianFederation,MRV,720534,37,43.081944,44.225
Minsk International Apt,1183,521,4,Europe,15,Eastern Europe,33,Belarus,MSQ,1128860.5,43,28.030833,53.8825
Nizhnekamsk,1184,1377,4,Europe,15,Eastern Europe,178,RussianFederation,NBC,169831,18,52.1,55.566667
Nizhnevartovsk,1185,983,4,Europe,15,Eastern Europe,178,RussianFederation,NJC,374970.5,19,76.483611,60.949167
Nojabrsk,1186,1439,4,Europe,15,Eastern Europe,178,RussianFederation,NOJ,148894,12,75.268889,63.183611
Norilsk,1187,1047,4,Europe,15,Eastern Europe,178,RussianFederation,NSK,328821,11,87.332222,69.311111
Novy Urengoy,1188,971,4,Europe,15,Eastern Europe,178,RussianFederation,NUX,385127,13,76.520556,66.070278
Odesa,1189,749,4,Europe,15,Eastern Europe,212,Ukraine,ODS,642955,20,30.676389,46.426667
Vladikavkaz,1190,1497,4,Europe,15,Eastern Europe,178,RussianFederation,OGZ,136069,3,44.606667,43.205
Omsk,1191,900,4,Europe,15,Eastern Europe,178,RussianFederation,OMS,449379,33,73.310556,54.966944
Ostrava,1192,1433,4,Europe,15,Eastern Europe,53,CzechRepublic,OSR,151293.5,20,18.111111,49.696111
Bucharest Henri Coanda Apt,1193,210,4,Europe,15,Eastern Europe,176,Romania,OTP,4712157.5,80,26.102222,44.572222
Novosibirsk,1194,384,4,Europe,15,Eastern Europe,178,RussianFederation,OVB,1951355.5,65,82.650556,55.0125
Perm,1195,797,4,Europe,15,Eastern Europe,178,RussianFederation,PEE,569148,25,56.021111,57.914444
Petropavlovsk,1196,1013,4,Europe,15,Eastern Europe,178,RussianFederation,PKC,355837,9,158.450833,53.169444
Poznan,1197,711,4,Europe,15,Eastern Europe,168,Poland,POZ,697630.5,34,16.826389,52.421111
Prague Ruzyne,1198,148,4,Europe,15,Eastern Europe,53,CzechRepublic,PRG,6854641,129,14.26,50.100833
Orenburg,1199,1099,4,Europe,15,Eastern Europe,178,RussianFederation,REN,297064,12,55.456667,51.795833
Rostov,1200,527,4,Europe,15,Eastern Europe,178,RussianFederation,ROV,1107638.5,41,39.818056,47.258333
Saratov,1201,1223,4,Europe,15,Eastern Europe,178,RussianFederation,RTW,229309.5,12,46.046667,51.565
Rzeszow,1202,970,4,Europe,15,Eastern Europe,168,Poland,RZE,385264,19,22.018889,50.11
Sibiu,1203,1295,4,Europe,15,Eastern Europe,176,Romania,SBZ,197672,5,24.091389,45.785556
Syktyvkar,1204,1347,4,Europe,15,Eastern Europe,178,RussianFederation,SCW,180230.5,6,50.845,61.646944
Surgut,1205,785,4,Europe,15,Eastern Europe,178,RussianFederation,SGC,579179,30,73.401944,61.343611
Simferopol,1206,649,4,Europe,15,Eastern Europe,212,Ukraine,SIP,809274,23,33.973889,45.052222
Salekhard,1207,1180,4,Europe,15,Eastern Europe,178,RussianFederation,SLY,250209,8,66.611111,66.590833
Sofia,1208,359,4,Europe,15,Eastern Europe,22,Bulgaria,SOF,2140023.5,66,23.406111,42.695278
Stavropol,1209,1504,4,Europe,15,Eastern Europe,178,RussianFederation,STW,134496,5,42.112778,45.109167
Moscow Sheremetyevo International Apt,1210,59,4,Europe,15,Eastern Europe,178,RussianFederation,SVO,16637198.5,153,37.414722,55.972778
Yekaterinburg,1211,340,4,Europe,15,Eastern Europe,178,RussianFederation,SVX,2314423.5,92,60.802778,56.743056
Szczecin,1212,1272,4,Europe,15,Eastern Europe,168,Poland,SZZ,205781,10,14.902222,53.584722
Tirgu Mures,1213,1207,4,Europe,15,Eastern Europe,176,Romania,TGM,236882,15,24.4125,46.467778
Tyumen,1214,660,4,Europe,15,Eastern Europe,178,RussianFederation,TJM,795226,30,65.324167,57.189444
Tomsk,1215,1221,4,Europe,15,Eastern Europe,178,RussianFederation,TOF,229889.5,9,85.213333,56.385833
Timisoara,1216,860,4,Europe,15,Eastern Europe,176,Romania,TSR,490507.5,23,21.337778,45.81
Ufa,1217,557,4,Europe,15,Eastern Europe,178,RussianFederation,UFA,1018013.5,45,55.883889,54.5575
Ulan-Ude,1218,1429,4,Europe,15,Eastern Europe,178,RussianFederation,UUD,152396,9,107.437778,51.807778
Yuzhno-Sakhalinsk,1219,807,4,Europe,15,Eastern Europe,178,RussianFederation,UUS,544650,8,142.7175,46.888611
Varna,1220,1014,4,Europe,15,Eastern Europe,22,Bulgaria,VAR,355654,34,27.825,43.231944
Moscow Vnukovo International Apt,1221,156,4,Europe,15,Eastern Europe,178,RussianFederation,VKO,6367736.5,124,37.261389,55.591667
Volgograd,1222,1004,4,Europe,15,Eastern Europe,178,RussianFederation,VOG,362131.5,20,44.345556,48.7825
Voronezh,1223,1275,4,Europe,15,Eastern Europe,178,RussianFederation,VOZ,203904,12,39.229722,51.814167
Vladivostok,1224,502,4,Europe,15,Eastern Europe,178,RussianFederation,VVO,1217620.5,21,132.148056,43.398889
Warsaw,1225,168,4,Europe,15,Eastern Europe,168,Poland,WAW,5911106.5,114,20.967222,52.165833
Nowy Dwor Mazowiecki,1226,626,4,Europe,15,Eastern Europe,168,Poland,WMI,837225,34,20.651667,52.451111
Wroclaw,1227,523,4,Europe,15,Eastern Europe,168,Poland,WRO,1119139,39,16.885833,51.102778
Yakutsk,1228,957,4,Europe,15,Eastern Europe,178,RussianFederation,YKS,397757.5,16,129.770556,62.093333
Aalborg Airport,1229,583,4,Europe,16,Northern Europe,56,Denmark,AAL,953690,18,9.849167,57.092778
Aarhus Tirstrup Airport,1230,1058,4,Europe,16,Northern Europe,56,Denmark,AAR,318795.5,14,10.619444,56.303889
Alesund,1231,663,4,Europe,16,Northern Europe,156,Norway,AES,777272.5,14,6.110278,62.560278
Akureyri,1232,1560,4,Europe,16,Northern Europe,100,Iceland,AEY,120159,4,-18.072222,65.658611
Angelholm/Helsingborg Angelholm Apt,1233,1087,4,Europe,16,Northern Europe,184,Sweden,AGH,302025.5,5,12.847222,56.296111
Alta,1234,1234,4,Europe,16,Northern Europe,156,Norway,ALF,224395.5,4,23.371667,69.976111
Stockholm Arlanda Apt,1235,76,4,Europe,16,Northern Europe,184,Sweden,ARN,13365574,135,17.918611,59.651944
Bardufoss,1236,1425,4,Europe,16,Northern Europe,156,Norway,BDU,152954,1,18.540278,69.055833
Bergen,1237,219,4,Europe,16,Northern Europe,156,Norway,BGO,4425297.5,59,5.218056,60.293333
Billund,1238,480,4,Europe,16,Northern Europe,56,Denmark,BLL,1315139,50,9.151667,55.740278
Stockholm Bromma Apt,1239,447,4,Europe,16,Northern Europe,184,Sweden,BMA,1469642.5,15,17.941667,59.354444
Bronnoysund,1240,1465,4,Europe,16,Northern Europe,156,Norway,BNN,141464,5,12.2175,65.461111
Bodo,1241,567,4,Europe,16,Northern Europe,156,Norway,BOO,999266.5,12,14.365278,67.269167
Copenhagen Kastrup Apt,1242,63,4,Europe,16,Northern Europe,56,Denmark,CPH,15179911,167,12.650278,55.620278
Dublin,1243,82,4,Europe,16,Northern Europe,95,IrelandRepublicof,DUB,12734309,159,-6.27,53.421389
Harstad-Narvik,1244,931,4,Europe,16,Northern Europe,156,Norway,EVE,422878.5,10,16.678056,68.491389
Faroe Islands,1245,1492,4,Europe,16,Northern Europe,70,FaroeIslands,FAE,136621.5,16,-7.293056,62.066389
Floro,1246,1514,4,Europe,16,Northern Europe,156,Norway,FRO,131492,4,5.024722,61.583611
Goteborg Landvetter Apt,1247,280,4,Europe,16,Northern Europe,184,Sweden,GOT,2948972.5,48,12.279722,57.662778
Goteborg City Apt,1248,801,4,Europe,16,Northern Europe,184,Sweden,GSE,561183,24,11.870278,57.774722
Haugesund,1249,844,4,Europe,16,Northern Europe,156,Norway,HAU,508039,15,5.208333,59.345278
Helsinki-Vantaa,1250,118,4,Europe,16,Northern Europe,66,Finland,HEL,9169597,114,24.963333,60.317222
Reykjavik Keflavik International Apt,1251,390,4,Europe,16,Northern Europe,100,Iceland,KEF,1898632.5,58,-22.605556,63.985
Kerry,1252,1233,4,Europe,16,Northern Europe,95,IrelandRepublicof,KIR,224899,6,-9.523889,52.180833
Kirkenes,1253,1356,4,Europe,16,Northern Europe,156,Norway,KKN,176458.5,3,29.891389,69.725833
Kalmar,1254,1496,4,Europe,16,Northern Europe,184,Sweden,KLR,136181,3,16.2875,56.685556
Kiruna,1255,1445,4,Europe,16,Northern Europe,184,Sweden,KRN,147213.5,4,20.336667,67.821944
Karup,1256,1435,4,Europe,16,Northern Europe,56,Denmark,KRP,151212,1,9.124722,56.2975
Kristiansand Kjevik Airport,1257,662,4,Europe,16,Northern Europe,156,Norway,KRS,780110,21,8.085278,58.204167
Kristiansund,1258,1129,4,Europe,16,Northern Europe,156,Norway,KSU,278959,7,7.824444,63.111667
Kittila,1259,1530,4,Europe,16,Northern Europe,66,Finland,KTT,126962.5,20,24.846944,67.701111
Kaunas,1260,947,4,Europe,16,Northern Europe,123,Lithuania,KUN,406592,22,24.084722,54.963889
Kuopio,1261,1300,4,Europe,16,Northern Europe,66,Finland,KUO,195675,3,27.797778,63.007222
Lulea,1262,692,4,Europe,16,Northern Europe,184,Sweden,LLA,722559.5,5,22.121944,65.543889
Malmo Airport,1263,499,4,Europe,16,Northern Europe,184,Sweden,MMX,1234781.5,27,13.375,55.5425
Molde,1264,999,4,Europe,16,Northern Europe,156,Norway,MOL,365743,8,7.2625,62.744722
Knock,1265,868,4,Europe,16,Northern Europe,95,IrelandRepublicof,NOC,483133,18,-8.818611,53.910278
Stockholm Skavsta Airport,1266,452,4,Europe,16,Northern Europe,184,Sweden,NYO,1450971,51,16.912222,58.788611
Cork,1267,449,4,Europe,16,Northern Europe,95,IrelandRepublicof,ORK,1456049,45,-8.491111,51.841389
Are/Ostersund,1268,1113,4,Europe,16,Northern Europe,184,Sweden,OSD,290856.5,9,14.500278,63.194444
Oslo Gardermoen Airport,1269,64,4,Europe,16,Northern Europe,156,Norway,OSL,15111203.5,132,11.100278,60.193889
Oulu,1270,769,4,Europe,16,Northern Europe,66,Finland,OUL,615218.5,10,25.354444,64.93
Riga,1271,265,4,Europe,16,Northern Europe,125,Latvia,RIX,3355031,87,23.971111,56.923611
Reykjavik Apt,1272,1521,4,Europe,16,Northern Europe,100,Iceland,RKV,128891.5,2,-21.940556,64.13
Ronneby/Karlskrona,1273,1371,4,Europe,16,Northern Europe,184,Sweden,RNB,171581,2,15.265,56.266667
Rovaniemi,1274,1151,4,Europe,16,Northern Europe,66,Finland,RVN,268240,17,25.830278,66.564722
Oslo Moss-Rygge Airport,1275,465,4,Europe,16,Northern Europe,156,Norway,RYG,1383959,55,10.785556,59.378889
Sundsvall/Harnosand,1276,1225,4,Europe,16,Northern Europe,184,Sweden,SDL,228575,8,17.443889,62.528056
Skelleftea,1277,1254,4,Europe,16,Northern Europe,184,Sweden,SFT,208283,5,21.076944,64.624722
Shannon,1278,622,4,Europe,16,Northern Europe,95,IrelandRepublicof,SNN,849284,27,-8.924722,52.701944
Sandnessjoen,1279,1556,4,Europe,16,Northern Europe,156,Norway,SSJ,120959,4,12.468889,65.956944
Stavanger,1280,263,4,Europe,16,Northern Europe,156,Norway,SVG,3360072,49,5.637778,58.876667
Turku,1281,1144,4,Europe,16,Northern Europe,66,Finland,TKU,271830.5,8,22.262778,60.514167
Tallinn,1282,496,4,Europe,16,Northern Europe,61,Estonia,TLL,1238263,41,24.8325,59.413333
Tampere,1283,1023,4,Europe,16,Northern Europe,66,Finland,TMP,348551.5,15,23.604444,61.414167
Tromso,1284,533,4,Europe,16,Northern Europe,156,Norway,TOS,1098143,16,18.918889,69.683333
Trondheim Vaernes Airport,1285,283,4,Europe,16,Northern Europe,156,Norway,TRD,2879442.5,37,10.924167,63.4575
Oslo Sandefjord-Torp Arpt,1286,468,4,Europe,16,Northern Europe,156,Norway,TRF,1367526,38,10.258611,59.186667
Umea,1287,722,4,Europe,16,Northern Europe,184,Sweden,UME,685149,11,20.282778,63.791944
Vaasa,1288,1210,4,Europe,16,Northern Europe,66,Finland,VAA,235061.5,7,21.762222,63.050556
Visby,1289,1200,4,Europe,16,Northern Europe,184,Sweden,VBY,240490.5,10,18.346111,57.662778
Vilnius,1290,421,4,Europe,16,Northern Europe,123,Lithuania,VNO,1659016.5,67,25.285833,54.634167
Lanzarote,1291,298,4,Europe,17,Southern Europe,64,Spain,ACE,2713539.5,78,-13.605278,28.945556
Malaga,1292,136,4,Europe,17,Southern Europe,64,Spain,AGP,7495588.5,128,-4.499167,36.675
Alghero,1293,528,4,Europe,17,Southern Europe,101,Italy,AHO,1107206.5,42,8.289722,40.630278
Alicante,1294,184,4,Europe,17,Southern Europe,64,Spain,ALC,5545022,106,-0.558056,38.282222
Ancona,1295,1044,4,Europe,17,Southern Europe,101,Italy,AOI,332415,14,13.360278,43.616667
Athens,1296,132,4,Europe,17,Southern Europe,84,Greece,ATH,7694273.5,93,23.944444,37.936389
Alexandroupolis,1297,1568,4,Europe,17,Southern Europe,84,Greece,AXD,119172,3,25.956389,40.855833
Barcelona Apt,1298,39,4,Europe,17,Southern Europe,64,Spain,BCN,22140868,196,2.078333,41.296944
Brindisi,1299,504,4,Europe,17,Southern Europe,101,Italy,BDS,1204821,29,17.948056,40.660556
Belgrade,1300,339,4,Europe,17,Southern Europe,177,Serbia,BEG,2317146.5,60,20.309167,44.818333
Milan Bergamo/Orio al Serio Apt,1301,195,4,Europe,17,Southern Europe,101,Italy,BGY,5252692,105,9.700278,45.668889
Bilbao,1302,317,4,Europe,17,Southern Europe,64,Spain,BIO,2500964,48,-2.910556,43.301111
Bologna Guglielmo Marconi,1303,236,4,Europe,17,Southern Europe,101,Italy,BLQ,3881546,85,11.296944,44.530833
Bari,1304,342,4,Europe,17,Southern Europe,101,Italy,BRI,2284705.5,55,16.765,41.138056
Cagliari,1305,329,4,Europe,17,Southern Europe,101,Italy,CAG,2368393.5,65,9.057778,39.251389
Kerkyra,1306,575,4,Europe,17,Southern Europe,84,Greece,CFU,981077,79,19.911667,39.601944
Chania,1307,680,4,Europe,17,Southern Europe,84,Greece,CHQ,741864.5,55,24.149722,35.531667
Rome Ciampino Apt,1308,284,4,Europe,17,Southern Europe,101,Italy,CIA,2876787,61,12.595,41.798889
Catania,1309,235,4,Europe,17,Southern Europe,101,Italy,CTA,3896051.5,65,15.063889,37.466667
Cuneo,1310,1291,4,Europe,17,Southern Europe,101,Italy,CUF,200019,11,7.623056,44.5475
Dubrovnik,1311,645,4,Europe,17,Southern Europe,91,Croatia,DBV,814406.5,59,18.268333,42.561389
San Sebastian,1312,1321,4,Europe,17,Southern Europe,64,Spain,EAS,189547,4,-1.790556,43.356389
Kefallinia,1313,1289,4,Europe,17,Southern Europe,84,Greece,EFL,200486,22,20.500556,38.12
Faro,1314,270,4,Europe,17,Southern Europe,171,Portugal,FAO,3324150.5,75,-7.965833,37.014444
Rome Fiumicino Apt,1315,33,4,Europe,17,Southern Europe,101,Italy,FCO,23110101,204,12.238889,41.800278
Florence Amerigo Vespucci,1316,463,4,Europe,17,Southern Europe,101,Italy,FLR,1391542,32,11.202778,43.808611
Funchal,1317,483,4,Europe,17,Southern Europe,171,Portugal,FNC,1278736,55,-16.778056,32.694167
Fuerteventura,1318,385,4,Europe,17,Southern Europe,64,Spain,FUE,1948991.5,71,-13.863889,28.452778
Gibraltar,1319,1209,4,Europe,17,Southern Europe,78,Gibraltar,GIB,235253.5,5,-5.349722,36.151111
Genoa,1320,619,4,Europe,17,Southern Europe,101,Italy,GOA,860991.5,20,8.8375,44.413333
Girona,1321,411,4,Europe,17,Southern Europe,64,Spain,GRO,1738195,74,2.760556,41.900833
Granada,1322,920,4,Europe,17,Southern Europe,64,Spain,GRX,429512,6,-3.777222,37.188611
Irakleion,1323,356,4,Europe,17,Southern Europe,84,Greece,HER,2179368.5,93,25.180278,35.339722
Horta,1324,1493,4,Europe,17,Southern Europe,171,Portugal,HOR,136537,3,-28.716389,38.52
Ibiza,1325,266,4,Europe,17,Southern Europe,64,Spain,IBZ,3350248,95,1.373056,38.872778
Chios,1326,1552,4,Europe,17,Southern Europe,84,Greece,JKH,121386.5,8,26.140556,38.343056
Mykonos,1327,985,4,Europe,17,Southern Europe,84,Greece,JMK,373281,27,25.348056,37.435
Thira,1328,902,4,Europe,17,Southern Europe,84,Greece,JTR,446575.5,40,25.479444,36.399167
Kos,1329,664,4,Europe,17,Southern Europe,84,Greece,KGS,776432.5,70,27.091667,36.793333
Kavala,1330,1553,4,Europe,17,Southern Europe,84,Greece,KVA,121166,14,24.619167,40.913333
A Coruna,1331,777,4,Europe,17,Southern Europe,64,Spain,LCG,593936,11,-8.377222,43.302222
Almeria,1332,998,4,Europe,17,Southern Europe,64,Spain,LEI,368532.5,19,-2.37,36.843889
Milan Linate Apt,1333,157,4,Europe,17,Southern Europe,101,Italy,LIN,6300963,34,9.278333,45.449444
Lisbon,1334,109,4,Europe,17,Southern Europe,171,Portugal,LIS,9869191.5,112,-9.134167,38.774167
Ljubljana,1335,675,4,Europe,17,Southern Europe,187,Slovenia,LJU,748296,25,14.4575,46.223611
Lampedusa,1336,1555,4,Europe,17,Southern Europe,101,Italy,LMP,121074,8,12.618333,35.498056
Gran Canaria,1337,213,4,Europe,17,Southern Europe,64,Spain,LPA,4623339.5,118,-15.386667,27.931944
Madrid Adolfo Suarez-Barajas Apt,1338,24,4,Europe,17,Southern Europe,64,Spain,MAD,26097614,182,-3.566667,40.493611
Menorca,1339,441,4,Europe,17,Southern Europe,64,Spain,MAH,1494956,54,4.218611,39.8625
Mytilini,1340,1241,4,Europe,17,Southern Europe,84,Greece,MJT,216784,12,26.602222,39.053333
Murcia,1341,735,4,Europe,17,Southern Europe,64,Spain,MJV,666139,23,-0.8125,37.775
Malta,1342,325,4,Europe,17,Southern Europe,142,Malta,MLA,2431455.5,87,14.4775,35.8575
Melilla,1343,1076,4,Europe,17,Southern Europe,64,Spain,MLN,309187,8,-2.956389,35.279722
Milan Malpensa Apt,1344,95,4,Europe,17,Southern Europe,101,Italy,MXP,11230651,158,8.723056,45.63
Naples Capodichino Apt,1345,268,4,Europe,17,Southern Europe,101,Italy,NAP,3329889.5,72,14.290833,40.884444
Olbia,1346,488,4,Europe,17,Southern Europe,101,Italy,OLB,1258355,61,9.517778,40.898611
Porto,1347,240,4,Europe,17,Southern Europe,171,Portugal,OPO,3827239.5,65,-8.678056,41.235556
Asturias,1348,724,4,Europe,17,Southern Europe,64,Spain,OVD,681694.5,17,-6.034722,43.563611
Ponta Delgada,1349,826,4,Europe,17,Southern Europe,171,Portugal,PDL,524202,19,-25.697778,37.741111
Perugia,1350,1460,4,Europe,17,Southern Europe,101,Italy,PEG,142480,7,12.510278,43.097222
Milan Parma Apt,1351,1526,4,Europe,17,Southern Europe,101,Italy,PMF,127346,6,10.295278,44.822222
Palma De Mallorca,1352,85,4,Europe,17,Southern Europe,64,Spain,PMI,12287513.5,156,2.738889,39.551667
Palermo,1353,299,4,Europe,17,Southern Europe,101,Italy,PMO,2708718.5,56,13.099444,38.181944
Pamplona,1354,1482,4,Europe,17,Southern Europe,64,Spain,PNA,139352,5,-1.646389,42.77
Pantelleria,1355,1562,4,Europe,17,Southern Europe,101,Italy,PNL,119854,7,11.968056,36.815
Pristina,1356,594,4,Europe,17,Southern Europe,177,Serbia,PRN,932822,31,21.035833,42.572778
Pisa,1357,295,4,Europe,17,Southern Europe,101,Italy,PSA,2764048.5,82,10.395556,43.682778
Pescara,1358,988,4,Europe,17,Southern Europe,101,Italy,PSR,372409,13,14.186667,42.431667
Pula,1359,1245,4,Europe,17,Southern Europe,91,Croatia,PUY,215108,30,13.922222,44.893611
Reggio di Calabria,1360,949,4,Europe,17,Southern Europe,101,Italy,REG,406489,5,15.653611,38.071944
Reus,1361,782,4,Europe,17,Southern Europe,64,Spain,REU,582873.5,32,1.167222,41.1475
Rhodes,1362,444,4,Europe,17,Southern Europe,84,Greece,RHO,1483577,93,28.086111,36.405556
Rimini,1363,1426,4,Europe,17,Southern Europe,101,Italy,RMI,152854.5,25,12.609444,44.019444
Santiago de Compostela,1364,492,4,Europe,17,Southern Europe,64,Spain,SCQ,1245544,27,-8.415278,42.896389
Santander,1365,713,4,Europe,17,Southern Europe,64,Spain,SDR,696262,18,-3.82,43.426944
Sarajevo,1366,863,4,Europe,17,Southern Europe,17,BosniaandHerzegovina,SJJ,488201.5,20,18.331389,43.824722
Thessaloniki,1367,320,4,Europe,17,Southern Europe,84,Greece,SKG,2486686.5,63,22.970833,40.519722
Skopje,1368,753,4,Europe,17,Southern Europe,133,MacedoniaFormerYugoslavRepublicof,SKP,636791,25,21.621389,41.961667
Samos,1369,1414,4,Europe,17,Southern Europe,84,Greece,SMI,156346,17,26.911667,37.69
Santa Cruz de la Palma,1370,820,4,Europe,17,Southern Europe,64,Spain,SPC,527528,18,-17.755556,28.626389
Split,1371,618,4,Europe,17,Southern Europe,91,Croatia,SPU,864530,60,16.298056,43.538889
Lamezia Terme,1372,482,4,Europe,17,Southern Europe,101,Italy,SUF,1287397.5,34,16.241667,38.908333
Sevilla,1373,336,4,Europe,17,Southern Europe,64,Spain,SVQ,2343771.5,46,-5.893056,37.418056
Terceira,1374,1130,4,Europe,17,Southern Europe,171,Portugal,TER,278428,8,-27.090833,38.761944
Tenerife Norte,1375,341,4,Europe,17,Southern Europe,64,Spain,TFN,2306040,26,-16.341667,28.482778
Tenerife Sur Apt,1376,238,4,Europe,17,Southern Europe,64,Spain,TFS,3871382,113,-16.5725,28.044444
Podgorica,1377,926,4,Europe,17,Southern Europe,130,Montenegro,TGD,424444.5,17,19.251944,42.359444
Tirana,1378,470,4,Europe,17,Southern Europe,6,Albania,TIA,1344523.5,37,19.720833,41.415
Tivat,1379,968,4,Europe,17,Southern Europe,130,Montenegro,TIV,386187,12,18.723333,42.404722
Trapani,1380,497,4,Europe,17,Southern Europe,101,Italy,TPS,1238049,39,12.494167,37.9075
Turin Caselle Airport,1381,360,4,Europe,17,Southern Europe,101,Italy,TRN,2139055.5,48,7.649444,45.2025
Trieste,1382,788,4,Europe,17,Southern Europe,101,Italy,TRS,577658.5,24,13.472222,45.8275
Venice Treviso/Sant'Angelo Apt,1383,462,4,Europe,17,Southern Europe,101,Italy,TSF,1395018,48,12.197778,45.650833
Venice Marco Polo Apt,1384,191,4,Europe,17,Southern Europe,101,Italy,VCE,5321730,96,12.351944,45.505278
Valverde,1385,1534,4,Europe,17,Southern Europe,64,Spain,VDE,125856,3,-17.886944,27.814722
Vigo,1386,850,4,Europe,17,Southern Europe,64,Spain,VGO,501160,8,-8.626667,42.231667
Valencia,1387,285,4,Europe,17,Southern Europe,64,Spain,VLC,2870949,72,-0.481667,39.489444
Valladolid,1388,1421,4,Europe,17,Southern Europe,64,Spain,VLL,153896,11,-4.851944,41.706111
Verona Villafranca Airport,1389,451,4,Europe,17,Southern Europe,101,Italy,VRN,1454725.5,58,10.888056,45.396389
Jerez,1390,861,4,Europe,17,Southern Europe,64,Spain,XRY,490297,23,-6.06,36.744722
Zadar,1391,1054,4,Europe,17,Southern Europe,91,Croatia,ZAD,323022,32,15.346667,44.108333
Zagreb,1392,431,4,Europe,17,Southern Europe,91,Croatia,ZAG,1574357,31,16.068889,45.743056
Zaragoza,1393,1127,4,Europe,17,Southern Europe,64,Spain,ZAZ,279997,13,-1.041667,41.666111
Zakinthos Island,1394,1048,4,Europe,17,Southern Europe,84,Greece,ZTH,328506.5,37,20.884167,37.750833
Aberdeen,1395,386,4,Europe,18,Western Europe,73,UnitedKingdom,ABZ,1947722.5,33,-2.200278,57.204167
Ajaccio,1396,602,4,Europe,18,Western Europe,71,France,AJA,907944,28,8.8025,41.923889
Amsterdam,1397,20,4,Europe,18,Western Europe,155,Netherlands,AMS,30295051,272,4.764167,52.308056
Brest,1398,768,4,Europe,18,Western Europe,71,France,BES,616660.5,22,-4.421667,48.447222
Belfast International Apt,1399,311,4,Europe,18,Western Europe,73,UnitedKingdom,BFS,2554857,46,-6.215833,54.6575
Belfast George Best City Apt,1400,405,4,Europe,18,Western Europe,73,UnitedKingdom,BHD,1765471,19,-5.8725,54.618056
Birmingham Airport,1401,171,4,Europe,18,Western Europe,73,UnitedKingdom,BHX,5839023.5,119,-1.747778,52.453611
Bastia,1402,674,4,Europe,18,Western Europe,71,France,BIA,748392.5,27,9.484722,42.55
Biarritz,1403,720,4,Europe,18,Western Europe,71,France,BIQ,685345,16,-1.531111,43.468333
Blackpool,1404,1455,4,Europe,18,Western Europe,73,UnitedKingdom,BLK,143969,12,-3.028333,53.771389
Bordeaux Merignac Apt,1405,279,4,Europe,18,Western Europe,71,France,BOD,3091644,64,-0.715278,44.828611
Bournemouth,1406,915,4,Europe,18,Western Europe,73,UnitedKingdom,BOH,438065,30,-1.8425,50.78
Bremen,1407,428,4,Europe,18,Western Europe,54,Germany,BRE,1609184,56,8.786667,53.0475
Berne Belp,1408,1258,4,Europe,18,Western Europe,40,Switzerland,BRN,207324,34,7.497222,46.914167
Bristol,1409,247,4,Europe,18,Western Europe,73,UnitedKingdom,BRS,3762634,102,-2.718889,51.3825
Brussels Airport,1410,86,4,Europe,18,Western Europe,20,Belgium,BRU,12282179.5,183,4.484444,50.901389
Basel,1411,260,4,Europe,18,Western Europe,40,Switzerland,BSL,3392210,82,7.521667,47.601111
Paris Beauvais-Tille Airport,1412,316,4,Europe,18,Western Europe,71,France,BVA,2516882.5,66,2.112778,49.454444
Beziers,1413,1406,4,Europe,18,Western Europe,71,France,BZR,159275,9,3.353333,43.323333
Carcassonne,1414,1112,4,Europe,18,Western Europe,71,France,CCF,291438,12,2.308611,43.215833
Paris Charles de Gaulle Apt,1415,10,4,Europe,18,Western Europe,71,France,CDG,37818561,270,2.547778,49.009722
Clermont-Ferrand,1416,1118,4,Europe,18,Western Europe,71,France,CFE,288244,12,3.1625,45.785833
Cologne/Bonn Apt,1417,182,4,Europe,18,Western Europe,54,Germany,CGN,5708381.5,112,7.142778,50.865833
Calvi,1418,1252,4,Europe,18,Western Europe,71,France,CLY,209465,16,8.793056,42.520278
Brussels S. Charleroi Airport,1419,228,4,Europe,18,Western Europe,20,Belgium,CRL,4157476,95,4.453889,50.459167
Cardiff,1420,695,4,Europe,18,Western Europe,73,UnitedKingdom,CWL,715053.5,41,-3.343333,51.396667
Dresden,1421,540,4,Europe,18,Western Europe,54,Germany,DRS,1070570,29,13.768056,51.134444
Doncaster/Sheffield,1422,878,4,Europe,18,Western Europe,73,UnitedKingdom,DSA,469800.5,29,-1.003889,53.475278
Dortmund,1423,515,4,Europe,18,Western Europe,54,Germany,DTM,1148391,33,7.612222,51.518333
Duesseldorf International Airport,1424,72,4,Europe,18,Western Europe,54,Germany,DUS,13710880,178,6.766667,51.289444
Edinburgh,1425,160,4,Europe,18,Western Europe,73,UnitedKingdom,EDI,6193786,113,-3.3725,55.95
Bergerac,1426,1332,4,Europe,18,Western Europe,71,France,EGC,185011,14,0.520556,44.824444
Eindhoven Airport,1427,378,4,Europe,18,Western Europe,155,Netherlands,EIN,2012419,76,5.374444,51.45
Nottingham East Midlands Airport,1428,302,4,Europe,18,Western Europe,73,UnitedKingdom,EMA,2678421.5,82,-1.328056,52.831111
Exeter,1429,831,4,Europe,18,Western Europe,73,UnitedKingdom,EXT,519624.5,38,-3.413889,50.734444
Friedrichshafen,1430,1067,4,Europe,18,Western Europe,54,Germany,FDH,312423,19,9.511389,47.671389
Karlsruhe/Baden-Baden Baden Airpark,1431,774,4,Europe,18,Western Europe,54,Germany,FKB,600945,33,8.080556,48.779444
Memmingen,1432,818,4,Europe,18,Western Europe,54,Germany,FMM,528054,34,10.2375,47.988056
Muenster/Osnabrueck,1433,896,4,Europe,18,Western Europe,54,Germany,FMO,453383,19,7.684722,52.134722
Nimes,1434,1547,4,Europe,18,Western Europe,71,France,FNI,122850,4,4.416389,43.7575
Frankfurt International Apt,1435,9,4,Europe,18,Western Europe,54,Germany,FRA,37866913,293,8.570556,50.033056
Figari,1436,1085,4,Europe,18,Western Europe,71,France,FSC,303790.5,18,9.096667,41.502222
Guernsey,1437,665,4,Europe,18,Western Europe,73,UnitedKingdom,GCI,769000,22,-2.601944,49.434722
Glasgow International Airport,1438,221,4,Europe,18,Western Europe,73,UnitedKingdom,GLA,4385078.5,80,-4.433333,55.871944
Lyon Grenoble-St Geoirs Apt,1439,1535,4,Europe,18,Western Europe,71,France,GNB,125797,21,5.332778,45.363056
Graz,1440,775,4,Europe,18,Western Europe,13,Austria,GRZ,599940,26,15.44,46.993611
Geneva,1441,116,4,Europe,18,Western Europe,40,Switzerland,GVA,9426113.5,134,6.108889,46.238056
Hannover,1442,276,4,Europe,18,Western Europe,54,Germany,HAJ,3207341,78,9.689444,52.460556
Hamburg Airport,1443,123,4,Europe,18,Western Europe,54,Germany,HAM,8898220.5,110,9.988333,53.630278
Frankfurt Hahn Airport,1444,424,4,Europe,18,Western Europe,54,Germany,HHN,1644663,63,7.263889,49.948611
Humberside,1445,1545,4,Europe,18,Western Europe,73,UnitedKingdom,HUY,123136,7,-0.350833,53.574444
Innsbruck,1446,867,4,Europe,18,Western Europe,13,Austria,INN,485485,32,11.343889,47.260278
Inverness,1447,979,4,Europe,18,Western Europe,73,UnitedKingdom,INV,377677,11,-4.05,57.54
Isle Of Man,1448,765,4,Europe,18,Western Europe,73,UnitedKingdom,IOM,619434.5,19,-4.624167,54.083333
Jersey,1449,531,4,Europe,18,Western Europe,73,UnitedKingdom,JER,1103443.5,39,-2.195278,49.207778
Klagenfurt,1450,1277,4,Europe,18,Western Europe,13,Austria,KLU,203084,8,14.337778,46.642778
Leeds Bradford,1451,363,4,Europe,18,Western Europe,73,UnitedKingdom,LBA,2119079,77,-1.660556,53.865833
Hamburg Luebeck-Blankensee Airport,1452,1216,4,Europe,18,Western Europe,54,Germany,LBC,232677,9,10.719167,53.805278
London City Apt,1453,309,4,Europe,18,Western Europe,73,UnitedKingdom,LCY,2564848.5,45,0.054167,51.505
Lourdes/Tarbes,1454,1546,4,Europe,18,Western Europe,71,France,LDE,123092,9,-0.002778,43.185556
Derry,1455,1119,4,Europe,18,Western Europe,73,UnitedKingdom,LDY,288059,8,-7.161111,55.042778
Leipzig/Halle,1456,493,4,Europe,18,Western Europe,54,Germany,LEJ,1245056.5,47,12.241667,51.4325
London Gatwick Apt,1457,43,4,Europe,18,Western Europe,73,UnitedKingdom,LGW,20348114.5,211,-0.190278,51.148056
London Heathrow Apt,1458,4,4,Europe,18,Western Europe,73,UnitedKingdom,LHR,46037082,174,-0.461389,51.4775
Limoges,1459,1251,4,Europe,18,Western Europe,71,France,LIG,210317,11,1.180278,45.860833
Lille Lesquin Airport,1460,560,4,Europe,18,Western Europe,71,France,LIL,1008188.5,36,3.086944,50.563333
Linz Blue Danube,1461,1052,4,Europe,18,Western Europe,13,Austria,LNZ,325419,22,14.1875,48.233333
Liverpool,1462,296,4,Europe,18,Western Europe,73,UnitedKingdom,LPL,2725416,61,-2.849722,53.333611
La Rochelle,1463,1508,4,Europe,18,Western Europe,71,France,LRH,132809.5,15,-1.195278,46.179167
Lorient,1464,1520,4,Europe,18,Western Europe,71,France,LRT,129403,3,-3.44,47.760556
London Luton Apt,1465,173,4,Europe,18,Western Europe,73,UnitedKingdom,LTN,5814004,104,-0.368333,51.874722
Lugano,1466,1527,4,Europe,18,Western Europe,40,Switzerland,LUG,127300,8,8.910556,46.004167
Luxembourg,1467,427,4,Europe,18,Western Europe,124,Luxembourg,LUX,1613335.5,62,6.204444,49.623333
Lyon St-Exupery Apt,1468,183,4,Europe,18,Western Europe,71,France,LYS,5565163,100,5.081111,45.725556
Manchester,1469,84,4,Europe,18,Western Europe,73,UnitedKingdom,MAN,12507309,178,-2.275,53.353611
Mulhouse,1470,913,4,Europe,18,Western Europe,71,France,MLH,439195,21,7.529167,47.59
Durham,1471,1519,4,Europe,18,Western Europe,73,UnitedKingdom,MME,129552,7,-1.429444,54.509167
Montpellier Mediterranee Apt,1472,554,4,Europe,18,Western Europe,71,France,MPL,1045480.5,27,3.961389,43.583333
Marseille Provence Apt,1473,176,4,Europe,18,Western Europe,71,France,MRS,5751141.5,111,5.215,43.436667
Maastricht/Aachen,1474,1045,4,Europe,18,Western Europe,155,Netherlands,MST,332367,23,5.776944,50.915833
Munich International Airport,1475,26,4,Europe,18,Western Europe,54,Germany,MUC,25759153,222,11.786111,48.353889
Nice,1476,137,4,Europe,18,Western Europe,71,France,NCE,7493036,104,7.215,43.665278
Newcastle,1477,300,4,Europe,18,Western Europe,73,UnitedKingdom,NCL,2706339.5,81,-1.691667,55.0375
Duesseldorf Weeze Airport,1478,436,4,Europe,18,Western Europe,54,Germany,NRN,1553299,60,6.142222,51.6025
Nantes Atlantique Airport,1479,337,4,Europe,18,Western Europe,71,France,NTE,2338525,71,-1.607778,47.156944
Nuremberg,1480,350,4,Europe,18,Western Europe,54,Germany,NUE,2213124,61,11.066944,49.498611
Norwich,1481,1173,4,Europe,18,Western Europe,73,UnitedKingdom,NWI,253647.5,16,1.282778,52.675833
Paris Orly Apt,1482,56,4,Europe,18,Western Europe,71,France,ORY,18196243,136,2.379444,48.723333
Paderborn/Lippstadt,1483,943,4,Europe,18,Western Europe,54,Germany,PAD,411020,17,8.616389,51.614167
Perpignan,1484,1202,4,Europe,18,Western Europe,71,France,PGF,238987,9,2.869722,42.740833
Glasgow Prestwick Apt,1485,678,4,Europe,18,Western Europe,73,UnitedKingdom,PIK,744615,30,-4.586667,55.509444
Pau,1486,905,4,Europe,18,Western Europe,71,France,PUF,443529,7,-0.418611,43.38
Rennes St Jacques Airport,1487,1035,4,Europe,18,Western Europe,71,France,RNS,339726,16,-1.732222,48.071944
Rotterdam Apt,1488,613,4,Europe,18,Western Europe,155,Netherlands,RTM,881482.5,39,4.430833,51.953056
Saarbruecken Airport,1489,1018,4,Europe,18,Western Europe,54,Germany,SCN,352387,10,7.110556,49.214722
London Southend Apt,1490,763,4,Europe,18,Western Europe,73,UnitedKingdom,SEN,624080,16,0.695556,51.571389
Southampton,1491,473,4,Europe,18,Western Europe,73,UnitedKingdom,SOU,1337545,36,-1.356667,50.950278
London Stansted Apt,1492,101,4,Europe,18,Western Europe,73,UnitedKingdom,STN,10562875,158,0.235,51.885
Stuttgart Airport,1493,163,4,Europe,18,Western Europe,54,Germany,STR,6078959.5,110,9.221944,48.69
Strasbourg,1494,587,4,Europe,18,Western Europe,71,France,SXB,949727.5,35,7.634444,48.541944
Berlin Schoenefeld Apt,1495,237,4,Europe,18,Western Europe,54,Germany,SXF,3871636.5,99,13.520556,52.378611
Salzburg W A Mozart,1496,577,4,Europe,18,Western Europe,13,Austria,SZG,975621,66,13.004444,47.793333
Toulon/Hyeres,1497,987,4,Europe,18,Western Europe,71,France,TLN,372452.5,12,6.146111,43.097222
Toulouse,1498,204,4,Europe,18,Western Europe,71,France,TLS,4927913.5,73,1.367778,43.635
Berlin Tegel Apt,1499,79,4,Europe,18,Western Europe,54,Germany,TXL,12876309.5,131,13.287778,52.559722
Vienna International,1500,65,4,Europe,18,Western Europe,13,Austria,VIE,14711683,175,16.578056,48.110278
Zurich Airport,1501,60,4,Europe,18,Western Europe,40,Switzerland,ZRH,15870822.5,175,8.549167,47.464722
Albury,1502,1304,5,Oceania,19,Australia and New Zealand,14,Australia,ABX,195037,3,146.958056,-36.067778
Adelaide International,1503,209,5,Oceania,19,Australia and New Zealand,14,Australia,ADL,4734160.5,20,138.530556,-34.945
Auckland International Apt,1504,122,5,Oceania,19,Australia and New Zealand,160,NewZealand,AKL,8904909,44,174.791667,-37.009722
Alice Springs Airport,1505,901,5,Oceania,19,Australia and New Zealand,14,Australia,ASP,449049,8,133.902222,-23.806667
Melbourne Avalon Airport,1506,1082,5,Oceania,19,Australia and New Zealand,14,Australia,AVV,305248.5,2,144.469444,-38.039444
Ayers Rock,1507,1368,5,Oceania,19,Australia and New Zealand,14,Australia,AYQ,172506,3,130.975556,-25.186111
Blenheim,1508,1509,5,Oceania,19,Australia and New Zealand,160,NewZealand,BHE,131936.5,3,173.869167,-41.517778
Broome,1509,1140,5,Oceania,19,Australia and New Zealand,14,Australia,BME,274248,7,122.228333,-17.948889
Brisbane,1510,68,5,Oceania,19,Australia and New Zealand,14,Australia,BNE,14552099.5,51,153.1175,-27.384167
Ballina,1511,1161,5,Oceania,19,Australia and New Zealand,14,Australia,BNK,261712.5,3,153.5625,-28.833889
Canberra,1512,345,5,Oceania,19,Australia and New Zealand,14,Australia,CBR,2274282,8,149.195,-35.306944
Coffs Harbour,1513,1172,5,Oceania,19,Australia and New Zealand,14,Australia,CFS,254113,3,153.116389,-30.320556
Christchurch,1514,257,5,Oceania,19,Australia and New Zealand,160,NewZealand,CHC,3459729.5,23,172.532222,-43.489444
Cairns,1515,292,5,Oceania,19,Australia and New Zealand,14,Australia,CNS,2793738.5,21,145.748889,-16.878056
Dubbo,1516,1442,5,Oceania,19,Australia and New Zealand,14,Australia,DBO,147777,1,148.575556,-32.218889
Darwin International,1517,481,5,Oceania,19,Australia and New Zealand,14,Australia,DRW,1312875,15,130.876667,-12.414722
Dunedin,1518,816,5,Oceania,19,Australia and New Zealand,160,NewZealand,DUD,530202,6,170.1975,-45.929167
Emerald,1519,1156,5,Oceania,19,Australia and New Zealand,14,Australia,EMD,264520,1,148.177778,-23.57
Gladstone,1520,921,5,Oceania,19,Australia and New Zealand,14,Australia,GLT,428720,3,151.222778,-23.869722
Hobart,1521,472,5,Oceania,19,Australia and New Zealand,14,Australia,HBA,1343669,6,147.510278,-42.836111
Hamilton,1522,1280,5,Oceania,19,Australia and New Zealand,160,NewZealand,HLZ,202471,4,175.331944,-37.866667
Hamilton Island,1523,1086,5,Oceania,19,Australia and New Zealand,14,Australia,HTI,302199.5,4,148.951667,-20.358056
Mount Isa,1524,1269,5,Oceania,19,Australia and New Zealand,14,Australia,ISA,206312.5,5,139.488611,-20.663889
Invercargill,1525,1382,5,Oceania,19,Australia and New Zealand,160,NewZealand,IVC,168282,2,168.313056,-46.414722
Kalgoorlie-Boulder,1526,1185,5,Oceania,19,Australia and New Zealand,14,Australia,KGI,247257.5,4,121.463611,-30.791389
Karratha,1527,754,5,Oceania,19,Australia and New Zealand,14,Australia,KTA,635382,7,116.773333,-20.712222
Launceston,1528,629,5,Oceania,19,Australia and New Zealand,14,Australia,LST,830356.5,4,147.211111,-41.545278
Sunshine Coast,1529,827,5,Oceania,19,Australia and New Zealand,14,Australia,MCY,523567.5,3,153.091111,-26.603333
Melbourne Airport,1530,48,5,Oceania,19,Australia and New Zealand,14,Australia,MEL,19738088.5,52,144.843333,-37.673333
Mackay,1531,609,5,Oceania,19,Australia and New Zealand,14,Australia,MKY,884583.5,5,149.179722,-21.171667
Moranbah,1532,1247,5,Oceania,19,Australia and New Zealand,14,Australia,MOV,214261,2,148.076389,-22.058611
Mildura,1533,1393,5,Oceania,19,Australia and New Zealand,14,Australia,MQL,164644,3,142.085556,-34.229167
Napier-Hastings,1534,1101,5,Oceania,19,Australia and New Zealand,160,NewZealand,NPE,296425,3,176.867778,-39.464444
New Plymouth,1535,1232,5,Oceania,19,Australia and New Zealand,160,NewZealand,NPL,225710,3,174.1775,-39.008056
Nelson,1536,898,5,Oceania,19,Australia and New Zealand,160,NewZealand,NSN,449417,4,173.224167,-41.296667
Newcastle Williamtown Apt,1537,627,5,Oceania,19,Australia and New Zealand,14,Australia,NTL,832924,6,151.834444,-32.795
Gold Coast,1538,250,5,Oceania,19,Australia and New Zealand,14,Australia,OOL,3648338.5,15,153.504722,-28.164444
Paraburdoo,1539,1315,5,Oceania,19,Australia and New Zealand,14,Australia,PBO,191456,1,117.746667,-23.171944
Perth,1540,126,5,Oceania,19,Australia and New Zealand,14,Australia,PER,8679827,32,115.966944,-31.940278
Port Hedland,1541,914,5,Oceania,19,Australia and New Zealand,14,Australia,PHE,438149,6,118.626389,-20.377778
Port Lincoln,1542,1387,5,Oceania,19,Australia and New Zealand,14,Australia,PLO,165820,1,135.880278,-34.605278
Palmerston North,1543,1096,5,Oceania,19,Australia and New Zealand,160,NewZealand,PMR,298946,5,175.613611,-40.32
Proserpine,1544,1419,5,Oceania,19,Australia and New Zealand,14,Australia,PPP,154616,1,148.553056,-20.494167
Port Macquarie,1545,1397,5,Oceania,19,Australia and New Zealand,14,Australia,PQQ,163147,2,152.862222,-31.435556
Roma,1546,1383,5,Oceania,19,Australia and New Zealand,14,Australia,RMA,166471,1,148.774722,-26.545
Rockhampton,1547,786,5,Oceania,19,Australia and New Zealand,14,Australia,ROK,578937,5,150.475278,-23.381944
Rotorua,1548,1434,5,Oceania,19,Australia and New Zealand,160,NewZealand,ROT,151217,4,176.316389,-38.106944
Sydney Kingsford Smith Apt,1549,27,5,Oceania,19,Australia and New Zealand,14,Australia,SYD,25024482.5,71,151.177222,-33.946111
Tamworth,1550,1542,5,Oceania,19,Australia and New Zealand,14,Australia,TMW,124344.5,2,150.846667,-31.083889
Tauranga,1551,1367,5,Oceania,19,Australia and New Zealand,160,NewZealand,TRG,173170,3,176.198611,-37.673333
Townsville,1552,514,5,Oceania,19,Australia and New Zealand,14,Australia,TSV,1149667.5,10,146.765278,-19.2525
Wagga Wagga,1553,1394,5,Oceania,19,Australia and New Zealand,14,Australia,WGA,163843,3,147.466389,-35.165278
Wellington,1554,259,5,Oceania,19,Australia and New Zealand,160,NewZealand,WLG,3404554.5,17,174.806944,-41.326944
Newman,1555,961,5,Oceania,19,Australia and New Zealand,14,Australia,ZNE,395062,2,119.802778,-23.417778
Queenstown,1556,671,5,Oceania,19,Australia and New Zealand,160,NewZealand,ZQN,755095,6,168.746667,-45.018333
Mount Hagen,1557,1390,5,Oceania,20,Melanesia,165,PapuaNewGuinea,HGU,165137,2,144.295833,-5.826667
Lae,1558,1248,5,Oceania,20,Melanesia,165,PapuaNewGuinea,LAE,213979,2,146.726111,-6.569722
Nadi,1559,581,5,Oceania,20,Melanesia,67,Fiji,NAN,958126,14,177.443611,-17.755
La Tontouta,1560,1070,5,Oceania,20,Melanesia,150,NewCaledonia,NOU,311969,9,166.213056,-22.014444
Port Moresby,1561,681,5,Oceania,20,Melanesia,165,PapuaNewGuinea,POM,736316,12,147.22,-9.443333
Port Vila,1562,1301,5,Oceania,20,Melanesia,223,Vanuatu,VLI,195637.5,6,168.319722,-17.699444
Guam Antonio B Won Pat International,1563,361,5,Oceania,21,Micronesia,86,Guam,GUM,2137353.5,32,144.796111,13.483333
Koror,1564,1337,5,Oceania,21,Micronesia,172,Palau,ROR,183906.5,8,134.544167,7.367222
Saipan,1565,780,5,Oceania,21,Micronesia,138,NorthernMarianaIslands(exceptGuam),SPN,583892.5,12,145.729444,15.118889
Apia Faleolo Apt,1566,1323,5,Oceania,22,Polynesia,225,Samoa,APW,188700,5,-171.997222,-13.829722
Tahiti,1567,1056,5,Oceania,22,Polynesia,164,FrenchPolynesia,PPT,320554.5,6,-149.607222,-17.553889
Rarotonga Island,1568,1375,5,Oceania,22,Polynesia,42,CookIslands,RAR,169878.5,4,-159.798333,-21.202778